country_code,country_name,city,postal,latitude,longitude,IPv4,state
FR,France,Arcueil,94110,48.7999,2.3326000000000002,91.160.99.188,Val-de-Marne
FR,France,Paris,75001,48.8628,2.3292,132.227.84.74,Paris
FR,France,,,48.8582,2.3387000000000002,91.211.66.167,
FR,France,Maisons,28700,48.4087,1.8437000000000001,78.196.175.81,Eure-et-Loir
FR,France,,,48.8582,2.3387000000000002,92.184.98.166,
FR,France,Paris,75001,48.8628,2.3292,134.157.26.51,Paris
FR,France,Vaires-sur-Marne,77360,48.8765,2.6398,93.0.186.140,Seine-et-Marne
FR,France,Clamart,92140,48.803,2.2669,176.151.229.29,Hauts-de-Seine
FR,France,Paris,75013,48.8322,2.3561,46.193.66.93,Paris
FR,France,Rochefort,17300,45.9333,-0.9833,88.126.66.224,Charente-Maritime
FR,France,,,48.8582,2.3387000000000002,93.23.12.22,
FR,France,Antony,92160,48.75,2.3,89.3.53.86,Hauts-de-Seine
FR,France,Boulogne-Billancourt,92100,48.8333,2.25,90.127.73.102,Hauts-de-Seine
FR,France,,,48.8582,2.3387000000000002,91.175.56.48,
FR,France,Pontoise,95300,49.05,2.1,91.160.134.247,Val d'Oise
FR,France,Saint-Julien-en-Genevois,74160,46.1443,6.0826,78.199.239.204,Haute-Savoie
FR,France,Paris,75008,48.8763,2.3183,85.68.85.224,Paris
FR,France,Suresnes,92150,48.8714,2.2293,87.88.187.222,Hauts-de-Seine
FR,France,Rouen,76000,49.4333,1.0833,88.167.39.32,Seine-Maritime
FR,France,Paris,75001,48.8628,2.3292,132.227.118.145,Paris
FR,France,Annecy,74000,45.9,6.1167,77.204.144.180,Haute-Savoie
FR,France,Paris,75001,48.8628,2.3292,132.227.118.147,Paris
FR,France,Listrac-Médoc,33480,45.0741,-0.7913,78.198.177.94,Gironde
FR,France,Paris,75014,48.8331,2.3264,83.202.247.237,Paris
FR,France,Paris,75001,48.8628,2.3292,134.157.53.41,Paris
FR,France,Roubaix,59100,50.6942,3.1746,77.204.245.147,North
FR,France,Paris,75001,48.8628,2.3292,134.157.254.96,Paris
FR,France,Paris,75001,48.8628,2.3292,132.227.118.148,Paris
FR,France,Paris,75001,48.8628,2.3292,134.157.15.21,Paris
FR,France,Paris,75003,48.8637,2.3615,176.175.48.126,Paris
FR,France,Massy,91300,48.7269,2.283,81.64.13.41,Essonne
FR,France,Chambly,60230,49.1667,2.25,213.245.170.149,Oise
FR,France,Créteil,94000,48.7833,2.4667,86.246.91.50,Val-de-Marne
FR,France,,,48.8582,2.3387000000000002,91.175.131.67,
FR,France,Elesmes,59600,50.3074,4.0102,88.126.81.90,North
FR,France,Corbeil-Essonnes,91100,48.606,2.4876,176.168.211.110,Essonne
FR,France,Paris,75020,48.8534,2.3487999999999998,46.193.1.190,Paris
FR,France,,,48.8582,2.3387000000000002,93.23.12.248,
FR,France,Paris,75015,48.8412,2.3003,176.159.59.14,Paris
FR,France,Saint-Die-des-Vosges,88100,48.2494,6.8995999999999995,93.22.132.188,Vosges
FR,France,Nieuil-l'Espoir,86340,46.4838,0.4552,78.198.72.191,Vienne
FR,France,Rive-de-Gier,42800,45.5275,4.6159,88.166.51.104,Loire
FR,France,,,48.8582,2.3387000000000002,91.175.155.185,
FR,France,Cachan,94230,48.7963,2.3366,86.247.173.218,Val-de-Marne
FR,France,Lizy-sur-Ourcq,77440,49.0245,3.0218,78.118.68.41,Seine-et-Marne
FR,France,Sartrouville,78500,48.9482,2.1917,90.90.46.245,Yvelines
FR,France,Lagny-sur-Marne,,48.8755,2.7075,93.4.85.37,Seine-et-Marne
FR,France,Elna,66200,42.6003,2.9715,88.165.199.149,Pyrénées-Orientales
FR,France,Saint-Amand-les-Eaux,59230,50.4472,3.4308,88.166.159.104,North
FR,France,Pau,64000,43.3,-0.3667,176.143.36.110,Pyrénées-Atlantiques
FR,France,Monteils,82300,44.1686,1.5760999999999998,88.160.204.21,Tarn-et-Garonne
FR,France,,,48.8582,2.3387000000000002,81.185.173.243,
FR,France,Paris,75001,48.8628,2.3292,132.227.78.123,Paris
FR,France,,,48.8582,2.3387000000000002,89.84.76.197,
FR,France,Paris,75018,48.8925,2.3444,80.215.133.53,Paris
FR,France,Pierrefitte-sur-Seine,93380,48.9669,2.3609999999999998,109.14.25.23,Seine-Saint-Denis
FR,France,,,48.8582,2.3387000000000002,37.164.229.18,
FR,France,Lamastre,07270,44.9855,4.5797,88.122.131.76,Ardèche
FR,France,Nanterre,92000,48.892,2.2067,37.170.163.250,Hauts-de-Seine
FR,France,Paris,75020,48.8534,2.3487999999999998,37.171.251.158,Paris
FR,France,Paris,75020,48.8534,2.3487999999999998,176.158.226.219,Paris
FR,France,Stains,93240,48.95,2.3833,93.29.225.69,Seine-Saint-Denis
FR,France,Saint-Jean-de-Braye,45800,47.913,1.9769999999999999,193.248.56.104,Loiret
FR,France,Paris,75012,48.8412,2.3876,77.141.193.208,Paris
FR,France,Levallois-Perret,92300,48.8939,2.2886,78.193.88.15,Hauts-de-Seine
FR,France,,,48.8582,2.3387000000000002,93.23.14.162,
US,United States,,,37.751,-97.822,23.90.200.94,
FR,France,,,48.8582,2.3387000000000002,93.23.12.6,
FR,France,Paris,75013,48.8322,2.3561,37.164.64.36,Paris
FR,France,Paris,75001,48.8628,2.3292,132.227.118.146,Paris
FR,France,Paris,75009,48.8718,2.3399,37.164.197.250,Paris
FR,France,Paris,75004,48.8601,2.3507,37.164.142.217,Paris
FR,France,Courbevoie,92400,48.8967,2.2567,81.67.16.216,Hauts-de-Seine
FR,France,Saint-Denis,93200,48.9333,2.3667,90.22.193.101,Seine-Saint-Denis
FR,France,Blois,41000,47.5833,1.3333,93.4.26.244,Loir-et-Cher
FR,France,Paris,75015,48.8412,2.3003,78.192.2.246,Paris
FR,France,Aulnay-sous-Bois,93600,48.9381,2.4939999999999998,37.171.95.80,Seine-Saint-Denis
FR,France,Paris,75017,48.8835,2.3219,80.215.73.5,Paris
FR,France,Anzin,59410,50.372,3.5039,93.22.39.134,North
FR,France,Paris,75019,48.8817,2.3822,46.193.0.163,Paris
FR,France,Fresnes,94260,48.7557,2.3224,176.186.142.113,Val-de-Marne
FR,France,Brunoy,91800,48.6942,2.4922,91.167.29.12,Essonne
FR,France,Paris,75003,48.8637,2.3615,94.228.185.34,Paris
FR,France,Sartrouville,78500,48.9482,2.1917,90.90.41.92,Yvelines
FR,France,Paris,75014,48.8331,2.3264,37.164.119.126,Paris
FR,France,Poitiers,86000,46.5833,0.3333,88.165.213.187,Vienne
FR,France,Paris,75019,48.8817,2.3822,92.169.45.74,Paris
FR,France,,,48.8582,2.3387000000000002,46.193.68.75,
FR,France,Paris,75001,48.8628,2.3292,134.157.25.207,Paris
FR,France,Paris,75017,48.8835,2.3219,37.173.86.211,Paris
FR,France,Paris,75018,48.8925,2.3444,80.215.198.34,Paris
FR,France,Bouaye,44830,47.1426,-1.6931,93.22.148.80,Loire-Atlantique
FR,France,Paris,75018,48.8925,2.3444,80.215.134.98,Paris
FR,France,Brétigny-sur-Orge,91220,48.6113,2.3059,176.134.18.88,Essonne
FR,France,,,48.8582,2.3387000000000002,37.172.184.217,
FR,France,Paris,75019,48.8817,2.3822,90.92.254.59,Paris
FR,France,,,48.8582,2.3387000000000002,176.165.152.50,
FR,France,,,48.8582,2.3387000000000002,78.123.95.36,
FR,France,Élancourt,,48.7842,1.9552,90.127.197.39,Yvelines
FR,France,Ivry-sur-Seine,94200,48.8157,2.3849,82.123.23.115,Val-de-Marne
FR,France,Larche,19600,45.1229,1.4142000000000001,88.122.113.166,Corrèze
FR,France,Montreuil,93100,48.8642,2.4432,37.165.165.154,Seine-Saint-Denis
FR,France,,,48.8582,2.3387000000000002,94.238.14.17,
FR,France,Paris,75010,48.8709,2.3561,92.169.35.44,Paris
FR,France,Paris,75017,48.8835,2.3219,5.51.218.174,Paris
FR,France,,,48.8582,2.3387000000000002,91.174.213.44,
FR,France,Paris,75010,48.8709,2.3561,37.164.190.109,Paris
FR,France,Paris,75020,48.8534,2.3487999999999998,37.170.55.20,Paris
FR,France,Paris,75020,48.8534,2.3487999999999998,80.214.71.229,Paris
FR,France,Limeil-Brevannes,94450,48.7448,2.487,89.87.74.23,Val-de-Marne
FR,France,Meaux,77100,48.9601,2.8788,87.91.41.221,Seine-et-Marne
GB,United Kingdom,London,EC2V,51.5161,-0.0949,83.137.1.204,England
FR,France,,,48.8667,2.3333,37.170.158.74,Île-de-France
FR,France,Moyeuvre-Grande,57250,49.2516,6.0475,88.123.209.75,Moselle
FR,France,Paris,75019,48.8817,2.3822,77.207.242.52,Paris
FR,France,Paris,75010,48.8709,2.3561,80.215.11.22,Paris
FR,France,,,48.8582,2.3387000000000002,176.179.27.121,
FR,France,Paris,75014,48.8331,2.3264,176.186.205.167,Paris
FR,France,Paris,75015,48.8412,2.3003,90.92.55.105,Paris
FR,France,Paris,75017,48.8835,2.3219,80.215.2.134,Paris
FR,France,,,48.8582,2.3387000000000002,37.171.148.42,
FR,France,Paris,75020,48.8534,2.3487999999999998,92.184.105.4,Paris
GB,United Kingdom,Kidderminster,DY11,52.375,-2.2417,185.13.106.106,Worcestershire
FR,France,Anzin,59410,50.372,3.5039,93.22.37.12,North
FR,France,Anzin,59410,50.372,3.5039,93.22.38.51,North
FR,France,Paris,75017,48.8835,2.3219,80.214.23.195,Paris
FR,France,Paris,75011,48.8574,2.3795,37.165.58.105,Paris
FR,France,Paris,75018,48.8925,2.3444,80.215.128.191,Paris
FR,France,Paris,75020,48.8534,2.3487999999999998,80.215.65.215,Paris
FR,France,Aubervilliers,93300,48.9167,2.3833,92.92.61.80,Seine-Saint-Denis
FR,France,,,48.8582,2.3387000000000002,176.131.42.133,
FR,France,Aubervilliers,93300,48.9167,2.3833,90.3.17.124,Seine-Saint-Denis
FR,France,Paris,75008,48.8763,2.3183,37.165.237.54,Paris
FR,France,,,48.8582,2.3387000000000002,93.23.12.198,
FR,France,Aulnay-sous-Bois,93600,48.9381,2.4939999999999998,89.90.128.241,Seine-Saint-Denis
FR,France,,,48.8582,2.3387000000000002,91.175.11.203,
FR,France,Rueil-Malmaison,92500,48.8765,2.1897,176.160.148.203,Hauts-de-Seine
FR,France,Narbonne,11100,43.184,3.0014,79.91.223.208,Aude
FR,France,Paris,75020,48.8534,2.3487999999999998,37.171.234.56,Paris
FR,France,Montpellier,34070,43.6109,3.8772,88.170.1.201,Hérault
FR,France,Le Chesnay,78150,48.8222,2.1221,82.124.73.71,Yvelines
ES,Spain,Madrid,28001,40.4167,-3.6837999999999997,91.142.213.109,Madrid
FR,France,Villemoustaussou,11620,43.2519,2.3655,90.0.208.79,Aude
FR,France,Paris,75020,48.8534,2.3487999999999998,37.165.1.110,Paris
Not found,Not found,Not found,Not found,Not found,Not found,IP Not found,Not found
FR,France,Paris,75020,48.8534,2.3487999999999998,37.171.2.197,Paris
FR,France,Aubervilliers,93300,48.9167,2.3833,109.14.131.43,Seine-Saint-Denis
FR,France,La Ville-aux-Dames,37700,47.3955,0.7684,88.123.235.40,Indre and Loire
FR,France,Paris,75001,48.8628,2.3292,134.157.15.22,Paris
FR,France,Marseille,13000,43.2854,5.3761,37.172.202.217,Bouches-du-Rhône
FR,France,Cergy,95000,49.0364,2.0761,46.193.66.248,Val d'Oise
FR,France,Bouaye,44830,47.1426,-1.6931,93.22.150.222,Loire-Atlantique
GB,United Kingdom,Kidderminster,DY11,52.375,-2.2417,185.13.106.236,Worcestershire
FR,France,Paris,75020,48.8534,2.3487999999999998,80.214.113.243,Paris
FR,France,Montmagny,95360,48.9734,2.3468999999999998,77.131.248.232,Val d'Oise
FR,France,Clichy,92110,48.9002,2.3095,37.165.241.219,Hauts-de-Seine
FR,France,,,48.8582,2.3387000000000002,37.165.50.102,
FR,France,Anzin,59410,50.372,3.5039,93.22.36.47,North
FR,France,,,48.8582,2.3387000000000002,93.23.14.254,
FR,France,Laval,53000,48.0667,-0.7667,87.88.164.180,Mayenne
FR,France,Saint-Die-des-Vosges,88100,48.2494,6.8995999999999995,93.22.133.133,Vosges
FR,France,Paris,75019,48.8817,2.3822,37.164.236.145,Paris
FR,France,,,48.8582,2.3387000000000002,93.23.14.136,
FR,France,,,48.8582,2.3387000000000002,92.184.97.55,
FR,France,Paris,75017,48.8835,2.3219,37.164.220.116,Paris
FR,France,Saint-Die-des-Vosges,88100,48.2494,6.8995999999999995,93.22.132.105,Vosges
FR,France,Paris,75001,48.8628,2.3292,134.157.15.20,Paris
FR,France,Paris,75019,48.8817,2.3822,37.173.181.213,Paris
FR,France,,,48.8582,2.3387000000000002,176.172.94.225,
FR,France,Courbevoie,92400,48.8967,2.2567,79.95.12.10,Hauts-de-Seine
FR,France,Paris,75017,48.8835,2.3219,5.51.245.240,Paris
FR,France,Paris,75013,48.8322,2.3561,37.165.146.214,Paris
FR,France,Anzin,59410,50.372,3.5039,93.22.37.251,North
FR,France,,,48.8582,2.3387000000000002,37.165.255.164,
FR,France,Paris,75019,48.8817,2.3822,92.169.45.207,Paris
FR,France,Saint-Die-des-Vosges,88100,48.2494,6.8995999999999995,93.22.134.242,Vosges
FR,France,Rueil-Malmaison,92500,48.8765,2.1897,90.79.24.18,Hauts-de-Seine
FR,France,Neuilly-Plaisance,93360,48.8634,2.5060000000000002,86.74.25.222,Seine-Saint-Denis
FR,France,Cachan,94230,48.7963,2.3366,86.247.168.255,Val-de-Marne
FR,France,Mortcerf,77163,48.7888,2.9169,176.143.58.37,Seine-et-Marne
FR,France,Paris,75015,48.8412,2.3003,176.175.83.241,Paris
FR,France,Bouaye,44830,47.1426,-1.6931,93.22.151.232,Loire-Atlantique
FR,France,Saint-Die-des-Vosges,88100,48.2494,6.8995999999999995,93.22.133.243,Vosges
FR,France,Sarreinsming,57905,49.0897,7.1096,88.123.122.183,Moselle
FR,France,Brétigny-sur-Orge,91220,48.6113,2.3059,87.91.192.231,Essonne
FR,France,,,48.8582,2.3387000000000002,46.193.66.155,
FR,France,Le Blanc-Mesnil,93150,48.9387,2.4614,78.245.174.153,Seine-Saint-Denis
FR,France,Saint-Maur-des-Fossés,94210,48.7939,2.4932,91.161.224.98,Val-de-Marne
FR,France,Maizieres-les-Metz,57280,49.2075,6.1605,37.172.17.116,Moselle
FR,France,Montevrain,77144,48.8742,2.7511,88.170.135.43,Seine-et-Marne
FR,France,Aubervilliers,93300,48.9167,2.3833,109.14.101.32,Seine-Saint-Denis
FR,France,Paris,75001,48.8628,2.3292,46.193.1.219,Paris
FR,France,L'Haÿ-les-Roses,94240,48.7833,2.3333,89.3.106.241,Val-de-Marne
FR,France,Paris,75008,48.8763,2.3183,83.159.72.241,Paris
FR,France,Épinay-sur-Orge,91360,48.6734,2.3106999999999998,90.44.67.200,Essonne
FR,France,Paris,75013,48.8322,2.3561,80.215.154.221,Paris
FR,France,Paris,75011,48.8574,2.3795,176.189.148.165,Paris
FR,France,Paris,75014,48.8331,2.3264,80.215.166.198,Paris
FR,France,Cachan,94230,48.7963,2.3366,176.132.208.231,Val-de-Marne
FR,France,Paris,75013,48.8322,2.3561,37.171.246.56,Paris
FR,France,Levallois-Perret,92300,48.8939,2.2886,80.215.101.75,Hauts-de-Seine
FR,France,Paris,75018,48.8925,2.3444,37.165.141.63,Paris
FR,France,Villiers-sur-Marne,94350,48.831,2.5484,83.200.59.179,Val-de-Marne
FR,France,Vannes,56000,47.6667,-2.75,176.191.241.19,Morbihan
FR,France,Paris,75017,48.8835,2.3219,90.79.237.124,Paris
FR,France,Paris,75017,48.8835,2.3219,80.214.16.84,Paris
FR,France,Paris,75019,48.8817,2.3822,80.215.243.86,Paris
FR,France,Paris,75001,48.8628,2.3292,134.157.24.204,Paris
FR,France,Fouleix,24380,44.9842,0.6811,37.170.95.83,Dordogne
FR,France,Villejuif,94800,48.7939,2.3599,37.170.37.22,Val-de-Marne
FR,France,Villejuif,94800,48.7939,2.3599,37.170.36.63,Val-de-Marne
FR,France,Paris,75001,48.8628,2.3292,37.170.64.23,Paris
FR,France,Veron,89510,48.1285,3.3077,88.122.57.133,Yonne
FR,France,Saint-Die-des-Vosges,88100,48.2494,6.8995999999999995,93.22.134.215,Vosges
FR,France,Paris,75020,48.8534,2.3487999999999998,176.175.60.56,Paris
FR,France,Paris,75001,48.8628,2.3292,109.190.91.67,Paris
FR,France,Noyal-sur-Vilaine,35530,48.1122,-1.5232999999999999,78.202.106.126,Ille-et-Vilaine
FR,France,Paris,75015,48.8412,2.3003,90.92.145.143,Paris
FR,France,Dreux,28100,48.7333,1.3667,87.88.171.29,Eure-et-Loir
FR,France,Paris,75017,48.8835,2.3219,80.214.22.160,Paris
FR,France,Paris,75008,48.8763,2.3183,80.215.111.47,Paris
FR,France,Paris,75020,48.8534,2.3487999999999998,80.214.115.214,Paris
FR,France,Paris,75013,48.8322,2.3561,80.215.40.21,Paris
FR,France,Paris,75014,48.8331,2.3264,80.215.162.138,Paris
FR,France,Paris,75020,48.8534,2.3487999999999998,80.214.115.223,Paris
FR,France,Paris,75001,48.8628,2.3292,134.157.26.68,Paris
FR,France,Saint-Die-des-Vosges,88100,48.2494,6.8995999999999995,93.22.132.111,Vosges
FR,France,Vitry-sur-Seine,94400,48.7872,2.4032999999999998,37.165.8.197,Val-de-Marne
FR,France,,,48.8582,2.3387000000000002,77.204.199.118,
FR,France,Paris,75000,48.8534,2.3487999999999998,176.241.250.4,Paris
FR,France,Paris,75019,48.8817,2.3822,37.172.113.103,Paris
FR,France,Paris,75018,48.8925,2.3444,37.172.76.112,Paris
FR,France,Paris,75012,48.8412,2.3876,92.184.118.137,Paris
FR,France,Igny,91430,48.7444,2.2243,82.123.31.94,Essonne
FR,France,Noisy-le-Grand,93160,48.8498,2.5627,37.169.6.70,Seine-Saint-Denis
FR,France,Paris,75013,48.8322,2.3561,80.215.159.56,Paris
FR,France,Boulogne-Billancourt,92100,48.8333,2.25,90.127.70.26,Hauts-de-Seine
FR,France,Missy,14210,49.1205,-0.551,78.198.27.168,Calvados
FR,France,Paris,75013,48.8322,2.3561,93.19.181.199,Paris
FR,France,Paris,75018,48.8925,2.3444,37.165.142.125,Paris
FR,France,Paris,75011,48.8574,2.3795,5.48.96.109,Paris
FR,France,,,48.8582,2.3387000000000002,37.171.163.124,
FR,France,Lans-en-Vercors,38250,45.1279,5.5857,88.127.96.107,Isère
FR,France,Vaucresson,92420,48.8408,2.1565,176.186.86.13,Hauts-de-Seine
FR,France,,,48.8582,2.3387000000000002,176.172.242.179,
FR,France,Fontainebleau,77300,48.4,2.7,93.25.49.250,Seine-et-Marne
FR,France,Bobigny,93000,48.9,2.45,37.165.204.55,Seine-Saint-Denis
FR,France,Saint-Berthevin,53940,48.0667,-0.8333,87.88.170.47,Mayenne
FR,France,Vanves,92170,48.8235,2.2903000000000002,80.215.89.172,Hauts-de-Seine
FR,France,Paris,75007,48.8565,2.321,37.164.122.107,Paris
FR,France,Paris,75015,48.8412,2.3003,37.164.29.237,Paris
FR,France,Le Mans,72000,48,0.2,87.88.190.137,Sarthe
FR,France,La Chapelle-Saint-Mesmin,45380,47.8865,1.8345,88.121.182.220,Loiret
FR,France,Paris,75020,48.8534,2.3487999999999998,80.214.119.227,Paris
GB,United Kingdom,Kidderminster,DY11,52.375,-2.2417,185.13.106.118,Worcestershire
FR,France,Paris,75019,48.8817,2.3822,78.194.183.128,Paris
FR,France,Montigny-les-Cormeilles,95370,48.982,2.2003,176.186.30.207,Val d'Oise
FR,France,,,48.8582,2.3387000000000002,37.164.44.152,
FR,France,Rozerieulles,57160,49.1068,6.0824,91.165.227.143,Moselle
FR,France,Elven,56250,47.7323,-2.5896,176.144.24.93,Morbihan
FR,France,Houilles,78800,48.9216,2.1926,90.90.27.148,Yvelines
FR,France,Paris,75010,48.8709,2.3561,37.173.146.188,Paris
FR,France,Paris,75018,48.8925,2.3444,37.165.70.156,Paris
FR,France,Paris,75013,48.8322,2.3561,80.215.152.251,Paris
FR,France,Nogent-sur-Marne,94130,48.8333,2.4833,90.46.55.201,Val-de-Marne
FR,France,Montrouge,92120,48.8162,2.3139,78.194.159.117,Hauts-de-Seine
FR,France,,,48.8582,2.3387000000000002,82.64.117.24,
FR,France,Montfermeil,93370,48.8982,2.5791,78.199.94.161,Seine-Saint-Denis
FR,France,Massy,91300,48.7269,2.283,176.137.237.252,Essonne
FR,France,Paris,75018,48.8925,2.3444,80.215.133.154,Paris
FR,France,Sarreguemines,57200,49.11,7.0675,81.220.66.137,Moselle
FR,France,Paris,75017,48.8835,2.3219,80.214.22.245,Paris
FR,France,Paris,75010,48.8709,2.3561,81.67.129.178,Paris
FR,France,Vanves,92170,48.8235,2.2903000000000002,80.215.93.217,Hauts-de-Seine
FR,France,Anzin,59410,50.372,3.5039,93.22.39.120,North
FR,France,Bouaye,44830,47.1426,-1.6931,93.22.148.140,Loire-Atlantique
FR,France,Bouaye,44830,47.1426,-1.6931,93.22.149.76,Loire-Atlantique
FR,France,Paris,75008,48.8763,2.3183,37.169.51.63,Paris
FR,France,Paris,75011,48.8574,2.3795,78.193.211.121,Paris
FR,France,Paris,75020,48.8534,2.3487999999999998,80.215.71.104,Paris
FR,France,Thiais,94320,48.765,2.3961,91.161.218.237,Val-de-Marne
FR,France,Paris,75015,48.8412,2.3003,37.172.233.14,Paris
FR,France,Fresnes,94260,48.7557,2.3224,80.215.206.240,Val-de-Marne
FR,France,Saint-Die-des-Vosges,88100,48.2494,6.8995999999999995,93.22.133.122,Vosges
FR,France,Albigny-sur-Saone,69250,45.8667,4.8333,37.165.168.27,Rhône
FR,France,Paris,75020,48.8534,2.3487999999999998,80.215.71.106,Paris
FR,France,,,48.8582,2.3387000000000002,37.165.107.157,
FR,France,Paris,75001,48.8628,2.3292,134.157.26.122,Paris
FR,France,Anzin,59410,50.372,3.5039,93.22.39.247,North
FR,France,Ivry-sur-Seine,94200,48.8157,2.3849,80.215.173.80,Val-de-Marne
FR,France,Vigneux-sur-Seine,91270,48.7029,2.4136,94.239.11.227,Essonne
FR,France,Anzin,59410,50.372,3.5039,93.22.39.102,North
FR,France,Bouaye,44830,47.1426,-1.6931,93.22.148.174,Loire-Atlantique
GB,United Kingdom,Kidderminster,DY11,52.375,-2.2417,185.13.106.97,Worcestershire
GB,United Kingdom,London,EC2V,51.5161,-0.0949,83.137.1.222,England
FR,France,Paris,75004,48.8601,2.3507,37.170.248.213,Paris
FR,France,Paris,75019,48.8817,2.3822,80.214.24.67,Paris
,,,,47,8,77.111.247.138,
FR,France,,,48.8582,2.3387000000000002,92.184.97.128,
FR,France,Saint-Die-des-Vosges,88100,48.2494,6.8995999999999995,93.22.135.110,Vosges
FR,France,Dole,39100,47.1,5.5,176.145.216.71,Jura
FR,France,Paris,75017,48.8835,2.3219,80.215.77.197,Paris
FR,France,Paris,75014,48.8331,2.3264,80.215.162.205,Paris
FR,France,Paris,75017,48.8835,2.3219,80.215.0.128,Paris
FR,France,Paris,75007,48.8565,2.321,37.164.120.9,Paris
FR,France,Alençon,61000,48.4333,0.0833,87.88.173.183,Orne
FR,France,Villiers-sur-Marne,94350,48.831,2.5484,37.170.159.44,Val-de-Marne
FR,France,,,48.8582,2.3387000000000002,37.165.23.30,
FR,France,Le Mee-sur-Seine,77350,48.5195,2.6065,83.199.244.238,Seine-et-Marne
FR,France,Paris,75012,48.8412,2.3876,37.170.195.87,Paris
FR,France,Paris,75015,48.8412,2.3003,80.215.230.95,Paris
FR,France,Paris,75011,48.8574,2.3795,185.61.186.156,Paris
GB,United Kingdom,Kidderminster,DY11,52.375,-2.2417,185.13.106.225,Worcestershire
FR,France,Anzin,59410,50.372,3.5039,93.22.38.114,North
FR,France,Saint-Ouen,93400,48.9065,2.3334,37.168.105.115,Seine-Saint-Denis
FR,France,Bouaye,44830,47.1426,-1.6931,93.22.150.218,Loire-Atlantique
FR,France,Paris,75020,48.8534,2.3487999999999998,37.164.155.120,Paris
FR,France,,,48.8582,2.3387000000000002,92.184.97.178,
FR,France,Paris,75008,48.8763,2.3183,37.170.191.135,Paris
FR,France,Paris,75020,48.8534,2.3487999999999998,92.184.106.181,Paris
FR,France,Anzin,59410,50.372,3.5039,93.22.37.95,North
FR,France,Villemomble,93250,48.8833,2.5,37.165.123.119,Seine-Saint-Denis
FR,France,Villejuif,94800,48.7939,2.3599,37.172.186.131,Val-de-Marne
FR,France,Paris,75017,48.8835,2.3219,80.215.77.82,Paris
FR,France,,,48.8582,2.3387000000000002,92.184.97.218,
FR,France,Paris,75013,48.8322,2.3561,37.171.208.87,Paris
GB,United Kingdom,Kidderminster,DY11,52.375,-2.2417,185.13.106.102,Worcestershire
FR,France,Paris,75017,48.8835,2.3219,80.214.72.76,Paris
FR,France,,,48.8582,2.3387000000000002,93.23.13.217,
FR,France,Villemomble,93250,48.8833,2.5,37.165.120.69,Seine-Saint-Denis
FR,France,Paris,75018,48.8925,2.3444,80.215.198.211,Paris
FR,France,Paris,75013,48.8322,2.3561,37.169.3.149,Paris
FR,France,Bouaye,44830,47.1426,-1.6931,93.22.148.168,Loire-Atlantique
FR,France,Paris,75017,48.8835,2.3219,80.215.1.68,Paris
FR,France,,,48.8582,2.3387000000000002,93.23.15.170,
FR,France,Paris,75020,48.8534,2.3487999999999998,37.171.69.60,Paris
FR,France,Paris,75017,48.8835,2.3219,80.215.72.178,Paris
FR,France,Paris,75014,48.8331,2.3264,37.165.119.50,Paris
FR,France,Paris,75020,48.8534,2.3487999999999998,80.214.117.169,Paris
FR,France,Paris,75018,48.8925,2.3444,37.165.141.205,Paris
GB,United Kingdom,London,EC2V,51.5161,-0.0949,83.137.1.200,England
FR,France,Anzin,59410,50.372,3.5039,93.22.39.179,North
FR,France,Paris,75012,48.8412,2.3876,92.184.116.249,Paris
FR,France,Paris,75013,48.8322,2.3561,37.172.139.79,Paris
FR,France,Paris,75017,48.8835,2.3219,37.164.224.74,Paris
FR,France,Les Lilas,93260,48.8799,2.4206,37.170.25.143,Seine-Saint-Denis
FR,France,Ivry-sur-Seine,94200,48.8157,2.3849,80.215.170.35,Val-de-Marne
FR,France,Paris,75017,48.8835,2.3219,80.215.5.180,Paris
FR,France,Paris,75018,48.8925,2.3444,37.164.252.35,Paris
FR,France,Paris,75017,48.8835,2.3219,80.214.75.145,Paris
FR,France,Paris,75014,48.8331,2.3264,80.215.32.4,Paris
FR,France,Paris,75018,48.8925,2.3444,80.215.130.80,Paris
FR,France,Paris,75007,48.8565,2.321,37.164.122.89,Paris
FR,France,,,48.8582,2.3387000000000002,93.23.13.242,
FR,France,Saint-Denis,93200,48.9333,2.3667,37.171.104.157,Seine-Saint-Denis
FR,France,Paris,75020,48.8534,2.3487999999999998,92.184.105.51,Paris
FR,France,Anzin,59410,50.372,3.5039,93.22.39.68,North
FR,France,Paris,75018,48.8925,2.3444,80.215.135.107,Paris
GB,United Kingdom,Kidderminster,DY11,52.375,-2.2417,185.13.106.116,Worcestershire
FR,France,Bouaye,44830,47.1426,-1.6931,93.22.151.31,Loire-Atlantique
FR,France,Paris,75008,48.8763,2.3183,37.165.220.5,Paris
FR,France,Paris,75010,48.8709,2.3561,37.173.147.147,Paris
FR,France,Paris,75019,48.8817,2.3822,37.170.211.28,Paris
FR,France,Vigneux-sur-Seine,91270,48.7029,2.4136,37.171.116.246,Essonne
FR,France,Paris,75001,48.8628,2.3292,37.172.149.3,Paris
FR,France,Paris,75001,48.8628,2.3292,134.157.24.50,Paris
FR,France,Paris,75008,48.8763,2.3183,37.165.237.111,Paris
FR,France,Paris,75018,48.8925,2.3444,37.165.142.54,Paris
FR,France,Fresnes,94260,48.7557,2.3224,80.215.202.26,Val-de-Marne
FR,France,Ivry-sur-Seine,94200,48.8157,2.3849,37.164.0.85,Val-de-Marne
FR,France,Bouaye,44830,47.1426,-1.6931,93.22.151.46,Loire-Atlantique
FR,France,,,48.8582,2.3387000000000002,92.184.97.86,
FR,France,Vitry-sur-Seine,94400,48.7872,2.4032999999999998,109.28.77.72,Val-de-Marne
FR,France,Paris,75018,48.8925,2.3444,37.173.240.183,Paris
FR,France,Bouaye,44830,47.1426,-1.6931,93.22.148.210,Loire-Atlantique
FR,France,Paris,75013,48.8322,2.3561,80.215.42.12,Paris
FR,France,Paris,75013,48.8322,2.3561,89.156.4.223,Paris
FR,France,,,48.8582,2.3387000000000002,93.23.13.138,
FR,France,Paris,75013,48.8322,2.3561,37.172.158.228,Paris
FR,France,Roubaix,59100,50.6942,3.1746,77.204.247.20,North
FR,France,,,48.8582,2.3387000000000002,93.23.13.154,
FR,France,Paris,75015,48.8412,2.3003,37.164.110.152,Paris
FR,France,Bouaye,44830,47.1426,-1.6931,93.22.148.251,Loire-Atlantique
FR,France,Paris,75020,48.8534,2.3487999999999998,80.214.64.185,Paris
FR,France,Bouaye,44830,47.1426,-1.6931,93.22.150.192,Loire-Atlantique
FR,France,Paris,75000,48.8534,2.3487999999999998,176.241.251.4,Paris
FR,France,Ivry-sur-Seine,94200,48.8157,2.3849,80.215.175.208,Val-de-Marne
FR,France,,,48.8582,2.3387000000000002,93.23.12.168,
FR,France,Vitry-sur-Seine,94400,48.7872,2.4032999999999998,37.165.158.111,Val-de-Marne
FR,France,,,48.8582,2.3387000000000002,92.184.97.61,
FR,France,,,48.8582,2.3387000000000002,93.23.13.169,
FR,France,Paris,75004,48.8601,2.3507,37.170.135.60,Paris
FR,France,Paris,75013,48.8322,2.3561,80.215.45.47,Paris
FR,France,,,48.8582,2.3387000000000002,93.23.13.94,
FR,France,Paris,75020,48.8534,2.3487999999999998,80.215.68.217,Paris
FR,France,Saint-Die-des-Vosges,88100,48.2494,6.8995999999999995,93.22.135.30,Vosges
FR,France,Paris,75013,48.8322,2.3561,80.215.159.22,Paris
FR,France,Paris,75018,48.8925,2.3444,80.215.193.234,Paris
FR,France,Vanves,92170,48.8235,2.2903000000000002,80.215.90.199,Hauts-de-Seine
FR,France,Annecy,74000,45.9,6.1167,77.204.146.247,Haute-Savoie
FR,France,Paris,75008,48.8763,2.3183,37.165.219.37,Paris
FR,France,Paris,75018,48.8925,2.3444,80.215.194.124,Paris
FR,France,,,48.8582,2.3387000000000002,93.23.13.170,
FR,France,,,48.8582,2.3387000000000002,92.184.98.151,
FR,France,,,48.8582,2.3387000000000002,93.23.14.178,
FR,France,Paris,75013,48.8322,2.3561,37.172.55.15,Paris
FR,France,Paris,75015,48.8412,2.3003,37.172.165.7,Paris
FR,France,Maisons-Alfort,94700,48.8117,2.4394,86.247.164.212,Val-de-Marne
FR,France,Paris,75014,48.8331,2.3264,80.215.36.124,Paris
FR,France,,,48.8582,2.3387000000000002,93.23.13.186,
HK,Hong Kong,,,22.25,114.1667,202.66.60.187,
FR,France,,,48.8582,2.3387000000000002,92.184.97.196,
FR,France,,,48.8582,2.3387000000000002,92.184.98.84,
FR,France,Anzin,59410,50.372,3.5039,93.22.38.255,North
BG,Bulgaria,Sofia,1000,42.6833,23.3167,212.5.158.38,Sofia-Capital
FR,France,Saint-Die-des-Vosges,88100,48.2494,6.8995999999999995,93.22.135.46,Vosges
FR,France,Bouaye,44830,47.1426,-1.6931,93.22.151.188,Loire-Atlantique
FR,France,,,48.8582,2.3387000000000002,93.23.14.152,
BG,Bulgaria,,,42.7,23.3333,94.26.106.231,
GB,United Kingdom,Kidderminster,DY11,52.375,-2.2417,185.13.106.104,Worcestershire
FR,France,Montreuil,93100,48.8642,2.4432,37.170.125.39,Seine-Saint-Denis
FR,France,Commer,53470,48.2333,-0.6167,176.170.93.95,Mayenne
FR,France,Paris,75015,48.8412,2.3003,176.159.116.43,Paris
FR,France,L'Haÿ-les-Roses,94240,48.7833,2.3333,37.165.189.48,Val-de-Marne
FR,France,,,48.8582,2.3387000000000002,91.168.233.31,
FR,France,Ivry-sur-Seine,94200,48.8157,2.3849,80.215.170.24,Val-de-Marne
Not found,Not found,Not found,Not found,Not found,Not found,IP Not found,Not found
Not found,Not found,Not found,Not found,Not found,Not found,IP Not found,Not found
US,United States,,,37.751,-97.822,143.244.57.109,
IT,Italy,,,43.1479,12.1097,84.17.60.236,
US,United States,,,37.751,-97.822,143.244.57.92,
FR,France,Paris,75003,48.8637,2.3615,109.25.114.222,Paris
RO,Romania,,,46,25,84.247.51.236,
US,United States,,,37.751,-97.822,143.244.57.84,
FR,France,,,48.8582,2.3387000000000002,93.23.14.129,
US,United States,,,37.751,-97.822,143.244.56.229,
FR,France,Paris,75001,48.8628,2.3292,176.142.7.189,Paris
US,United States,,,37.751,-97.822,143.244.57.88,
FR,France,Paris,75012,48.8412,2.3876,93.19.137.215,Paris
US,United States,,,37.751,-97.822,143.244.57.118,
FR,France,La Chapelle-sur-Erdre,44240,47.2958,-1.5531000000000001,78.198.151.36,Loire-Atlantique
FR,France,Paris,75018,48.8925,2.3444,37.165.65.116,Paris
US,United States,,,37.751,-97.822,143.244.57.123,
FR,France,,,48.8582,2.3387000000000002,85.190.69.98,
FR,France,Paris,75015,48.8412,2.3003,80.214.127.114,Paris
FR,France,Boissy-Saint-Léger,94470,48.7515,2.5116,176.151.33.177,Val-de-Marne
FR,France,Saint-Denis,93200,48.9333,2.3667,37.171.108.21,Seine-Saint-Denis
FR,France,Paris,75019,48.8817,2.3822,80.215.241.191,Paris
FR,France,Luray,28500,48.7204,1.3989,87.88.172.232,Eure-et-Loir
FR,France,Paris,75017,48.8835,2.3219,80.214.22.36,Paris
FR,France,Laval,53000,48.0667,-0.7667,87.88.163.132,Mayenne
FR,France,Lambersart,59130,50.65,3.0333,81.220.115.202,North
FR,France,Paris,75019,48.8817,2.3822,195.132.154.79,Paris
FR,France,Gonesse,95500,48.9869,2.4489,176.168.140.69,Val d'Oise
RO,Romania,,,46,25,84.247.51.238,
FR,France,Gentilly,94250,48.8129,2.3417,46.193.67.56,Val-de-Marne
FR,France,Saint-Berthevin,53940,48.0667,-0.8333,87.88.170.148,Mayenne
FR,France,Paris,75012,48.8412,2.3876,92.184.118.159,Paris
FR,France,,,48.8582,2.3387000000000002,46.193.4.249,
BG,Bulgaria,Sofia,1000,42.6833,23.3167,212.5.158.86,Sofia-Capital
FR,France,,,48.8582,2.3387000000000002,91.168.114.22,
FR,France,,,48.8582,2.3387000000000002,93.23.15.181,
FR,France,Paris,75018,48.8925,2.3444,37.165.143.48,Paris
FR,France,Alfortville,94140,48.8058,2.4204,37.165.186.42,Val-de-Marne
FR,France,Saint-Denis,93200,48.9333,2.3667,46.193.64.40,Seine-Saint-Denis
FR,France,Pantin,93500,48.8944,2.4093,37.170.87.249,Seine-Saint-Denis
FR,France,Marly-le-Roi,78160,48.8667,2.0833,176.182.213.204,Yvelines
RS,Serbia,Belgrade,,44.8186,20.4681,109.93.246.6,Belgrade
FR,France,Paris,75017,48.8835,2.3219,80.214.77.102,Paris
FR,France,Paris,75017,48.8835,2.3219,80.215.74.39,Paris
FR,France,Bouaye,44830,47.1426,-1.6931,93.22.150.149,Loire-Atlantique
FR,France,Bezons,95870,48.9243,2.2128,46.193.64.150,Val d'Oise
FR,France,Saint-Jean-de-Vedas,34430,43.5776,3.826,88.127.171.218,Hérault
FR,France,Cergy,95000,49.0364,2.0761,46.193.66.226,Val d'Oise
FR,France,Le Mee-sur-Seine,77350,48.5195,2.6065,92.170.172.70,Seine-et-Marne
FR,France,Paris,75020,48.8534,2.3487999999999998,78.194.58.113,Paris
FR,France,,,48.8582,2.3387000000000002,93.23.12.91,
FR,France,Colombes,92700,48.9188,2.254,176.160.164.62,Hauts-de-Seine
FR,France,Paris,75013,48.8322,2.3561,80.215.158.204,Paris
FR,France,Paris,75020,48.8534,2.3487999999999998,80.214.66.70,Paris
FR,France,Paris,75014,48.8331,2.3264,80.215.165.202,Paris
FR,France,Saint-Die-des-Vosges,88100,48.2494,6.8995999999999995,93.22.133.69,Vosges
FR,France,Gentilly,94250,48.8129,2.3417,90.44.43.226,Val-de-Marne
FR,France,Saint-Die-des-Vosges,88100,48.2494,6.8995999999999995,93.22.135.193,Vosges
FR,France,Anzin,59410,50.372,3.5039,93.22.36.219,North
FR,France,,,48.8582,2.3387000000000002,89.85.255.59,
FR,France,Lias,32600,43.5621,1.1346,78.202.83.115,Gers
FR,France,Paris,75015,48.8412,2.3003,80.215.225.79,Paris
FR,France,Paris,75014,48.8331,2.3264,80.215.167.206,Paris
FR,France,Anzin,59410,50.372,3.5039,93.22.37.206,North
FR,France,Paris,75013,48.8322,2.3561,88.160.5.239,Paris
FR,France,,,48.8582,2.3387000000000002,83.159.180.220,
FR,France,Paris,75011,48.8574,2.3795,86.252.41.172,Paris
FR,France,Paris,75011,48.8574,2.3795,185.61.186.150,Paris
FR,France,Estillac,47310,44.1577,0.5638,88.123.238.177,Lot-et-Garonne
FR,France,Vanves,92170,48.8235,2.2903000000000002,92.169.174.23,Hauts-de-Seine
FR,France,Montreuil,93100,48.8642,2.4432,37.172.58.162,Seine-Saint-Denis
FR,France,Paris,75014,48.8331,2.3264,193.52.24.43,Paris
FR,France,Les Lilas,93260,48.8799,2.4206,86.252.81.74,Seine-Saint-Denis
FR,France,Créteil,94000,48.7833,2.4667,86.246.91.215,Val-de-Marne
FR,France,Paris,75019,48.8817,2.3822,37.164.181.85,Paris
FR,France,Alençon,61000,48.4333,0.0833,87.88.166.146,Orne
FR,France,Aulnay-sous-Bois,93600,48.9381,2.4939999999999998,31.39.148.98,Seine-Saint-Denis
FR,France,Paris,75019,48.8817,2.3822,89.2.199.172,Paris
FR,France,Paris,75008,48.8763,2.3183,80.215.105.213,Paris
FR,France,Vanves,92170,48.8235,2.2903000000000002,80.215.95.127,Hauts-de-Seine
FR,France,Châteauroux,36000,46.8167,1.7,92.152.75.252,Indre
FR,France,Paris,75001,48.8628,2.3292,37.173.118.10,Paris
FR,France,Saint-Die-des-Vosges,88100,48.2494,6.8995999999999995,93.22.135.176,Vosges
FR,France,Paris,75020,48.8534,2.3487999999999998,89.156.71.213,Paris
FR,France,Paris,75008,48.8763,2.3183,89.159.45.19,Paris
FR,France,Bouaye,44830,47.1426,-1.6931,93.22.148.236,Loire-Atlantique
FR,France,Auray,56400,47.6703,-2.9918,176.144.27.212,Morbihan
GB,United Kingdom,Kidderminster,DY11,52.375,-2.2417,185.13.106.211,Worcestershire
FR,France,Arnieres-sur-Iton,27180,48.9968,1.1038000000000001,5.48.92.41,Eure
FR,France,,,48.8582,2.3387000000000002,91.170.91.58,
Not found,Not found,Not found,Not found,Not found,Not found,IP Not found,Not found
US,United States,,,37.751,-97.822,159.242.228.45,
FR,France,Maisons-Alfort,94700,48.8117,2.4394,109.12.207.139,Val-de-Marne
US,United States,,,37.751,-97.822,143.244.57.74,
FR,France,Montreuil,93100,48.8642,2.4432,37.171.115.119,Seine-Saint-Denis
FR,France,Paris,93200,48.9333,2.3667,185.93.2.116,Paris
FR,France,Saint-Denis,93200,48.9333,2.3667,46.193.64.51,Seine-Saint-Denis
FR,France,Montrouge,92120,48.8162,2.3139,176.182.71.90,Hauts-de-Seine
FR,France,Paris,75019,48.8817,2.3822,87.89.245.180,Paris
FR,France,Fresnes,94260,48.7557,2.3224,80.215.205.136,Val-de-Marne
FR,France,Paris,75014,48.8331,2.3264,176.186.201.117,Paris
FR,France,Paris,75020,48.8534,2.3487999999999998,92.184.106.56,Paris
FR,France,Demigny,71150,46.9305,4.8338,88.170.21.135,Saône-et-Loire
FR,France,Rueil-Malmaison,92500,48.8765,2.1897,90.79.24.179,Hauts-de-Seine
FR,France,Paris,75018,48.8925,2.3444,93.19.1.151,Paris
FR,France,Nanterre,92000,48.892,2.2067,77.207.211.53,Hauts-de-Seine
FR,France,Vitry-sur-Seine,94400,48.7872,2.4032999999999998,94.239.127.91,Val-de-Marne
FR,France,Stains,93240,48.95,2.3833,109.30.29.165,Seine-Saint-Denis
FR,France,Paris,75015,48.8412,2.3003,80.215.231.79,Paris
FR,France,Bouaye,44830,47.1426,-1.6931,93.22.148.81,Loire-Atlantique
FR,France,,,48.8582,2.3387000000000002,93.23.14.99,
FR,France,Anzin,59410,50.372,3.5039,93.22.37.15,North
FR,France,Paris,75003,48.8637,2.3615,90.44.194.16,Paris
FR,France,Bouaye,44830,47.1426,-1.6931,93.22.148.246,Loire-Atlantique
FR,France,Bouaye,44830,47.1426,-1.6931,93.22.151.197,Loire-Atlantique
FR,France,,,48.8582,2.3387000000000002,93.23.13.90,
FR,France,,,48.8582,2.3387000000000002,37.169.25.245,
FR,France,Paris,75017,48.8835,2.3219,37.168.126.95,Paris
FR,France,,,48.8582,2.3387000000000002,92.184.100.21,
FR,France,Levallois-Perret,92300,48.8939,2.2886,80.215.102.218,Hauts-de-Seine
FR,France,Paris,75003,48.8637,2.3615,5.48.118.207,Paris
FR,France,Paris,75001,48.8628,2.3292,134.157.26.249,Paris
FR,France,Paris,75020,48.8534,2.3487999999999998,80.214.65.206,Paris
FR,France,Vergeze,30310,43.744,4.2211,90.0.215.60,Gard
FR,France,Fontenay-sous-Bois,94120,48.8544,2.4827,85.170.245.243,Val-de-Marne
FR,France,Athis-Mons,91200,48.7052,2.3915,176.135.71.220,Essonne
FR,France,Paris,75017,48.8835,2.3219,80.214.18.203,Paris
FR,France,Nantes,,47.2165,-1.5524,90.115.124.14,Loire-Atlantique
FR,France,Massy,91300,48.7269,2.283,90.44.181.101,Essonne
FR,France,Paris,75010,48.8709,2.3561,80.215.14.197,Paris
FR,France,,,48.8582,2.3387000000000002,91.167.198.192,
FR,France,Maisons-Alfort,94700,48.8117,2.4394,86.247.165.9,Val-de-Marne
FR,France,Saint-Die-des-Vosges,88100,48.2494,6.8995999999999995,93.22.133.233,Vosges
FR,France,Livry-Gargan,93190,48.9193,2.5431,92.170.146.17,Seine-Saint-Denis
FR,France,Sermizelles,89200,47.5373,3.7932,37.172.253.79,Yonne
FR,France,Paris,75018,48.8925,2.3444,80.215.129.218,Paris
FR,France,Paris,75014,48.8331,2.3264,82.123.87.85,Paris
FR,France,Meaux,77100,48.9601,2.8788,89.90.142.124,Seine-et-Marne
Not found,Not found,Not found,Not found,Not found,Not found,IP Not found,Not found
FR,France,Saint-Die-des-Vosges,88100,48.2494,6.8995999999999995,93.22.133.135,Vosges
FR,France,,,48.8582,2.3387000000000002,185.228.229.51,
FR,France,Paris,75003,48.8637,2.3615,37.170.43.226,Paris
FR,France,Paris,75004,48.8601,2.3507,37.164.136.150,Paris
FR,France,,,48.8582,2.3387000000000002,93.11.35.196,
FR,France,Rueil-Malmaison,92500,48.8765,2.1897,90.127.20.156,Hauts-de-Seine
FR,France,Saint-Die-des-Vosges,88100,48.2494,6.8995999999999995,93.22.132.241,Vosges
FR,France,Houilles,78800,48.9216,2.1926,90.90.35.192,Yvelines
FR,France,Paris,75017,48.8835,2.3219,80.215.7.162,Paris
FR,France,Saint-Die-des-Vosges,88100,48.2494,6.8995999999999995,93.22.134.135,Vosges
FR,France,Paris,75020,48.8534,2.3487999999999998,92.184.106.196,Paris
FR,France,Paris,75020,48.8534,2.3487999999999998,92.184.106.21,Paris
FR,France,Paris,75020,48.8534,2.3487999999999998,92.184.106.158,Paris
FR,France,Paris,75020,48.8534,2.3487999999999998,80.214.112.157,Paris
FR,France,Paris,75017,48.8835,2.3219,80.214.19.17,Paris
FR,France,Paris,75015,48.8412,2.3003,80.214.120.4,Paris
FR,France,Paris,75017,48.8835,2.3219,37.164.20.130,Paris
FR,France,Camiers,62176,50.5715,1.6133,88.125.216.1,Pas-de-Calais
FR,France,Chevilly-Larue,94550,48.7648,2.3503,176.187.165.75,Val-de-Marne
FR,France,Chatou,78400,48.8898,2.1586,88.167.79.1,Yvelines
FR,France,Paris,75018,48.8925,2.3444,37.165.65.214,Paris
FR,France,,,48.8582,2.3387000000000002,37.173.126.31,
FR,France,Montreuil,93100,48.8642,2.4432,37.172.228.136,Seine-Saint-Denis
FR,France,Paris,75001,48.8628,2.3292,132.227.84.239,Paris
FR,France,Routot,27350,49.378,0.7335,37.172.214.121,Eure
FR,France,Paris,75018,48.8925,2.3444,80.215.193.52,Paris
US,United States,,,37.751,-97.822,23.90.200.134,
FR,France,Paris,75001,48.8628,2.3292,134.157.53.3,Paris
FR,France,Sucy-en-Brie,94370,48.7687,2.5347,91.160.106.98,Val-de-Marne
FR,France,Avranches,50300,48.6833,-1.3667,176.129.105.15,Manche
FR,France,Paris,75017,48.8835,2.3219,80.215.72.243,Paris
FR,France,Paris,75010,48.8709,2.3561,37.170.243.10,Paris
Not found,Not found,Not found,Not found,Not found,Not found,IP Not found,Not found
FR,France,Paris,75018,48.8925,2.3444,80.215.129.203,Paris
FR,France,Paris,75017,48.8835,2.3219,37.171.222.244,Paris
FR,France,Saint-Denis,93200,48.9333,2.3667,37.171.10.75,Seine-Saint-Denis
FR,France,Paris,75017,48.8835,2.3219,80.214.16.79,Paris
FR,France,,,48.8582,2.3387000000000002,93.23.14.90,
FR,France,Anzin,59410,50.372,3.5039,93.22.38.221,North
FR,France,Paris,75013,48.8322,2.3561,80.215.41.184,Paris
FR,France,Paris,75015,48.8412,2.3003,37.164.110.50,Paris
FR,France,Orry-la-Ville,60560,49.1335,2.5114,88.169.176.107,Oise
FR,France,Fresnes,94260,48.7557,2.3224,80.215.204.49,Val-de-Marne
FR,France,Paris,75020,48.8534,2.3487999999999998,92.184.105.245,Paris
FR,France,Paris,75012,48.8412,2.3876,92.184.117.240,Paris
FR,France,Saint-Maurice,94410,48.8218,2.4272,37.171.56.124,Val-de-Marne
FR,France,Paris,75013,48.8322,2.3561,89.156.20.203,Paris
FR,France,,,48.8582,2.3387000000000002,176.173.49.149,
FR,France,Ricquebourg,60490,49.5599,2.7561999999999998,88.126.20.143,Oise
DK,Denmark,Copenhagen,2750,55.7316,12.3633,185.206.224.237,Capital Region
Not found,Not found,Not found,Not found,Not found,Not found,IP Not found,Not found
ES,Spain,Murcia,30003,37.987,-1.13,83.137.1.212,Murcia
FR,France,Paris,75018,48.8925,2.3444,37.164.11.77,Paris
GB,United Kingdom,Kidderminster,DY11,52.375,-2.2417,185.13.106.228,Worcestershire
FR,France,,,48.8582,2.3387000000000002,37.169.62.30,
FR,France,Paris,75017,48.8835,2.3219,80.215.6.255,Paris
FR,France,Toulouse,31000,43.6043,1.4437,82.66.83.225,Upper Garonne
FR,France,Bouaye,44830,47.1426,-1.6931,93.22.148.211,Loire-Atlantique
FR,France,Paris,75011,48.8574,2.3795,193.48.70.222,Paris
GB,United Kingdom,London,EC2V,51.5161,-0.0949,83.137.1.210,England
FR,France,Paris,75013,48.8322,2.3561,90.44.193.198,Paris
FR,France,Paris,75011,48.8574,2.3795,83.159.95.58,Paris
FR,France,Saint-Die-des-Vosges,88100,48.2494,6.8995999999999995,93.22.134.51,Vosges
FR,France,Montreuil,93100,48.8642,2.4432,37.170.91.238,Seine-Saint-Denis
FR,France,Paris,75000,48.8534,2.3487999999999998,37.164.39.222,Paris
FR,France,Levallois-Perret,92300,48.8939,2.2886,80.215.102.29,Hauts-de-Seine
FR,France,Anzin,59410,50.372,3.5039,93.22.37.215,North
RO,Romania,,,46,25,89.40.210.175,
FR,France,Saint-Die-des-Vosges,88100,48.2494,6.8995999999999995,93.22.133.100,Vosges
FR,France,,,48.8582,2.3387000000000002,37.170.68.177,
FR,France,Paris,75006,48.8493,2.33,37.164.61.218,Paris
FR,France,Saint-Die-des-Vosges,88100,48.2494,6.8995999999999995,93.22.133.142,Vosges
FR,France,,,48.8582,2.3387000000000002,92.184.97.232,
FR,France,Paris,75020,48.8534,2.3487999999999998,92.184.106.88,Paris
FR,France,Ivry-sur-Seine,94200,48.8157,2.3849,80.215.169.76,Val-de-Marne
FR,France,Bouaye,44830,47.1426,-1.6931,93.22.150.235,Loire-Atlantique
FR,France,Bouaye,44830,47.1426,-1.6931,93.22.151.106,Loire-Atlantique
FR,France,Montreuil,93100,48.8642,2.4432,37.172.225.79,Seine-Saint-Denis
FR,France,Paris,75017,48.8835,2.3219,37.171.221.179,Paris
FR,France,Puteaux,92800,48.8834,2.2389,78.114.21.114,Hauts-de-Seine
FR,France,Saint-Die-des-Vosges,88100,48.2494,6.8995999999999995,93.22.135.216,Vosges
FR,France,Paris,75019,48.8817,2.3822,37.170.111.29,Paris
FR,France,,,48.8582,2.3387000000000002,93.23.12.12,
FR,France,Paris,75011,48.8574,2.3795,37.171.153.7,Paris
FR,France,Rosny-sous-Bois,93110,48.8702,2.4991,86.252.132.121,Seine-Saint-Denis
FR,France,Paris,75020,48.8534,2.3487999999999998,80.215.66.209,Paris
FR,France,Bouaye,44830,47.1426,-1.6931,93.22.149.169,Loire-Atlantique
FR,France,Paris,75002,48.8655,2.3426,37.164.92.59,Paris
FR,France,Paris,75015,48.8412,2.3003,80.214.121.3,Paris
FR,France,Saint-Die-des-Vosges,88100,48.2494,6.8995999999999995,93.22.132.57,Vosges
RS,Serbia,Belgrade,,44.8186,20.4681,109.245.39.91,Belgrade
FR,France,Paris,75002,48.8655,2.3426,80.215.87.115,Paris
FR,France,Bouaye,44830,47.1426,-1.6931,93.22.151.5,Loire-Atlantique
Not found,Not found,Not found,Not found,Not found,Not found,IP Not found,Not found
HK,Hong Kong,,,22.25,114.1667,202.66.60.187,
Not found,Not found,Not found,Not found,Not found,Not found,IP Not found,Not found
Not found,Not found,Not found,Not found,Not found,Not found,IP Not found,Not found
Not found,Not found,Not found,Not found,Not found,Not found,IP Not found,Not found
Not found,Not found,Not found,Not found,Not found,Not found,IP Not found,Not found
Not found,Not found,Not found,Not found,Not found,Not found,IP Not found,Not found
Not found,Not found,Not found,Not found,Not found,Not found,IP Not found,Not found
FR,France,Paris,75010,48.8709,2.3561,37.164.190.107,Paris
FR,France,Cachan,94230,48.7963,2.3366,78.113.78.163,Val-de-Marne
FR,France,Montevrain,77144,48.8742,2.7511,94.228.181.222,Seine-et-Marne
FR,France,Bouaye,44830,47.1426,-1.6931,93.22.151.32,Loire-Atlantique
FR,France,Sannois,95110,48.9667,2.25,90.91.165.61,Val d'Oise
FR,France,Paris,75010,48.8709,2.3561,80.215.12.94,Paris
FR,France,Asnieres-sur-Seine,92600,48.9167,2.2833,37.172.130.131,Hauts-de-Seine
FR,France,Gentilly,94250,48.8129,2.3417,91.166.199.187,Val-de-Marne
FR,France,Dammarie-les-Lys,,48.5226,2.6513999999999998,92.170.84.97,Seine-et-Marne
FR,France,Paris,75006,48.8493,2.33,37.164.57.215,Paris
FR,France,Anzin,59410,50.372,3.5039,93.22.39.205,North
FR,France,Saint-Maurice,94410,48.8218,2.4272,37.171.63.211,Val-de-Marne
FR,France,Argenteuil,95100,48.95,2.25,37.164.230.103,Val d'Oise
Not found,Not found,Not found,Not found,Not found,Not found,IP Not found,Not found
FR,France,Cachan,94230,48.7963,2.3366,78.113.76.219,Val-de-Marne
FR,France,Le Mans,72000,48,0.2,87.88.174.117,Sarthe
FR,France,Saint-Die-des-Vosges,88100,48.2494,6.8995999999999995,93.22.132.239,Vosges
FR,France,Paris,75020,48.8534,2.3487999999999998,92.184.106.202,Paris
FR,France,Paris,75019,48.8817,2.3822,37.169.28.47,Paris
FR,France,Saint-Die-des-Vosges,88100,48.2494,6.8995999999999995,93.22.134.255,Vosges
FR,France,Montrouge,92120,48.8162,2.3139,37.165.193.180,Hauts-de-Seine
FR,France,Paris,75013,48.8322,2.3561,37.172.140.129,Paris
FR,France,Paris,75011,48.8574,2.3795,82.123.70.245,Paris
FR,France,,,48.8582,2.3387000000000002,89.85.245.189,
FR,France,Paris,75001,48.8628,2.3292,134.157.27.121,Paris
FR,France,,,48.8582,2.3387000000000002,89.85.244.172,
FR,France,Vigneux-sur-Seine,91270,48.7029,2.4136,94.239.11.76,Essonne
FR,France,Rozay-en-Brie,77540,48.6833,2.9582,78.242.42.99,Seine-et-Marne
FR,France,Paris,75017,48.8835,2.3219,80.214.75.101,Paris
FR,France,Paris,75015,48.8412,2.3003,80.215.224.144,Paris
FR,France,Paris,75014,48.8331,2.3264,37.165.115.195,Paris
FR,France,Saint-Denis,93200,48.9333,2.3667,37.171.109.142,Seine-Saint-Denis
FR,France,Paris,75015,48.8412,2.3003,37.164.132.171,Paris
FR,France,,,48.8582,2.3387000000000002,93.23.15.240,
FR,France,Paris,75015,48.8412,2.3003,37.172.81.91,Paris
FR,France,Paris,75019,48.8817,2.3822,37.173.170.136,Paris
FR,France,Stains,93240,48.95,2.3833,37.165.230.46,Seine-Saint-Denis
FR,France,,,48.8582,2.3387000000000002,37.172.29.227,
FR,France,Nogent-le-Roi,28210,48.6478,1.5293,87.88.182.223,Eure-et-Loir
FR,France,Paris,75020,48.8534,2.3487999999999998,37.171.113.155,Paris
FR,France,Paris,75015,48.8412,2.3003,37.164.128.57,Paris
FR,France,Paris,75013,48.8322,2.3561,80.215.155.20,Paris
FR,France,,,48.8582,2.3387000000000002,93.23.13.49,
FR,France,Saint-Die-des-Vosges,88100,48.2494,6.8995999999999995,93.22.135.170,Vosges
FR,France,Ivry-sur-Seine,94200,48.8157,2.3849,80.215.169.80,Val-de-Marne
FR,France,Massy,91300,48.7269,2.283,37.169.47.79,Essonne
FR,France,Paris,75018,48.8925,2.3444,80.215.129.179,Paris
FR,France,Paris,75002,48.8655,2.3426,37.164.89.65,Paris
FR,France,Luce,28110,48.4369,1.4636,87.88.177.99,Eure-et-Loir
FR,France,,,48.8582,2.3387000000000002,37.165.200.108,
FR,France,,,48.8582,2.3387000000000002,89.85.250.22,
FR,France,,,48.8582,2.3387000000000002,92.184.97.184,
FR,France,,,48.8582,2.3387000000000002,193.57.121.32,
FR,France,Paris,75015,48.8412,2.3003,37.170.216.250,Paris
FR,France,Paris,75020,48.8534,2.3487999999999998,92.184.106.166,Paris
FR,France,Stains,93240,48.95,2.3833,37.165.231.144,Seine-Saint-Denis
FR,France,Paris,75019,48.8817,2.3822,37.164.178.184,Paris
FR,France,Paris,75015,48.8412,2.3003,80.215.224.86,Paris
FR,France,Ivry-sur-Seine,94200,48.8157,2.3849,80.215.172.154,Val-de-Marne
FR,France,Bouaye,44830,47.1426,-1.6931,93.22.150.248,Loire-Atlantique
FR,France,Paris,75019,48.8817,2.3822,80.214.29.150,Paris
FR,France,Anzin,59410,50.372,3.5039,93.22.37.255,North
FR,France,Anzin,59410,50.372,3.5039,93.22.38.118,North
FR,France,Vitry-sur-Seine,94400,48.7872,2.4032999999999998,37.165.159.165,Val-de-Marne
FR,France,,,48.8582,2.3387000000000002,93.23.12.107,
FR,France,Anzin,59410,50.372,3.5039,93.22.36.214,North
FR,France,Levallois-Perret,92300,48.8939,2.2886,80.215.97.60,Hauts-de-Seine
FR,France,Vanves,92170,48.8235,2.2903000000000002,80.215.90.128,Hauts-de-Seine
FR,France,Bouaye,44830,47.1426,-1.6931,93.22.150.82,Loire-Atlantique
FR,France,Vert-le-Petit,91710,48.5516,2.3653,90.44.38.103,Essonne
FR,France,Saint-Die-des-Vosges,88100,48.2494,6.8995999999999995,93.22.133.46,Vosges
FR,France,Anzin,59410,50.372,3.5039,93.22.39.226,North
FR,France,Paris,75017,48.8835,2.3219,85.190.72.141,Paris
FR,France,Fresnes,94260,48.7557,2.3224,37.170.201.67,Val-de-Marne
FR,France,Paris,75002,48.8655,2.3426,37.164.25.149,Paris
FR,France,Paris,75019,48.8817,2.3822,37.172.174.120,Paris
FR,France,Paris,75018,48.8925,2.3444,37.164.160.33,Paris
FR,France,Paris,75010,48.8709,2.3561,37.164.185.99,Paris
FR,France,,,48.8582,2.3387000000000002,91.172.136.90,
FR,France,Aubervilliers,93300,48.9167,2.3833,37.173.46.133,Seine-Saint-Denis
FR,France,Paris,75014,48.8331,2.3264,80.215.167.10,Paris
FR,France,Alençon,61000,48.4333,0.0833,87.88.166.40,Orne
FR,France,Paris,75009,48.8718,2.3399,37.165.152.224,Paris
Not found,Not found,Not found,Not found,Not found,Not found,IP Not found,Not found
FR,France,Paris,75007,48.8565,2.321,37.164.124.110,Paris
FR,France,Paris,75017,48.8835,2.3219,37.165.209.12,Paris
FR,France,Paris,75014,48.8331,2.3264,80.215.162.168,Paris
FR,France,Anzin,59410,50.372,3.5039,93.22.37.138,North
FR,France,Bouaye,44830,47.1426,-1.6931,93.22.148.107,Loire-Atlantique
FR,France,Paris,75019,48.8817,2.3822,80.215.244.41,Paris
FR,France,Bouaye,44830,47.1426,-1.6931,93.22.150.58,Loire-Atlantique
FR,France,Paris,75020,48.8534,2.3487999999999998,80.215.68.5,Paris
FR,France,Paris,75017,48.8835,2.3219,37.171.217.221,Paris
FR,France,Paris,75017,48.8835,2.3219,80.214.21.21,Paris
GB,United Kingdom,London,EC2V,51.5161,-0.0949,83.137.1.209,England
FR,France,Paris,75018,48.8925,2.3444,80.215.135.205,Paris
FR,France,,,48.8582,2.3387000000000002,89.85.241.13,
FR,France,,,48.8582,2.3387000000000002,89.85.240.104,
FR,France,Paris,75010,48.8709,2.3561,37.173.166.9,Paris
FR,France,,,48.8582,2.3387000000000002,93.23.15.234,
FR,France,Bouaye,44830,47.1426,-1.6931,93.22.151.102,Loire-Atlantique
FR,France,Paris,75018,48.8925,2.3444,80.215.194.203,Paris
FR,France,,,48.8582,2.3387000000000002,37.172.217.81,
FR,France,Paris,75007,48.8565,2.321,37.164.121.178,Paris
FR,France,,,48.8582,2.3387000000000002,93.23.14.153,
FR,France,Paris,75013,48.8322,2.3561,80.215.41.31,Paris
FR,France,Paris,75019,48.8817,2.3822,37.173.227.170,Paris
FR,France,Alençon,61000,48.4333,0.0833,87.88.166.205,Orne
GB,United Kingdom,Kidderminster,DY11,52.375,-2.2417,185.13.106.219,Worcestershire
FR,France,,,48.8582,2.3387000000000002,92.184.96.25,
FR,France,Bouaye,44830,47.1426,-1.6931,93.22.150.241,Loire-Atlantique
FR,France,Paris,75019,48.8817,2.3822,80.215.243.40,Paris
FR,France,,,48.8582,2.3387000000000002,93.23.13.16,
FR,France,Levallois-Perret,92300,48.8939,2.2886,37.165.29.101,Hauts-de-Seine
FR,France,Paris,75002,48.8655,2.3426,80.215.83.31,Paris
FR,France,Paris,75015,48.8412,2.3003,37.164.133.39,Paris
FR,France,Paris,75010,48.8709,2.3561,80.215.12.56,Paris
FR,France,Bouaye,44830,47.1426,-1.6931,93.22.149.173,Loire-Atlantique
FR,France,Saint-Denis,93200,48.9333,2.3667,37.171.13.167,Seine-Saint-Denis
FR,France,Paris,75017,48.8835,2.3219,37.165.209.25,Paris
FR,France,Saint-Die-des-Vosges,88100,48.2494,6.8995999999999995,93.22.134.137,Vosges
FR,France,Anzin,59410,50.372,3.5039,93.22.39.200,North
FR,France,Paris,75011,48.8574,2.3795,37.165.59.126,Paris
FR,France,Paris,75017,48.8835,2.3219,80.214.76.237,Paris
FR,France,Paris,75009,48.8718,2.3399,37.164.193.130,Paris
FR,France,Saint-Die-des-Vosges,88100,48.2494,6.8995999999999995,93.22.135.156,Vosges
FR,France,Paris,75008,48.8763,2.3183,80.215.104.137,Paris
FR,France,Bouaye,44830,47.1426,-1.6931,93.22.149.63,Loire-Atlantique
FR,France,,,48.8582,2.3387000000000002,92.184.98.175,
FR,France,Clichy,92110,48.9002,2.3095,37.165.108.177,Hauts-de-Seine
FR,France,Paris,75018,48.8925,2.3444,37.165.71.223,Paris
FR,France,Paris,75017,48.8835,2.3219,80.214.72.237,Paris
FR,France,Le Mans,72100,48,0.2,87.88.178.202,Sarthe
FR,France,Paris,75012,48.8412,2.3876,92.184.117.94,Paris
FR,France,Paris,75015,48.8412,2.3003,80.215.230.145,Paris
FR,France,Paris,75020,48.8534,2.3487999999999998,92.184.106.15,Paris
FR,France,,,48.8582,2.3387000000000002,37.172.223.237,
FR,France,,,48.8582,2.3387000000000002,185.189.22.70,
FR,France,Anzin,59410,50.372,3.5039,93.22.39.113,North
FR,France,Laval,53000,48.0667,-0.7667,87.88.181.85,Mayenne
FR,France,Le Mans,72000,48,0.2,87.88.183.247,Sarthe
FR,France,Paris,75010,48.8709,2.3561,80.215.15.79,Paris
FR,France,Paris,75014,48.8331,2.3264,80.215.34.221,Paris
FR,France,Paris,75018,48.8925,2.3444,80.215.197.215,Paris
FR,France,Paris,75012,48.8412,2.3876,92.184.117.52,Paris
FR,France,Bouaye,44830,47.1426,-1.6931,93.22.149.189,Loire-Atlantique
FR,France,Argenteuil,95100,48.95,2.25,37.164.231.177,Val d'Oise
FR,France,Clichy,92110,48.9002,2.3095,37.165.213.48,Hauts-de-Seine
FR,France,Paris,75011,48.8574,2.3795,37.173.250.218,Paris
FR,France,Paris,75013,48.8322,2.3561,80.215.157.141,Paris
FR,France,Paris,75019,48.8817,2.3822,80.214.29.241,Paris
FR,France,Paris,75013,48.8322,2.3561,37.171.245.137,Paris
FR,France,Paris,75001,48.8628,2.3292,37.164.151.139,Paris
FR,France,Bouaye,44830,47.1426,-1.6931,93.22.149.88,Loire-Atlantique
FR,France,Anzin,59410,50.372,3.5039,93.22.36.217,North
FR,France,Bouaye,44830,47.1426,-1.6931,93.22.148.225,Loire-Atlantique
FR,France,,,48.8582,2.3387000000000002,93.23.12.70,
FR,France,,,48.8582,2.3387000000000002,37.165.139.141,
FR,France,Paris,75014,48.8331,2.3264,80.215.38.166,Paris
FR,France,Paris,75013,48.8322,2.3561,80.215.47.139,Paris
FR,France,Paris,75020,48.8534,2.3487999999999998,37.171.4.2,Paris
FR,France,Paris,75020,48.8534,2.3487999999999998,80.214.112.177,Paris
FR,France,Paris,75012,48.8412,2.3876,92.184.117.97,Paris
GB,United Kingdom,Kidderminster,DY11,52.375,-2.2417,185.13.106.98,Worcestershire
GB,United Kingdom,London,EC2V,51.5161,-0.0949,83.137.1.215,England
FR,France,Saint-Die-des-Vosges,88100,48.2494,6.8995999999999995,93.22.133.198,Vosges
FR,France,Paris,75015,48.8412,2.3003,37.170.222.179,Paris
FR,France,Saint-Die-des-Vosges,88100,48.2494,6.8995999999999995,93.22.132.89,Vosges
FR,France,Anzin,59410,50.372,3.5039,93.22.38.161,North
FR,France,,,48.8582,2.3387000000000002,185.189.22.84,
FR,France,Paris,75018,48.8925,2.3444,37.165.67.200,Paris
FR,France,Anzin,59410,50.372,3.5039,93.22.37.100,North
FR,France,,,48.8582,2.3387000000000002,185.228.229.68,
FR,France,Paris,75017,48.8835,2.3219,80.215.3.115,Paris
FR,France,Paris,75020,48.8534,2.3487999999999998,37.170.169.149,Paris
FR,France,Paris,75013,48.8322,2.3561,80.215.44.163,Paris
FR,France,Saint-Berthevin,53940,48.0667,-0.8333,87.88.170.188,Mayenne
FR,France,Stains,93240,48.95,2.3833,37.165.228.15,Seine-Saint-Denis
GB,United Kingdom,London,EC2V,51.5161,-0.0949,83.137.1.208,England
FR,France,Paris,75001,48.8628,2.3292,134.157.25.71,Paris
FR,France,Paris,75009,48.8718,2.3399,37.165.155.230,Paris
FR,France,Paris,75002,48.8655,2.3426,80.215.85.106,Paris
FR,France,Paris,75011,48.8574,2.3795,37.165.56.42,Paris
FR,France,Ivry-sur-Seine,94200,48.8157,2.3849,80.215.174.157,Val-de-Marne
FR,France,Paris,75012,48.8412,2.3876,92.184.116.239,Paris
FR,France,Paris,75017,48.8835,2.3219,80.214.22.218,Paris
FR,France,Bouaye,44830,47.1426,-1.6931,93.22.149.141,Loire-Atlantique
FR,France,Colombes,92700,48.9188,2.254,37.173.23.103,Hauts-de-Seine
FR,France,Paris,75014,48.8331,2.3264,80.215.36.95,Paris
FR,France,Paris,75008,48.8763,2.3183,80.215.104.24,Paris
FR,France,Bouaye,44830,47.1426,-1.6931,93.22.149.55,Loire-Atlantique
FR,France,Paris,75013,48.8322,2.3561,80.215.44.205,Paris
FR,France,Paris,75002,48.8655,2.3426,80.215.81.197,Paris
FR,France,Paris,75013,48.8322,2.3561,37.171.242.146,Paris
FR,France,Anzin,59410,50.372,3.5039,93.22.39.232,North
FR,France,Saint-Die-des-Vosges,88100,48.2494,6.8995999999999995,93.22.132.73,Vosges
FR,France,Anzin,59410,50.372,3.5039,93.22.37.68,North
GB,United Kingdom,London,EC2V,51.5161,-0.0949,83.137.1.220,England
FR,France,Paris,75012,48.8412,2.3876,92.184.117.95,Paris
FR,France,Paris,75012,48.8412,2.3876,92.184.117.83,Paris
FR,France,,,48.8582,2.3387000000000002,93.23.14.168,
FR,France,Paris,75018,48.8925,2.3444,37.165.173.43,Paris
FR,France,Saint-Die-des-Vosges,88100,48.2494,6.8995999999999995,93.22.135.57,Vosges
FR,France,Fresnes,94260,48.7557,2.3224,80.215.201.92,Val-de-Marne
FR,France,Paris,75016,48.8637,2.2769,37.164.251.221,Paris
FR,France,Alençon,61000,48.4333,0.0833,87.88.168.193,Orne
FR,France,Vitry-sur-Seine,94400,48.7872,2.4032999999999998,37.165.12.22,Val-de-Marne
FR,France,Paris,75013,48.8322,2.3561,80.215.46.14,Paris
HK,Hong Kong,,,22.25,114.1667,202.66.60.187,
FR,France,Paris,75020,48.8534,2.3487999999999998,80.214.116.17,Paris
GB,United Kingdom,Kidderminster,DY11,52.375,-2.2417,185.13.106.107,Worcestershire
FR,France,,,48.8582,2.3387000000000002,92.184.98.138,
FR,France,Paris,93200,48.9333,2.3667,82.102.18.251,Paris
FR,France,Paris,93200,48.9333,2.3667,185.246.211.104,Paris
RO,Romania,,,46,25,84.247.51.246,
FR,France,,,45.7485,4.8467,31.172.162.129,
US,United States,,,37.751,-97.822,143.244.57.107,
FR,France,Paris,93200,48.9333,2.3667,185.246.211.68,Paris
US,United States,,,37.751,-97.822,143.244.57.90,
FR,France,Anzin,59410,50.372,3.5039,93.22.37.75,North
FR,France,Vanves,92170,48.8235,2.2903000000000002,80.215.92.111,Hauts-de-Seine
FR,France,Ozoir-la-Ferriere,77330,48.767,2.6687,109.190.183.215,Seine-et-Marne
FR,France,Paris,75013,48.8322,2.3561,80.215.153.149,Paris
Not found,Not found,Not found,Not found,Not found,Not found,IP Not found,Not found
FR,France,Hagondange,57300,49.2513,6.1681,88.169.2.25,Moselle
FR,France,Paris,75020,48.8534,2.3487999999999998,37.164.247.88,Paris
FR,France,,,48.8582,2.3387000000000002,93.23.13.109,
FR,France,,,48.8582,2.3387000000000002,92.184.96.156,
FR,France,Bouaye,44830,47.1426,-1.6931,93.22.151.84,Loire-Atlantique
FR,France,Stains,93240,48.95,2.3833,37.165.231.110,Seine-Saint-Denis
FR,France,,,48.8582,2.3387000000000002,93.23.14.63,
Not found,Not found,Not found,Not found,Not found,Not found,IP Not found,Not found
FR,France,Colmar,68000,48.0833,7.3667,91.165.172.146,Haut-Rhin
FR,France,,,48.8582,2.3387000000000002,37.165.200.143,
FR,France,Colmar,68000,48.0833,7.3667,91.165.172.177,Haut-Rhin
FR,France,Anzin,59410,50.372,3.5039,93.22.36.229,North
FR,France,,,48.8582,2.3387000000000002,91.170.65.186,
FR,France,Ivry-sur-Seine,94200,48.8157,2.3849,37.165.89.236,Val-de-Marne
FR,France,Roubaix,59100,50.6942,3.1746,176.182.226.191,North
FR,France,Paris,75015,48.8412,2.3003,176.185.227.169,Paris
FR,France,Sevran,93270,48.9447,2.5275,89.90.161.118,Seine-Saint-Denis
FR,France,,,48.8582,2.3387000000000002,37.169.24.65,
Not found,Not found,Not found,Not found,Not found,Not found,IP Not found,Not found
FR,France,,,48.8582,2.3387000000000002,46.193.64.175,
FR,France,Saint-Denis,93200,48.9333,2.3667,37.171.14.178,Seine-Saint-Denis
FR,France,Paris,75015,48.8412,2.3003,37.170.221.114,Paris
FR,France,Paris,75015,48.8412,2.3003,80.215.230.118,Paris
FR,France,,,48.8582,2.3387000000000002,93.23.12.235,
FR,France,Argenteuil,95100,48.95,2.25,90.43.64.73,Val d'Oise
FR,France,Paris,75017,48.8835,2.3219,80.215.77.245,Paris
FR,France,Paris,75017,48.8835,2.3219,37.164.218.5,Paris
Not found,Not found,Not found,Not found,Not found,Not found,IP Not found,Not found
FR,France,,,48.8582,2.3387000000000002,85.190.69.104,
FR,France,Paris,75011,48.8574,2.3795,92.170.237.23,Paris
FR,France,Bouaye,44830,47.1426,-1.6931,93.22.148.144,Loire-Atlantique
FR,France,Paris,75020,48.8534,2.3487999999999998,80.215.65.249,Paris
FR,France,,,48.8582,2.3387000000000002,93.23.14.180,
FR,France,Saint-Die-des-Vosges,88100,48.2494,6.8995999999999995,93.22.132.5,Vosges
FR,France,Alençon,61000,48.4333,0.0833,87.88.167.208,Orne
FR,France,Paris,75019,48.8817,2.3822,37.171.96.25,Paris
DK,Denmark,Copenhagen,2750,55.7316,12.3633,185.206.224.246,Capital Region
FR,France,Paris,75020,48.8534,2.3487999999999998,80.214.119.166,Paris
FR,France,Paris,75009,48.8718,2.3399,37.170.233.172,Paris
US,United States,Vermillion,57069,42.7951,-96.9258,24.111.148.28,South Dakota
FR,France,Bouaye,44830,47.1426,-1.6931,93.22.150.39,Loire-Atlantique
FR,France,Paris,75019,48.8817,2.3822,37.173.51.218,Paris
FR,France,Anzin,59410,50.372,3.5039,93.22.36.28,North
FR,France,,,48.8582,2.3387000000000002,93.23.14.113,
FR,France,Paris,75000,48.8534,2.3487999999999998,37.164.208.163,Paris
FR,France,Vanves,92170,48.8235,2.2903000000000002,80.215.91.210,Hauts-de-Seine
FR,France,Saint-Die-des-Vosges,88100,48.2494,6.8995999999999995,93.22.132.155,Vosges
FR,France,Asnieres-sur-Seine,92600,48.9167,2.2833,37.172.135.100,Hauts-de-Seine
FR,France,Dreux,28100,48.7333,1.3667,88.164.2.45,Eure-et-Loir
FR,France,Saint-Die-des-Vosges,88100,48.2494,6.8995999999999995,93.22.132.85,Vosges
FR,France,Paris,75001,48.8628,2.3292,134.157.26.222,Paris
FR,France,Paris,75008,48.8763,2.3183,37.165.236.242,Paris
FR,France,Bouaye,44830,47.1426,-1.6931,93.22.150.164,Loire-Atlantique
FR,France,,,48.8582,2.3387000000000002,93.23.13.144,
GB,United Kingdom,London,EC2V,51.5161,-0.0949,83.137.1.213,England
FR,France,Paris,75019,48.8817,2.3822,80.215.240.109,Paris
FR,France,Bouaye,44830,47.1426,-1.6931,93.22.151.226,Loire-Atlantique
FR,France,Paris,75014,48.8331,2.3264,80.215.165.238,Paris
FR,France,Vanves,92170,48.8235,2.2903000000000002,80.215.93.40,Hauts-de-Seine
FR,France,,,48.8582,2.3387000000000002,195.220.106.83,
FR,France,Paris,75001,48.8628,2.3292,134.157.25.192,Paris
FR,France,Bouaye,44830,47.1426,-1.6931,93.22.150.65,Loire-Atlantique
FR,France,Paris,75001,48.8628,2.3292,134.157.53.34,Paris
Not found,Not found,Not found,Not found,Not found,Not found,IP Not found,Not found
FR,France,Le Mans,72000,48,0.2,87.88.175.232,Sarthe
FR,France,Paris,75001,48.8628,2.3292,37.172.144.103,Paris
FR,France,Bouaye,44830,47.1426,-1.6931,93.22.149.49,Loire-Atlantique
FR,France,Paris,75020,48.8534,2.3487999999999998,80.214.119.149,Paris
FR,France,Paris,75002,48.8655,2.3426,80.215.80.118,Paris
FR,France,Saint-Die-des-Vosges,88100,48.2494,6.8995999999999995,93.22.132.223,Vosges
FR,France,Anzin,59410,50.372,3.5039,93.22.39.116,North
FR,France,Paris,75010,48.8709,2.3561,37.170.245.161,Paris
FR,France,Paris,75017,48.8835,2.3219,80.214.76.155,Paris
FR,France,Paris,75009,48.8718,2.3399,37.170.235.29,Paris
FR,France,Paris,75008,48.8763,2.3183,37.169.51.226,Paris
FR,France,Paris,75014,48.8331,2.3264,83.202.4.70,Paris
FR,France,Paris,75000,48.8534,2.3487999999999998,37.164.39.62,Paris
FR,France,Paris,75020,48.8534,2.3487999999999998,37.169.59.200,Paris
FR,France,Paris,75014,48.8331,2.3264,80.215.162.38,Paris
FR,France,Montrouge,92120,48.8162,2.3139,37.165.41.118,Hauts-de-Seine
FR,France,Vitry-sur-Seine,94400,48.7872,2.4032999999999998,37.165.159.62,Val-de-Marne
FR,France,Gagny,93220,48.8833,2.5333,86.252.249.226,Seine-Saint-Denis
FR,France,Paris,75013,48.8322,2.3561,37.171.245.171,Paris
FR,France,Levallois-Perret,92300,48.8939,2.2886,80.215.99.237,Hauts-de-Seine
FR,France,Bordeaux,33000,44.8404,-0.5805,91.166.59.24,Gironde
FR,France,Paris,75016,48.8637,2.2769,78.192.58.199,Paris
FR,France,Paris,75001,48.8628,2.3292,134.157.27.233,Paris
FR,France,Paris,75017,48.8835,2.3219,37.164.23.241,Paris
FR,France,Paris,75001,48.8628,2.3292,134.157.107.47,Paris
GB,United Kingdom,London,EC2V,51.5161,-0.0949,83.137.1.196,England
FR,France,Alfortville,94140,48.8058,2.4204,37.165.186.20,Val-de-Marne
FR,France,Paris,75014,48.8331,2.3264,37.172.3.136,Paris
FR,France,Anzin,59410,50.372,3.5039,93.22.37.104,North
FR,France,Stains,93240,48.95,2.3833,37.165.226.237,Seine-Saint-Denis
FR,France,Paris,75011,48.8574,2.3795,37.165.58.218,Paris
FR,France,Paris,75011,48.8574,2.3795,37.171.157.200,Paris
FR,France,Paris,75003,48.8637,2.3615,37.170.77.78,Paris
FR,France,,,48.8582,2.3387000000000002,92.184.97.157,
FR,France,Paris,75010,48.8709,2.3561,80.215.8.136,Paris
FR,France,Paris,75010,48.8709,2.3561,37.170.246.147,Paris
FR,France,Paris,75020,48.8534,2.3487999999999998,80.215.69.186,Paris
FR,France,Paris,75020,48.8534,2.3487999999999998,92.184.106.92,Paris
FR,France,Paris,75008,48.8763,2.3183,80.215.108.107,Paris
FR,France,Paris,75015,48.8412,2.3003,80.215.230.47,Paris
FR,France,Paris,75013,48.8322,2.3561,80.215.155.85,Paris
FR,France,Saint-Die-des-Vosges,88100,48.2494,6.8995999999999995,93.22.132.253,Vosges
FR,France,Paris,75013,48.8322,2.3561,37.165.149.53,Paris
FR,France,,,48.8582,2.3387000000000002,185.189.23.37,
FR,France,,,48.8582,2.3387000000000002,92.184.96.193,
FR,France,Paris,75001,48.8628,2.3292,134.157.27.73,Paris
FR,France,Issy-les-Moulineaux,92130,48.821,2.2772,37.172.65.198,Hauts-de-Seine
FR,France,Paris,75013,48.8322,2.3561,37.171.244.246,Paris
FR,France,Paris,75010,48.8709,2.3561,80.215.8.37,Paris
FR,France,Palaiseau,91120,48.7167,2.25,195.81.228.4,Essonne
FR,France,Paris,75009,48.8718,2.3399,37.165.85.242,Paris
FR,France,Anzin,59410,50.372,3.5039,93.22.37.14,North
FR,France,Paris,75009,48.8718,2.3399,37.164.195.253,Paris
FR,France,,,48.8582,2.3387000000000002,93.23.12.114,
FR,France,Paris,75011,48.8574,2.3795,185.61.186.148,Paris
FR,France,Levallois-Perret,92300,48.8939,2.2886,176.144.234.102,Hauts-de-Seine
FR,France,Lille,59800,50.633,3.0586,176.182.253.70,North
FR,France,,,48.8582,2.3387000000000002,93.23.15.40,
FR,France,Montrouge,92120,48.8162,2.3139,37.165.46.33,Hauts-de-Seine
IT,Italy,,,43.1479,12.1097,84.17.53.209,
FR,France,Paris,75018,48.8925,2.3444,80.215.192.97,Paris
FR,France,,,48.8582,2.3387000000000002,93.23.14.108,
FR,France,Montmagny,95360,48.9734,2.3468999999999998,37.171.211.148,Val d'Oise
FR,France,,,48.8582,2.3387000000000002,85.190.70.116,
FR,France,Anzin,59410,50.372,3.5039,93.22.37.148,North
FR,France,,,48.8582,2.3387000000000002,93.23.12.76,
FR,France,Paris,75017,48.8835,2.3219,80.215.75.221,Paris
FR,France,Boulogne-Billancourt,92100,48.8333,2.25,37.164.77.188,Hauts-de-Seine
FR,France,Anzin,59410,50.372,3.5039,93.22.37.212,North
FR,France,Montereau-Fault-Yonne,77130,48.4195,2.9603,90.3.96.38,Seine-et-Marne
FR,France,Anzin,59410,50.372,3.5039,93.22.37.216,North
FR,France,Bouaye,44830,47.1426,-1.6931,93.22.149.203,Loire-Atlantique
FR,France,Guyancourt,78280,48.7733,2.0739,81.220.224.17,Yvelines
FR,France,,,48.8582,2.3387000000000002,93.23.14.58,
FR,France,Paris,75015,48.8412,2.3003,37.172.167.31,Paris
FR,France,Aubervilliers,93300,48.9167,2.3833,90.3.20.210,Seine-Saint-Denis
FR,France,Paris,75018,48.8925,2.3444,80.215.135.164,Paris
FR,France,Paris,75001,48.8628,2.3292,37.169.33.35,Paris
FR,France,Paris,75019,48.8817,2.3822,37.170.111.158,Paris
FR,France,Paris,75002,48.8655,2.3426,37.164.24.188,Paris
FR,France,Paris,75015,48.8412,2.3003,80.214.127.210,Paris
FR,France,Orléans,,47.9029,1.9039000000000001,87.88.191.13,Loiret
BH,Bahrain,,,26,50.55,109.63.1.5,
FR,France,Levallois-Perret,92300,48.8939,2.2886,80.215.102.210,Hauts-de-Seine
FR,France,Vitry-sur-Seine,94400,48.7872,2.4032999999999998,37.165.8.235,Val-de-Marne
FR,France,Paris,75008,48.8763,2.3183,80.215.104.198,Paris
Not found,Not found,Not found,Not found,Not found,Not found,IP Not found,Not found
FR,France,Nanterre,92000,48.892,2.2067,37.172.188.49,Hauts-de-Seine
FR,France,Paris,75012,48.8412,2.3876,92.184.116.38,Paris
FR,France,Paris,75015,48.8412,2.3003,37.164.129.159,Paris
FR,France,Paris,75017,48.8835,2.3219,80.215.7.130,Paris
FR,France,Fontenay-sous-Bois,94120,48.8544,2.4827,62.35.108.253,Val-de-Marne
FR,France,Paris,75018,48.8925,2.3444,80.215.129.103,Paris
FR,France,Paris,75019,48.8817,2.3822,37.170.117.144,Paris
FR,France,Paris,75017,48.8835,2.3219,37.164.242.13,Paris
FR,France,Dreux,28100,48.7333,1.3667,87.88.176.19,Eure-et-Loir
FR,France,,,48.8582,2.3387000000000002,77.204.105.233,
FR,France,,,48.8582,2.3387000000000002,37.165.78.165,
FR,France,Paris,75001,48.8628,2.3292,134.157.26.102,Paris
FR,France,Clichy,92110,48.9002,2.3095,37.171.169.136,Hauts-de-Seine
FR,France,Paris,75015,48.8412,2.3003,80.215.229.221,Paris
FR,France,Paris,75002,48.8655,2.3426,80.215.81.77,Paris
FR,France,Paris,75002,48.8655,2.3426,80.215.86.58,Paris
RO,Romania,,,46,25,37.120.204.245,
FR,France,Saint-Die-des-Vosges,88100,48.2494,6.8995999999999995,93.22.132.78,Vosges
FR,France,Vanves,92170,48.8235,2.2903000000000002,80.215.92.215,Hauts-de-Seine
FR,France,Paris,75015,48.8412,2.3003,80.214.126.10,Paris
FR,France,Paris,75015,48.8412,2.3003,80.215.225.223,Paris
FR,France,Saint-Maurice,94410,48.8218,2.4272,37.171.58.111,Val-de-Marne
FR,France,Paris,75002,48.8655,2.3426,80.215.83.66,Paris
FR,France,Paris,75018,48.8925,2.3444,37.164.163.174,Paris
FR,France,Paris,75018,48.8925,2.3444,80.215.135.81,Paris
FR,France,,,48.8582,2.3387000000000002,93.23.13.234,
FR,France,Paris,75014,48.8331,2.3264,80.215.32.66,Paris
FR,France,,,48.8582,2.3387000000000002,89.85.248.62,
FR,France,Bouaye,44830,47.1426,-1.6931,93.22.148.171,Loire-Atlantique
FR,France,Paris,75017,48.8835,2.3219,80.215.3.218,Paris
FR,France,Paris,75013,48.8322,2.3561,80.215.41.210,Paris
FR,France,Paris,75003,48.8637,2.3615,37.164.168.86,Paris
FR,France,Paris,75012,48.8412,2.3876,92.184.116.9,Paris
FR,France,Paris,75014,48.8331,2.3264,80.215.35.210,Paris
FR,France,Paris,75009,48.8718,2.3399,37.165.152.114,Paris
FR,France,Paris,75017,48.8835,2.3219,80.214.17.60,Paris
FR,France,Saint-Die-des-Vosges,88100,48.2494,6.8995999999999995,93.22.135.12,Vosges
FR,France,Drancy,93700,48.9258,2.4453,37.168.86.148,Seine-Saint-Denis
FR,France,Paris,75019,48.8817,2.3822,80.214.29.71,Paris
FR,France,,,48.8582,2.3387000000000002,93.23.13.194,
FR,France,Paris,75019,48.8817,2.3822,37.164.180.163,Paris
FR,France,Paris,75001,48.8628,2.3292,37.169.18.95,Paris
FR,France,Paris,75014,48.8331,2.3264,80.215.39.222,Paris
FR,France,Paris,75013,48.8322,2.3561,80.215.155.39,Paris
Not found,Not found,Not found,Not found,Not found,Not found,IP Not found,Not found
FR,France,Paris,75001,48.8628,2.3292,132.227.125.56,Paris
FR,France,Paris,75017,48.8835,2.3219,37.164.245.29,Paris
FR,France,Le Mans,72100,48,0.2,87.88.160.157,Sarthe
FR,France,Paris,75013,48.8322,2.3561,37.164.51.53,Paris
FR,France,Dreux,28100,48.7333,1.3667,87.88.171.15,Eure-et-Loir
FR,France,,,48.8582,2.3387000000000002,92.184.98.135,
FR,France,Paris,75014,48.8331,2.3264,37.164.115.19,Paris
FR,France,Saint-Die-des-Vosges,88100,48.2494,6.8995999999999995,93.22.133.155,Vosges
FR,France,,,48.8582,2.3387000000000002,37.165.132.72,
FR,France,Paris,75020,48.8534,2.3487999999999998,37.165.0.122,Paris
FR,France,Le Mans,72000,48,0.2,87.88.169.61,Sarthe
FR,France,Paris,75008,48.8763,2.3183,37.169.42.27,Paris
FR,France,Montreuil,93100,48.8642,2.4432,37.165.167.40,Seine-Saint-Denis
FR,France,Laval,53000,48.0667,-0.7667,87.88.164.250,Mayenne
FR,France,Bouaye,44830,47.1426,-1.6931,93.22.150.182,Loire-Atlantique
FR,France,Anzin,59410,50.372,3.5039,93.22.36.118,North
FR,France,Nanterre,92000,48.892,2.2067,46.193.67.29,Hauts-de-Seine
FR,France,,,48.8582,2.3387000000000002,93.23.15.214,
FR,France,,,48.8582,2.3387000000000002,93.23.13.26,
FR,France,Paris,75018,48.8925,2.3444,37.165.65.169,Paris
FR,France,Paris,75007,48.8565,2.321,37.164.120.10,Paris
FR,France,Nanterre,92000,48.892,2.2067,37.172.190.150,Hauts-de-Seine
FR,France,Bouaye,44830,47.1426,-1.6931,93.22.149.135,Loire-Atlantique
FR,France,Fresnes,94260,48.7557,2.3224,80.215.201.14,Val-de-Marne
FR,France,Villejuif,94800,48.7939,2.3599,37.170.37.64,Val-de-Marne
FR,France,,,48.8582,2.3387000000000002,92.174.123.117,
FR,France,,,48.8582,2.3387000000000002,93.23.12.161,
FR,France,Saint-Die-des-Vosges,88100,48.2494,6.8995999999999995,93.22.134.216,Vosges
FR,France,Paris,75014,48.8331,2.3264,80.215.33.219,Paris
FR,France,Paris,75018,48.8925,2.3444,80.215.193.90,Paris
FR,France,Paris,75013,48.8322,2.3561,37.164.66.186,Paris
FR,France,Le Mans,72000,48,0.2,87.88.186.136,Sarthe
FR,France,Paris,75020,48.8534,2.3487999999999998,92.184.105.246,Paris
FR,France,Saint-Denis,93200,48.9333,2.3667,37.171.225.103,Seine-Saint-Denis
FR,France,Paris,75012,48.8412,2.3876,37.164.87.29,Paris
FR,France,Paris,75013,48.8322,2.3561,80.215.155.133,Paris
FR,France,,,48.8582,2.3387000000000002,89.85.246.41,
FR,France,Paris,75012,48.8412,2.3876,92.184.118.15,Paris
FR,France,Bouaye,44830,47.1426,-1.6931,93.22.150.224,Loire-Atlantique
FR,France,Saint-Denis,93200,48.9333,2.3667,37.165.180.21,Seine-Saint-Denis
FR,France,Paris,75001,48.8628,2.3292,134.157.26.218,Paris
FR,France,,,48.8582,2.3387000000000002,92.184.97.227,
FR,France,Bondy,93140,48.9018,2.4893,37.171.174.240,Seine-Saint-Denis
FR,France,Saint-Die-des-Vosges,88100,48.2494,6.8995999999999995,93.22.135.109,Vosges
FR,France,Paris,75018,48.8925,2.3444,80.215.194.48,Paris
FR,France,Paris,75017,48.8835,2.3219,80.214.22.139,Paris
FR,France,Montreuil,93100,48.8642,2.4432,37.170.95.152,Seine-Saint-Denis
FR,France,Paris,75002,48.8655,2.3426,80.215.83.22,Paris
FR,France,,,48.8582,2.3387000000000002,93.23.14.181,
FR,France,Paris,75015,48.8412,2.3003,80.215.231.224,Paris
FR,France,Paris,75002,48.8655,2.3426,37.164.93.138,Paris
FR,France,Paris,75017,48.8835,2.3219,80.215.74.123,Paris
FR,France,Paris,75008,48.8763,2.3183,80.215.111.236,Paris
FR,France,,,48.8582,2.3387000000000002,93.23.12.87,
FR,France,Paris,75018,48.8925,2.3444,80.215.194.40,Paris
FR,France,Dreux,28100,48.7333,1.3667,87.88.176.5,Eure-et-Loir
FR,France,Paris,75010,48.8709,2.3561,37.173.150.199,Paris
FR,France,,,48.8582,2.3387000000000002,77.204.196.228,
FR,France,Paris,75020,48.8534,2.3487999999999998,80.215.67.223,Paris
FR,France,Vanves,92170,48.8235,2.2903000000000002,80.215.90.184,Hauts-de-Seine
FR,France,Paris,75019,48.8817,2.3822,37.172.40.29,Paris
FR,France,Anzin,59410,50.372,3.5039,93.22.37.113,North
FR,France,,,48.8582,2.3387000000000002,93.23.14.232,
FR,France,Saint-Die-des-Vosges,88100,48.2494,6.8995999999999995,93.22.133.58,Vosges
FR,France,Paris,75017,48.8835,2.3219,80.214.16.116,Paris
FR,France,Paris,75017,48.8835,2.3219,80.215.3.5,Paris
FR,France,Montrouge,92120,48.8162,2.3139,37.165.20.109,Hauts-de-Seine
FR,France,Saint-Denis,93200,48.9333,2.3667,37.165.177.52,Seine-Saint-Denis
GB,United Kingdom,Kidderminster,DY11,52.375,-2.2417,185.13.106.103,Worcestershire
FR,France,Fresnes,94260,48.7557,2.3224,80.215.204.45,Val-de-Marne
FR,France,Paris,75019,48.8817,2.3822,37.164.201.17,Paris
FR,France,Paris,75017,48.8835,2.3219,80.215.74.160,Paris
FR,France,Gentilly,94250,48.8129,2.3417,90.44.41.119,Val-de-Marne
FR,France,Paris,75019,48.8817,2.3822,80.214.26.126,Paris
FR,France,Nogent-le-Roi,28210,48.6478,1.5293,87.88.182.140,Eure-et-Loir
FR,France,Paris,75002,48.8655,2.3426,37.164.95.233,Paris
FR,France,Paris,75017,48.8835,2.3219,80.214.18.183,Paris
FR,France,,,48.8582,2.3387000000000002,37.164.69.137,
FR,France,Paris,75017,48.8835,2.3219,80.215.78.157,Paris
FR,France,Bouaye,44830,47.1426,-1.6931,93.22.151.21,Loire-Atlantique
FR,France,Paris,75013,48.8322,2.3561,80.215.154.18,Paris
FR,France,Paris,75019,48.8817,2.3822,37.173.228.148,Paris
FR,France,Paris,75019,48.8817,2.3822,37.164.238.11,Paris
FR,France,Laval,53000,48.0667,-0.7667,87.88.180.236,Mayenne
FR,France,Paris,75020,48.8534,2.3487999999999998,92.184.106.64,Paris
FR,France,Paris,75020,48.8534,2.3487999999999998,37.173.253.200,Paris
FR,France,Paris,75019,48.8817,2.3822,80.214.27.3,Paris
FR,France,Paris,75019,48.8817,2.3822,80.214.31.127,Paris
FR,France,,,48.8582,2.3387000000000002,92.184.97.115,
FR,France,Paris,75007,48.8565,2.321,37.164.121.58,Paris
FR,France,Paris,75018,48.8925,2.3444,37.173.246.212,Paris
FR,France,Paris,75012,48.8412,2.3876,92.184.116.169,Paris
FR,France,Le Mans,72000,48,0.2,87.88.185.218,Sarthe
FR,France,Sermizelles,89200,47.5373,3.7932,37.172.254.143,Yonne
FR,France,Paris,75001,48.8628,2.3292,132.227.125.231,Paris
FR,France,Paris,75018,48.8925,2.3444,80.215.199.155,Paris
FR,France,Paris,75008,48.8763,2.3183,37.165.221.179,Paris
GB,United Kingdom,London,EC2V,51.5161,-0.0949,83.137.1.205,England
FR,France,Saint-Die-des-Vosges,88100,48.2494,6.8995999999999995,93.22.135.131,Vosges
FR,France,,,48.8582,2.3387000000000002,93.23.12.208,
FR,France,Paris,75017,48.8835,2.3219,80.214.76.126,Paris
FR,France,Paris,93200,48.9333,2.3667,37.120.158.12,Paris
FR,France,Saint-Die-des-Vosges,88100,48.2494,6.8995999999999995,93.22.134.168,Vosges
GB,United Kingdom,Kidderminster,DY11,52.375,-2.2417,185.13.106.227,Worcestershire
FR,France,Saint-Fons,69190,45.7088,4.8606,37.172.96.17,Rhône
FR,France,Brive-la-Gaillarde,19100,45.15,1.5333,37.172.47.118,Corrèze
FR,France,Anzin,59410,50.372,3.5039,93.22.36.124,North
FR,France,Paris,75009,48.8718,2.3399,37.164.194.242,Paris
FR,France,Bourges,18000,47.0833,2.4,88.165.54.196,Cher
FR,France,,,48.8582,2.3387000000000002,85.190.69.242,
FR,France,Montrouge,92120,48.8162,2.3139,37.165.40.114,Hauts-de-Seine
FR,France,Bouaye,44830,47.1426,-1.6931,93.22.151.77,Loire-Atlantique
FR,France,Maisons-Alfort,94700,48.8117,2.4394,37.172.125.155,Val-de-Marne
FR,France,Anzin,59410,50.372,3.5039,93.22.36.183,North
FR,France,,,48.8582,2.3387000000000002,89.85.246.193,
FR,France,Anzin,59410,50.372,3.5039,93.22.38.87,North
FR,France,Paris,75020,48.8534,2.3487999999999998,109.24.186.22,Paris
FR,France,Grigny,91350,48.6541,2.3934,37.172.21.193,Essonne
FR,France,Paris,75015,48.8412,2.3003,37.164.105.32,Paris
GB,United Kingdom,London,EC2V,51.5161,-0.0949,83.137.1.201,England
FR,France,,,48.8582,2.3387000000000002,37.171.128.130,
FR,France,,,48.8582,2.3387000000000002,176.165.159.175,
FR,France,Boulogne-Billancourt,92100,48.8333,2.25,37.164.73.82,Hauts-de-Seine
FR,France,Anzin,59410,50.372,3.5039,93.22.39.229,North
FR,France,Paris,75008,48.8763,2.3183,37.165.235.123,Paris
FR,France,Suresnes,92150,48.8714,2.2293,87.88.187.196,Hauts-de-Seine
FR,France,Asnieres-sur-Seine,92600,48.9167,2.2833,37.172.135.107,Hauts-de-Seine
FR,France,Paris,75018,48.8925,2.3444,37.171.139.243,Paris
FR,France,Paris,75020,48.8534,2.3487999999999998,80.215.71.137,Paris
FR,France,Fresnes,94260,48.7557,2.3224,80.215.207.5,Val-de-Marne
FR,France,Vanves,92170,48.8235,2.2903000000000002,80.215.89.211,Hauts-de-Seine
FR,France,Paris,75013,48.8322,2.3561,80.215.152.249,Paris
FR,France,Anzin,59410,50.372,3.5039,93.22.38.181,North
FR,France,,,48.8582,2.3387000000000002,37.172.184.224,
FR,France,Alençon,61000,48.4333,0.0833,87.88.173.135,Orne
FR,France,Anzin,59410,50.372,3.5039,93.22.38.143,North
FR,France,Bouaye,44830,47.1426,-1.6931,93.22.150.54,Loire-Atlantique
FR,France,Paris,75011,48.8574,2.3795,37.165.35.240,Paris
FR,France,Anzin,59410,50.372,3.5039,93.22.39.22,North
FR,France,,,48.8582,2.3387000000000002,93.23.13.216,
FR,France,Levallois-Perret,92300,48.8939,2.2886,80.215.97.95,Hauts-de-Seine
FR,France,,,48.8582,2.3387000000000002,37.171.188.220,
FR,France,Paris,75014,48.8331,2.3264,80.215.160.165,Paris
FR,France,Luray,28500,48.7204,1.3989,87.88.172.19,Eure-et-Loir
FR,France,,,48.8582,2.3387000000000002,89.85.251.142,
FR,France,Villemomble,93250,48.8833,2.5,37.165.125.96,Seine-Saint-Denis
FR,France,Paris,75017,48.8835,2.3219,80.214.74.208,Paris
FR,France,Anzin,59410,50.372,3.5039,93.22.37.239,North
FR,France,Paris,75015,48.8412,2.3003,80.214.125.156,Paris
FR,France,Paris,75013,48.8322,2.3561,37.165.147.82,Paris
FR,France,Laval,53000,48.0667,-0.7667,87.88.163.7,Mayenne
FR,France,Paris,75018,48.8925,2.3444,80.215.199.131,Paris
GB,United Kingdom,Kidderminster,DY11,52.375,-2.2417,185.13.106.212,Worcestershire
FR,France,,,48.8582,2.3387000000000002,92.184.97.250,
FR,France,Levallois-Perret,92300,48.8939,2.2886,80.215.101.193,Hauts-de-Seine
GB,United Kingdom,London,EC2V,51.5161,-0.0949,83.137.1.216,England
FR,France,Levallois-Perret,92300,48.8939,2.2886,80.215.100.214,Hauts-de-Seine
FR,France,Levallois-Perret,92300,48.8939,2.2886,80.215.100.35,Hauts-de-Seine
FR,France,Paris,75020,48.8534,2.3487999999999998,80.214.115.165,Paris
FR,France,Bouaye,44830,47.1426,-1.6931,93.22.149.138,Loire-Atlantique
FR,France,Paris,75020,48.8534,2.3487999999999998,92.184.106.174,Paris
FR,France,Paris,75001,48.8628,2.3292,134.157.25.138,Paris
FR,France,Paris,75017,48.8835,2.3219,80.214.21.42,Paris
FR,France,Villemomble,93250,48.8833,2.5,37.165.127.30,Seine-Saint-Denis
FR,France,Saint-Die-des-Vosges,88100,48.2494,6.8995999999999995,93.22.132.53,Vosges
FR,France,Paris,75008,48.8763,2.3183,37.165.218.120,Paris
FR,France,Bouaye,44830,47.1426,-1.6931,93.22.150.52,Loire-Atlantique
FR,France,Saint-Die-des-Vosges,88100,48.2494,6.8995999999999995,93.22.135.47,Vosges
FR,France,Paris,75018,48.8925,2.3444,80.215.197.121,Paris
FR,France,Paris,75019,48.8817,2.3822,80.214.28.82,Paris
FR,France,Paris,75014,48.8331,2.3264,80.215.39.168,Paris
FR,France,Paris,75020,48.8534,2.3487999999999998,37.171.253.59,Paris
FR,France,Paris,75007,48.8565,2.321,37.173.112.83,Paris
FR,France,,,48.8582,2.3387000000000002,89.85.251.122,
FR,France,Aubervilliers,93300,48.9167,2.3833,37.170.180.161,Seine-Saint-Denis
FR,France,Bouaye,44830,47.1426,-1.6931,93.22.149.154,Loire-Atlantique
FR,France,Paris,75015,48.8412,2.3003,80.214.123.130,Paris
FR,France,Paris,75001,48.8628,2.3292,37.164.146.42,Paris
FR,France,Paris,75018,48.8925,2.3444,80.215.196.202,Paris
FR,France,Paris,75020,48.8534,2.3487999999999998,80.214.116.204,Paris
FR,France,Vanves,92170,48.8235,2.2903000000000002,80.215.90.145,Hauts-de-Seine
BE,Belgium,Liège,4000,50.6412,5.5718,83.137.1.219,Liège Province
FR,France,,,48.8582,2.3387000000000002,37.165.203.104,
FR,France,Ivry-sur-Seine,94200,48.8157,2.3849,37.165.92.190,Val-de-Marne
FR,France,,,48.8582,2.3387000000000002,37.171.212.198,
FR,France,Paris,75001,48.8628,2.3292,134.157.25.172,Paris
FR,France,Paris,75011,48.8574,2.3795,37.173.250.56,Paris
FR,France,Paris,75017,48.8835,2.3219,80.214.17.41,Paris
FR,France,Ivry-sur-Seine,94200,48.8157,2.3849,80.215.175.115,Val-de-Marne
FR,France,,,48.8582,2.3387000000000002,37.170.253.138,
FR,France,,,48.8582,2.3387000000000002,92.184.97.214,
FR,France,Paris,75014,48.8331,2.3264,37.165.119.62,Paris
FR,France,Paris,75018,48.8925,2.3444,80.215.131.157,Paris
FR,France,,,48.8582,2.3387000000000002,185.246.19.235,
FR,France,Fresnes,94260,48.7557,2.3224,80.215.206.210,Val-de-Marne
FR,France,Paris,75014,48.8331,2.3264,80.215.162.101,Paris
FR,France,Anzin,59410,50.372,3.5039,93.22.38.102,North
FR,France,Paris,75010,48.8709,2.3561,37.173.146.147,Paris
FR,France,Paris,75018,48.8925,2.3444,80.215.198.97,Paris
FR,France,Marlenheim,67520,48.6213,7.491,37.172.44.247,Bas-Rhin
FR,France,Vanves,92170,48.8235,2.2903000000000002,80.215.89.203,Hauts-de-Seine
FR,France,Paris,75017,48.8835,2.3219,80.214.17.216,Paris
FR,France,Anzin,59410,50.372,3.5039,93.22.37.175,North
FR,France,,,48.8582,2.3387000000000002,89.85.250.150,
FR,France,Fresnes,94260,48.7557,2.3224,80.215.204.135,Val-de-Marne
FR,France,Montrouge,92120,48.8162,2.3139,37.165.20.19,Hauts-de-Seine
FR,France,,,48.8582,2.3387000000000002,92.184.97.208,
FR,France,Paris,75014,48.8331,2.3264,80.215.38.212,Paris
FR,France,Paris,75002,48.8655,2.3426,37.165.53.248,Paris
FR,France,,,48.8582,2.3387000000000002,93.23.12.122,
FR,France,Anzin,59410,50.372,3.5039,93.22.39.233,North
FR,France,,,48.8582,2.3387000000000002,37.171.194.203,
FR,France,Paris,75017,48.8835,2.3219,80.214.17.30,Paris
FR,France,,,48.8582,2.3387000000000002,77.204.198.22,
FR,France,,,48.8582,2.3387000000000002,37.171.164.33,
FR,France,,,48.8582,2.3387000000000002,93.23.12.69,
FR,France,,,48.8667,2.3333,37.173.254.75,Île-de-France
FR,France,Paris,75010,48.8709,2.3561,37.173.163.169,Paris
FR,France,,,48.8582,2.3387000000000002,92.184.97.63,
FR,France,Paris,75020,48.8534,2.3487999999999998,37.164.152.138,Paris
FR,France,Saint-Die-des-Vosges,88100,48.2494,6.8995999999999995,93.22.135.75,Vosges
FR,France,Roubaix,59100,50.6942,3.1746,77.204.247.9,North
FR,France,Paris,75017,48.8835,2.3219,80.215.2.126,Paris
FR,France,Paris,75015,48.8412,2.3003,176.185.210.188,Paris
FR,France,Paris,75018,48.8925,2.3444,80.215.192.159,Paris
FR,France,,,48.8582,2.3387000000000002,89.85.242.18,
FR,France,Bouaye,44830,47.1426,-1.6931,93.22.150.42,Loire-Atlantique
FR,France,Paris,75019,48.8817,2.3822,80.214.31.66,Paris
FR,France,,,48.8582,2.3387000000000002,92.184.98.66,
FR,France,Fresnes,94260,48.7557,2.3224,80.215.202.15,Val-de-Marne
FR,France,Saint-Die-des-Vosges,88100,48.2494,6.8995999999999995,93.22.133.214,Vosges
FR,France,Ivry-sur-Seine,94200,48.8157,2.3849,80.215.169.98,Val-de-Marne
FR,France,,,48.8582,2.3387000000000002,89.85.251.12,
FR,France,Paris,75008,48.8763,2.3183,37.165.223.162,Paris
FR,France,Paris,75008,48.8763,2.3183,80.215.107.147,Paris
FR,France,Bouaye,44830,47.1426,-1.6931,93.22.150.205,Loire-Atlantique
FR,France,Bouaye,44830,47.1426,-1.6931,93.22.150.66,Loire-Atlantique
FR,France,,,48.8582,2.3387000000000002,93.23.15.87,
FR,France,Saint-Denis,93200,48.9333,2.3667,37.164.215.30,Seine-Saint-Denis
FR,France,Paris,75020,48.8534,2.3487999999999998,37.171.69.155,Paris
FR,France,Paris,75018,48.8925,2.3444,80.215.196.210,Paris
FR,France,Paris,75008,48.8763,2.3183,80.215.109.23,Paris
FR,France,Laval,53000,48.0667,-0.7667,87.88.179.115,Mayenne
FR,France,Paris,75013,48.8322,2.3561,37.165.131.28,Paris
FR,France,Montreuil,93100,48.8642,2.4432,37.170.120.226,Seine-Saint-Denis
FR,France,Paris,75014,48.8331,2.3264,37.164.112.132,Paris
FR,France,Levallois-Perret,92300,48.8939,2.2886,80.215.98.131,Hauts-de-Seine
FR,France,Paris,75015,48.8412,2.3003,37.164.109.225,Paris
FR,France,Bouaye,44830,47.1426,-1.6931,93.22.149.176,Loire-Atlantique
FR,France,,,48.8582,2.3387000000000002,93.23.248.127,
FR,France,Clichy,92110,48.9002,2.3095,37.172.103.214,Hauts-de-Seine
FR,France,Paris,75019,48.8817,2.3822,80.215.243.82,Paris
FR,France,Paris,75017,48.8835,2.3219,80.215.74.239,Paris
FR,France,Saint-Maurice,94410,48.8218,2.4272,37.171.60.109,Val-de-Marne
FR,France,Paris,75017,48.8835,2.3219,80.214.19.150,Paris
FR,France,Ivry-sur-Seine,94200,48.8157,2.3849,37.173.100.112,Val-de-Marne
FR,France,Fresnes,94260,48.7557,2.3224,37.170.201.157,Val-de-Marne
FR,France,Luce,28110,48.4369,1.4636,87.88.177.47,Eure-et-Loir
GB,United Kingdom,London,EC2V,51.5161,-0.0949,83.137.1.203,England
FR,France,,,48.8582,2.3387000000000002,92.184.98.28,
FR,France,Paris,75017,48.8835,2.3219,80.214.77.171,Paris
FR,France,Paris,75008,48.8763,2.3183,37.165.237.88,Paris
FR,France,Fresnes,94260,48.7557,2.3224,80.215.203.205,Val-de-Marne
FR,France,Saint-Die-des-Vosges,88100,48.2494,6.8995999999999995,93.22.134.86,Vosges
FR,France,Les Pavillons-sous-Bois,93320,48.9068,2.5065,37.173.122.157,Seine-Saint-Denis
FR,France,Ivry-sur-Seine,94200,48.8157,2.3849,80.215.175.230,Val-de-Marne
FR,France,Paris,75008,48.8763,2.3183,80.215.109.95,Paris
FR,France,Paris,75010,48.8709,2.3561,37.164.185.54,Paris
FR,France,Paris,75015,48.8412,2.3003,37.164.210.190,Paris
FR,France,Saint-Die-des-Vosges,88100,48.2494,6.8995999999999995,93.22.132.185,Vosges
FR,France,Paris,75010,48.8709,2.3561,37.173.163.243,Paris
FR,France,Vanves,92170,48.8235,2.2903000000000002,80.215.89.65,Hauts-de-Seine
FR,France,,,48.8582,2.3387000000000002,92.184.98.76,
FR,France,Paris,75020,48.8534,2.3487999999999998,80.215.64.127,Paris
FR,France,Paris,75020,48.8534,2.3487999999999998,80.214.119.184,Paris
FR,France,Paris,75015,48.8412,2.3003,80.215.227.104,Paris
FR,France,Paris,75001,48.8628,2.3292,37.168.36.138,Paris
FR,France,Saint-Die-des-Vosges,88100,48.2494,6.8995999999999995,93.22.134.71,Vosges
FR,France,Paris,75017,48.8835,2.3219,80.215.72.209,Paris
HK,Hong Kong,,,22.25,114.1667,202.66.60.187,
FR,France,Paris,75013,48.8322,2.3561,80.215.159.53,Paris
FR,France,Argenteuil,95100,48.95,2.25,86.238.88.247,Val d'Oise
FR,France,Paris,75019,48.8817,2.3822,37.173.111.221,Paris
FR,France,Paris,75014,48.8331,2.3264,80.215.166.182,Paris
FR,France,,,48.8582,2.3387000000000002,93.23.13.195,
FR,France,Levallois-Perret,92300,48.8939,2.2886,80.215.101.202,Hauts-de-Seine
FR,France,,,48.8582,2.3387000000000002,185.189.23.86,
FR,France,Bouaye,44830,47.1426,-1.6931,93.22.151.248,Loire-Atlantique
FR,France,Fresnes,94260,48.7557,2.3224,80.215.206.52,Val-de-Marne
FR,France,Paris,75017,48.8835,2.3219,37.164.220.73,Paris
FR,France,Terramesnil,80600,50.1059,2.3810000000000002,212.129.6.86,Somme
FR,France,Saint-Sauflieu,80160,49.7897,2.2533,51.15.149.194,Somme
FR,France,Paris,75018,48.8925,2.3444,37.164.162.223,Paris
FR,France,Vanves,92170,48.8235,2.2903000000000002,80.215.88.2,Hauts-de-Seine
FR,France,Paris,75014,48.8331,2.3264,37.173.88.234,Paris
US,United States,,,37.751,-97.822,143.244.56.233,
GB,United Kingdom,,,51.4964,-0.1224,217.138.207.252,
US,United States,,,37.751,-97.822,143.244.57.121,
IT,Italy,,,43.1479,12.1097,84.17.60.251,
US,United States,,,37.751,-97.822,143.244.56.227,
IT,Italy,,,43.1479,12.1097,84.17.43.184,
FR,France,,,48.8582,2.3387000000000002,93.23.13.227,
Not found,Not found,Not found,Not found,Not found,Not found,IP Not found,Not found
FR,France,Anzin,59410,50.372,3.5039,93.22.38.18,North
FR,France,Paris,75014,48.8331,2.3264,80.215.37.179,Paris
FR,France,,,48.8582,2.3387000000000002,93.23.12.64,
FR,France,Paris,75020,48.8534,2.3487999999999998,37.168.25.250,Paris
FR,France,Anzin,59410,50.372,3.5039,93.22.37.71,North
FR,France,Paris,75011,48.8574,2.3795,37.171.152.27,Paris
FR,France,Paris,75008,48.8763,2.3183,37.165.237.1,Paris
FR,France,Paris,75001,48.8628,2.3292,37.169.34.38,Paris
FR,France,Ezanville,95460,49.0279,2.3679,90.43.132.152,Val d'Oise
FR,France,Ivry-sur-Seine,94200,48.8157,2.3849,80.215.172.227,Val-de-Marne
FR,France,Paris,75018,48.8925,2.3444,80.215.133.5,Paris
,,,,47,8,77.111.247.44,
Not found,Not found,Not found,Not found,Not found,Not found,IP Not found,Not found
FR,France,Paris,75020,48.8534,2.3487999999999998,37.164.154.118,Paris
FR,France,Anzin,59410,50.372,3.5039,93.22.38.251,North
FR,France,Ostwald,67540,48.5437,7.711,78.124.82.176,Bas-Rhin
FR,France,Paris,75004,48.8601,2.3507,37.172.106.223,Paris
FR,France,Bouaye,44830,47.1426,-1.6931,93.22.150.239,Loire-Atlantique
FR,France,Montpellier,34070,43.6109,3.8772,176.182.238.181,Hérault
FR,France,Bouaye,44830,47.1426,-1.6931,93.22.150.243,Loire-Atlantique
FR,France,Saint-Die-des-Vosges,88100,48.2494,6.8995999999999995,93.22.132.151,Vosges
FR,France,,,48.8582,2.3387000000000002,93.23.12.2,
FR,France,Les Lilas,93260,48.8799,2.4206,37.170.27.73,Seine-Saint-Denis
FR,France,Ivry-sur-Seine,94200,48.8157,2.3849,80.215.173.34,Val-de-Marne
FR,France,Paris,75010,48.8709,2.3561,80.215.10.225,Paris
FR,France,Anzin,59410,50.372,3.5039,93.22.37.195,North
FR,France,,,48.8582,2.3387000000000002,185.189.22.77,
FR,France,,,48.8582,2.3387000000000002,93.23.14.114,
FR,France,Rosny-sous-Bois,93110,48.8702,2.4991,83.200.61.10,Seine-Saint-Denis
FR,France,Saint-Die-des-Vosges,88100,48.2494,6.8995999999999995,93.22.133.191,Vosges
FR,France,,,48.8582,2.3387000000000002,92.184.98.237,
FR,France,Paris,75018,48.8925,2.3444,80.215.130.171,Paris
Not found,Not found,Not found,Not found,Not found,Not found,IP Not found,Not found
FR,France,Paris,75001,48.8628,2.3292,37.168.57.137,Paris
FR,France,Ivry-sur-Seine,94200,48.8157,2.3849,37.165.90.152,Val-de-Marne
FR,France,Paris,75002,48.8655,2.3426,37.165.53.183,Paris
FR,France,Romainville,93230,48.8854,2.4348,37.172.185.173,Seine-Saint-Denis
FR,France,Paris,75015,48.8412,2.3003,37.164.111.234,Paris
FR,France,Le Mans,72000,48,0.2,87.88.185.143,Sarthe
FR,France,Les Lilas,93260,48.8799,2.4206,46.193.66.123,Seine-Saint-Denis
FR,France,Paris,75013,48.8322,2.3561,80.215.152.127,Paris
FR,France,Paris,75019,48.8817,2.3822,86.247.46.189,Paris
FR,France,,,48.8582,2.3387000000000002,37.166.47.129,
FR,France,Épinay-sur-Seine,93800,48.9535,2.3151,37.173.129.43,Seine-Saint-Denis
FR,France,,,48.8582,2.3387000000000002,176.149.90.254,
FR,France,Paris,75001,48.8628,2.3292,134.157.78.242,Paris
FR,France,Bouaye,44830,47.1426,-1.6931,93.22.149.249,Loire-Atlantique
FR,France,Paris,75019,48.8817,2.3822,80.214.30.242,Paris
Not found,Not found,Not found,Not found,Not found,Not found,IP Not found,Not found
FR,France,Ivry-sur-Seine,94200,48.8157,2.3849,37.164.4.253,Val-de-Marne
FR,France,,,48.8582,2.3387000000000002,37.171.129.198,
FR,France,Paris,75020,48.8534,2.3487999999999998,37.170.136.36,Paris
FR,France,Paris,75013,48.8322,2.3561,80.215.158.203,Paris
FR,France,,,48.8582,2.3387000000000002,37.166.213.215,
FR,France,,,48.8582,2.3387000000000002,93.23.12.251,
PL,Poland,Bielsko-Biala,43-300,49.8202,19.0542,46.134.187.120,Silesia
FR,France,Paris,93200,48.9333,2.3667,194.59.249.250,Paris
FR,France,Paris,75002,48.8655,2.3426,80.215.82.246,Paris
FR,France,Élancourt,,48.7842,1.9552,90.127.186.150,Yvelines
FR,France,Bouaye,44830,47.1426,-1.6931,93.22.149.124,Loire-Atlantique
FR,France,Alençon,61000,48.4333,0.0833,87.88.167.214,Orne
FR,France,Paris,75019,48.8817,2.3822,37.164.181.195,Paris
FR,France,Paris,75019,48.8817,2.3822,80.215.240.253,Paris
FR,France,Paris,75013,48.8322,2.3561,80.215.46.155,Paris
FR,France,,,48.8582,2.3387000000000002,37.169.27.223,
FR,France,Paris,75001,48.8628,2.3292,37.169.36.175,Paris
FR,France,Saint-Denis,93200,48.9333,2.3667,37.165.178.34,Seine-Saint-Denis
FR,France,Paris,75002,48.8655,2.3426,80.215.82.126,Paris
FR,France,,,48.8582,2.3387000000000002,93.23.14.167,
FR,France,Laval,53000,48.0667,-0.7667,87.88.179.252,Mayenne
FR,France,Paris,75012,48.8412,2.3876,92.184.117.112,Paris
FR,France,Gagny,93220,48.8833,2.5333,92.170.131.225,Seine-Saint-Denis
FR,France,Paris,75002,48.8655,2.3426,80.215.86.115,Paris
FR,France,,,48.8582,2.3387000000000002,37.169.24.252,
FR,France,Paris,75002,48.8655,2.3426,80.215.87.124,Paris
FR,France,Vanves,92170,48.8235,2.2903000000000002,80.215.90.146,Hauts-de-Seine
FR,France,Anzin,59410,50.372,3.5039,93.22.37.39,North
FR,France,Paris,75020,48.8534,2.3487999999999998,80.214.116.50,Paris
FR,France,Vanves,92170,48.8235,2.2903000000000002,80.215.94.37,Hauts-de-Seine
FR,France,,,48.8582,2.3387000000000002,93.23.13.166,
FR,France,Paris,75017,48.8835,2.3219,80.214.72.49,Paris
FR,France,Paris,75012,48.8412,2.3876,37.164.81.106,Paris
FR,France,Paris,75017,48.8835,2.3219,37.164.21.91,Paris
FR,France,Fresnes,94260,48.7557,2.3224,80.215.207.103,Val-de-Marne
FR,France,Cachan,94230,48.7963,2.3366,78.113.77.39,Val-de-Marne
FR,France,Paris,75013,48.8322,2.3561,83.202.131.86,Paris
FR,France,Maisons-Alfort,94700,48.8117,2.4394,37.172.127.204,Val-de-Marne
FR,France,Alençon,61000,48.4333,0.0833,87.88.166.76,Orne
FR,France,,,48.8582,2.3387000000000002,85.190.73.179,
FR,France,Paris,75019,48.8817,2.3822,37.172.168.143,Paris
FR,France,Paris,75015,48.8412,2.3003,37.164.132.85,Paris
FR,France,Paris,75013,48.8322,2.3561,80.215.40.61,Paris
FR,France,Le Blanc-Mesnil,93150,48.9387,2.4614,37.172.247.251,Seine-Saint-Denis
FR,France,Paris,75019,48.8817,2.3822,80.214.24.42,Paris
FR,France,Paris,75019,48.8817,2.3822,80.215.242.90,Paris
FR,France,Bouaye,44830,47.1426,-1.6931,93.22.149.43,Loire-Atlantique
FR,France,Anzin,59410,50.372,3.5039,93.22.39.91,North
FR,France,Paris,75020,48.8534,2.3487999999999998,80.214.70.216,Paris
FR,France,,,48.8582,2.3387000000000002,93.23.14.189,
FR,France,Paris,75017,48.8835,2.3219,37.164.17.139,Paris
FR,France,Paris,75018,48.8925,2.3444,80.215.128.10,Paris
FR,France,Paris,75010,48.8709,2.3561,37.173.145.57,Paris
FR,France,Créteil,94000,48.7833,2.4667,37.173.152.163,Val-de-Marne
FR,France,,,48.8582,2.3387000000000002,37.172.26.244,
FR,France,Saint-Die-des-Vosges,88100,48.2494,6.8995999999999995,93.22.133.65,Vosges
FR,France,Paris,75017,48.8835,2.3219,80.214.73.133,Paris
FR,France,Paris,75018,48.8925,2.3444,37.164.160.111,Paris
FR,France,Lyon,69009,45.7726,4.8033,37.165.157.12,Rhône
FR,France,Chatres-sur-Cher,41320,47.265,1.9059,37.175.68.193,Loir-et-Cher
FR,France,Paris,75013,48.8322,2.3561,37.164.65.25,Paris
FR,France,Alfortville,94140,48.8058,2.4204,37.165.185.75,Val-de-Marne
Not found,Not found,Not found,Not found,Not found,Not found,IP Not found,Not found
FR,France,,,48.8582,2.3387000000000002,91.168.117.109,
FR,France,Paris,75018,48.8925,2.3444,37.173.73.197,Paris
FR,France,,,48.8582,2.3387000000000002,93.23.12.154,
FR,France,Paris,75017,48.8835,2.3219,37.171.118.105,Paris
FR,France,Paris,75011,48.8574,2.3795,89.2.96.141,Paris
FR,France,Paris,75001,48.8628,2.3292,37.171.74.10,Paris
FR,France,,,48.8582,2.3387000000000002,37.170.68.18,
FR,France,Saint-Die-des-Vosges,88100,48.2494,6.8995999999999995,93.22.133.29,Vosges
FR,France,,,48.8582,2.3387000000000002,93.23.13.148,
FR,France,Le Mans,72000,48,0.2,87.88.190.44,Sarthe
FR,France,Bouaye,44830,47.1426,-1.6931,93.22.148.156,Loire-Atlantique
FR,France,Créteil,94000,48.7833,2.4667,37.173.152.34,Val-de-Marne
FR,France,Montreuil,93100,48.8642,2.4432,37.165.165.248,Seine-Saint-Denis
FR,France,Bouaye,44830,47.1426,-1.6931,93.22.151.64,Loire-Atlantique
FR,France,Paris,75002,48.8655,2.3426,80.215.84.15,Paris
FR,France,Paris,75018,48.8925,2.3444,80.215.128.179,Paris
FR,France,Paris,75013,48.8322,2.3561,37.165.151.170,Paris
FR,France,Anzin,59410,50.372,3.5039,93.22.37.140,North
FR,France,Paris,75015,48.8412,2.3003,80.215.230.176,Paris
FR,France,Bouaye,44830,47.1426,-1.6931,93.22.149.12,Loire-Atlantique
FR,France,Bordeaux,33100,44.8404,-0.5805,37.165.218.235,Gironde
FR,France,Ivry-sur-Seine,94200,48.8157,2.3849,80.215.168.66,Val-de-Marne
FR,France,Alfortville,94140,48.8058,2.4204,37.165.184.162,Val-de-Marne
FR,France,Bouaye,44830,47.1426,-1.6931,93.22.150.53,Loire-Atlantique
FR,France,Paris,75020,48.8534,2.3487999999999998,80.215.66.203,Paris
FR,France,Paris,75020,48.8534,2.3487999999999998,37.165.5.205,Paris
FR,France,Paris,75015,48.8412,2.3003,80.215.226.230,Paris
FR,France,Stains,93240,48.95,2.3833,37.165.229.171,Seine-Saint-Denis
FR,France,Saint-Fons,69190,45.7088,4.8606,37.172.96.108,Rhône
FR,France,,,48.8582,2.3387000000000002,92.184.98.132,
FR,France,Bouaye,44830,47.1426,-1.6931,93.22.150.191,Loire-Atlantique
FR,France,,,48.8582,2.3387000000000002,93.23.12.163,
FR,France,Gentilly,94250,48.8129,2.3417,90.44.41.60,Val-de-Marne
FR,France,Bouaye,44830,47.1426,-1.6931,93.22.151.208,Loire-Atlantique
FR,France,Paris,75009,48.8718,2.3399,37.168.103.106,Paris
FR,France,,,48.8582,2.3387000000000002,92.184.98.252,
FR,France,Paris,75002,48.8655,2.3426,80.215.80.149,Paris
FR,France,Paris,75017,48.8835,2.3219,80.215.5.236,Paris
FR,France,Bouaye,44830,47.1426,-1.6931,93.22.151.252,Loire-Atlantique
FR,France,Ludon-Medoc,33290,44.9812,-0.6025,37.172.116.240,Gironde
FR,France,Paris,75019,48.8817,2.3822,80.214.29.253,Paris
FR,France,,,48.8582,2.3387000000000002,37.171.134.227,
FR,France,Paris,75002,48.8655,2.3426,37.165.54.132,Paris
FR,France,Paris,75020,48.8534,2.3487999999999998,80.215.65.114,Paris
FR,France,Paris,75014,48.8331,2.3264,80.215.32.156,Paris
FR,France,Montrouge,92120,48.8162,2.3139,37.165.40.52,Hauts-de-Seine
FR,France,Ivry-sur-Seine,94200,48.8157,2.3849,80.215.172.252,Val-de-Marne
FR,France,Paris,75017,48.8835,2.3219,37.164.221.33,Paris
FR,France,Paris,75012,48.8412,2.3876,92.184.116.154,Paris
FR,France,Anzin,59410,50.372,3.5039,93.22.39.240,North
FR,France,,,48.8582,2.3387000000000002,92.184.96.91,
FR,France,Vanves,92170,48.8235,2.2903000000000002,80.215.89.159,Hauts-de-Seine
FR,France,Paris,75012,48.8412,2.3876,37.173.1.3,Paris
FR,France,Chilly-Mazarin,91380,48.7149,2.3164,37.170.207.197,Essonne
FR,France,Montrouge,92120,48.8162,2.3139,37.165.41.68,Hauts-de-Seine
FR,France,Paris,75017,48.8835,2.3219,80.214.22.70,Paris
FR,France,Anzin,59410,50.372,3.5039,93.22.38.146,North
FR,France,,,48.8582,2.3387000000000002,37.175.238.117,
FR,France,Paris,75011,48.8574,2.3795,37.171.156.229,Paris
FR,France,Paris,75017,48.8835,2.3219,80.215.77.103,Paris
FR,France,Dreux,28100,48.7333,1.3667,87.88.171.227,Eure-et-Loir
FR,France,Paris,75014,48.8331,2.3264,80.215.161.111,Paris
FR,France,Paris,75017,48.8835,2.3219,37.164.22.22,Paris
FR,France,Paris,75019,48.8817,2.3822,80.215.244.158,Paris
FR,France,Montreuil,93100,48.8642,2.4432,37.170.125.11,Seine-Saint-Denis
FR,France,Lamballe,22400,48.4676,-2.5144,88.164.205.198,Côtes-d'Armor
FR,France,,,48.8582,2.3387000000000002,93.23.15.146,
FR,France,Saint-Ouen,93400,48.9065,2.3334,37.173.211.159,Seine-Saint-Denis
FR,France,Paris,75017,48.8835,2.3219,80.215.5.119,Paris
FR,France,Paris,75017,48.8835,2.3219,80.214.21.50,Paris
FR,France,Paris,75017,48.8835,2.3219,80.215.5.19,Paris
FR,France,Anzin,59410,50.372,3.5039,93.22.38.166,North
FR,France,,,48.8582,2.3387000000000002,37.165.135.18,
FR,France,Paris,75017,48.8835,2.3219,80.215.73.205,Paris
FR,France,Paris,75012,48.8412,2.3876,92.184.118.86,Paris
FR,France,Anzin,59410,50.372,3.5039,93.22.37.93,North
FR,France,Bouaye,44830,47.1426,-1.6931,93.22.150.170,Loire-Atlantique
FR,France,Paris,75009,48.8718,2.3399,37.164.196.136,Paris
FR,France,Bouaye,44830,47.1426,-1.6931,93.22.150.44,Loire-Atlantique
FR,France,Paris,75011,48.8574,2.3795,185.61.186.144,Paris
FR,France,Paris,75003,48.8637,2.3615,37.164.171.42,Paris
FR,France,Paris,75017,48.8835,2.3219,80.214.16.253,Paris
FR,France,Ivry-sur-Seine,94200,48.8157,2.3849,80.215.168.16,Val-de-Marne
FR,France,,,48.8582,2.3387000000000002,92.184.98.89,
FR,France,Clichy,92110,48.9002,2.3095,37.165.243.68,Hauts-de-Seine
FR,France,,,48.8582,2.3387000000000002,37.165.132.211,
FR,France,Paris,75020,48.8534,2.3487999999999998,92.184.106.2,Paris
FR,France,Paris,75013,48.8322,2.3561,80.215.44.239,Paris
FR,France,Argenteuil,95100,48.95,2.25,31.172.236.231,Val d'Oise
FR,France,,,48.8582,2.3387000000000002,93.23.12.153,
FR,France,Levallois-Perret,92300,48.8939,2.2886,80.215.103.252,Hauts-de-Seine
FR,France,Paris,75009,48.8718,2.3399,37.165.153.180,Paris
FR,France,Anzin,59410,50.372,3.5039,93.22.36.145,North
FR,France,Anzin,59410,50.372,3.5039,93.22.38.216,North
FR,France,Paris,75020,48.8534,2.3487999999999998,80.214.71.78,Paris
FR,France,Paris,75010,48.8709,2.3561,37.170.244.243,Paris
FR,France,Paris,75020,48.8534,2.3487999999999998,92.184.106.75,Paris
FR,France,Paris,75008,48.8763,2.3183,80.215.111.203,Paris
FR,France,Aubervilliers,93300,48.9167,2.3833,37.173.30.23,Seine-Saint-Denis
FR,France,Paris,75017,48.8835,2.3219,80.214.77.99,Paris
FR,France,Paris,75014,48.8331,2.3264,80.215.34.246,Paris
FR,France,Paris,75019,48.8817,2.3822,37.170.104.166,Paris
FR,France,Paris,75013,48.8322,2.3561,80.215.42.123,Paris
FR,France,,,48.8582,2.3387000000000002,93.23.12.144,
FR,France,Les Pavillons-sous-Bois,93320,48.9068,2.5065,37.173.120.200,Seine-Saint-Denis
FR,France,Paris,75001,48.8628,2.3292,134.157.24.131,Paris
GB,United Kingdom,Kidderminster,DY11,52.375,-2.2417,185.13.106.217,Worcestershire
FR,France,,,48.8582,2.3387000000000002,93.23.13.47,
FR,France,Paris,75010,48.8709,2.3561,80.215.11.239,Paris
FR,France,Bouaye,44830,47.1426,-1.6931,93.22.150.110,Loire-Atlantique
FR,France,Fresnes,94260,48.7557,2.3224,80.215.207.235,Val-de-Marne
FR,France,,,48.8582,2.3387000000000002,37.171.55.195,
FR,France,Paris,75017,48.8835,2.3219,80.214.74.99,Paris
FR,France,Paris,75012,48.8412,2.3876,37.170.197.97,Paris
FR,France,Paris,75019,48.8817,2.3822,37.172.42.138,Paris
FR,France,Paris,75002,48.8655,2.3426,37.164.94.20,Paris
FR,France,Saint-Die-des-Vosges,88100,48.2494,6.8995999999999995,93.22.133.169,Vosges
FR,France,Ivry-sur-Seine,94200,48.8157,2.3849,37.173.103.77,Val-de-Marne
FR,France,,,48.8582,2.3387000000000002,93.23.15.56,
GB,United Kingdom,London,EC2V,51.5161,-0.0949,83.137.1.218,England
FR,France,Paris,75020,48.8534,2.3487999999999998,80.214.67.99,Paris
FR,France,,,48.8582,2.3387000000000002,92.184.98.56,
US,United States,Pasadena,91101,34.1468,-118.1391,168.235.206.68,California
FR,France,Anzin,59410,50.372,3.5039,93.22.38.223,North
FR,France,Le Mans,72000,48,0.2,87.88.185.119,Sarthe
FR,France,Paris,75018,48.8925,2.3444,80.215.197.127,Paris
FR,France,,,48.8582,2.3387000000000002,93.23.14.122,
HK,Hong Kong,,,22.25,114.1667,202.66.60.187,
FR,France,Paris,75013,48.8322,2.3561,37.173.218.162,Paris
FR,France,Paris,75002,48.8655,2.3426,80.215.82.159,Paris
FR,France,,,48.8582,2.3387000000000002,93.23.13.31,
FR,France,Buellas,01310,46.2111,5.1322,37.168.94.221,Ain
FR,France,Paris,75012,48.8412,2.3876,92.184.118.69,Paris
FR,France,Paris,75020,48.8534,2.3487999999999998,46.193.1.64,Paris
FR,France,Bouaye,44830,47.1426,-1.6931,93.22.151.87,Loire-Atlantique
FR,France,,,48.8582,2.3387000000000002,93.23.13.230,
FR,France,Montreuil,93100,48.8642,2.4432,37.170.127.80,Seine-Saint-Denis
RO,Romania,,,46,25,37.120.213.4,
US,United States,,,37.751,-97.822,156.146.62.40,
IT,Italy,Empoli,50053,43.718,10.9476,212.102.36.233,Province of Florence
US,United States,,,37.751,-97.822,156.146.62.45,
US,United States,,,37.751,-97.822,156.146.62.55,
FR,France,Lieusaint,77127,48.6348,2.5481,176.144.90.189,Seine-et-Marne
FR,France,,,48.8582,2.3387000000000002,93.23.13.214,
FR,France,Paris,75017,48.8835,2.3219,80.215.75.70,Paris
FR,France,Bouaye,44830,47.1426,-1.6931,93.22.150.87,Loire-Atlantique
FR,France,Bouaye,44830,47.1426,-1.6931,93.22.151.39,Loire-Atlantique
FR,France,Ivry-sur-Seine,94200,48.8157,2.3849,37.165.93.131,Val-de-Marne
FR,France,Paris,75010,48.8709,2.3561,80.215.13.250,Paris
FR,France,Ivry-sur-Seine,94200,48.8157,2.3849,80.215.175.154,Val-de-Marne
FR,France,Paris,75001,48.8628,2.3292,37.169.19.32,Paris
FR,France,Le Mans,72000,48,0.2,87.88.183.53,Sarthe
FR,France,Brunoy,91800,48.6942,2.4922,91.166.185.198,Essonne
Not found,Not found,Not found,Not found,Not found,Not found,IP Not found,Not found
FR,France,Paris,75020,48.8534,2.3487999999999998,37.171.232.152,Paris
FR,France,Anzin,59410,50.372,3.5039,93.22.37.167,North
FR,France,,,48.8582,2.3387000000000002,93.23.15.187,
FR,France,Paris,75009,48.8718,2.3399,37.164.196.238,Paris
FR,France,Paris,75008,48.8763,2.3183,90.43.241.196,Paris
FR,France,Paris,75010,48.8709,2.3561,37.165.104.181,Paris
FR,France,Paris,75018,48.8925,2.3444,37.164.253.11,Paris
FR,France,Saint-Die-des-Vosges,88100,48.2494,6.8995999999999995,93.22.134.204,Vosges
FR,France,Anzin,59410,50.372,3.5039,93.22.37.128,North
FR,France,Anzin,59410,50.372,3.5039,93.22.36.43,North
FR,France,Paris,75010,48.8709,2.3561,37.170.244.194,Paris
FR,France,Paris,75019,48.8817,2.3822,37.164.178.86,Paris
FR,France,Gennevilliers,92230,48.9333,2.3,46.193.66.183,Hauts-de-Seine
FR,France,Morsang-sur-Orge,91390,48.6618,2.3534,90.44.170.191,Essonne
FR,France,Bouaye,44830,47.1426,-1.6931,93.22.148.90,Loire-Atlantique
FR,France,Le Blanc-Mesnil,93150,48.9387,2.4614,86.252.159.82,Seine-Saint-Denis
FR,France,Paris,75008,48.8763,2.3183,37.165.235.236,Paris
FR,France,Arcachon,33120,44.65,-1.1667,77.147.21.144,Gironde
FR,France,Maisons-Alfort,94700,48.8117,2.4394,86.247.165.18,Val-de-Marne
FR,France,,,48.8582,2.3387000000000002,37.165.191.194,
FR,France,Paris,75001,48.8628,2.3292,132.227.125.183,Paris
FR,France,Paris,75018,48.8925,2.3444,80.215.134.138,Paris
FR,France,,,48.8582,2.3387000000000002,93.23.15.110,
FR,France,Paris,75019,48.8817,2.3822,37.170.212.146,Paris
FR,France,Paris,75014,48.8331,2.3264,80.215.166.137,Paris
FR,France,Le Mans,72000,48,0.2,87.88.190.189,Sarthe
FR,France,Bouaye,44830,47.1426,-1.6931,93.22.148.209,Loire-Atlantique
PL,Poland,Katowice,40-050,50.251,19.0121,5.173.107.18,Silesia
FR,France,Paris,75013,48.8322,2.3561,37.169.1.109,Paris
FR,France,Paris,75002,48.8655,2.3426,37.164.92.16,Paris
FR,France,Paris,75020,48.8534,2.3487999999999998,80.215.68.195,Paris
FR,France,Morsang-sur-Orge,91390,48.6618,2.3534,90.44.170.24,Essonne
FR,France,Paris,75012,48.8412,2.3876,37.171.41.137,Paris
FR,France,Anzin,59410,50.372,3.5039,93.22.37.112,North
FR,France,,,48.8582,2.3387000000000002,37.166.16.249,
FR,France,Paris,75019,48.8817,2.3822,37.169.31.171,Paris
FR,France,Paris,75014,48.8331,2.3264,80.215.35.102,Paris
FR,France,Paris,75014,48.8331,2.3264,37.164.12.232,Paris
FR,France,,,48.8582,2.3387000000000002,37.166.104.88,
FR,France,,,48.8582,2.3387000000000002,92.184.96.2,
FR,France,Paris,75015,48.8412,2.3003,37.164.129.6,Paris
FR,France,Paris,75002,48.8655,2.3426,37.164.90.43,Paris
FR,France,Paris,75000,48.8534,2.3487999999999998,176.241.250.3,Paris
FR,France,Paris,75013,48.8322,2.3561,37.171.209.70,Paris
FR,France,Laval,53000,48.0667,-0.7667,87.88.164.89,Mayenne
FR,France,,,48.8582,2.3387000000000002,37.166.193.121,
FR,France,Paris,75002,48.8655,2.3426,80.215.87.213,Paris
FR,France,Paris,75017,48.8835,2.3219,80.215.7.108,Paris
FR,France,Paris,75003,48.8637,2.3615,37.164.175.63,Paris
FR,France,Lambersart,59130,50.65,3.0333,81.220.114.148,North
FR,France,Le Mans,72100,48,0.2,87.88.162.62,Sarthe
FR,France,Paris,75018,48.8925,2.3444,37.165.66.207,Paris
FR,France,Paris,75019,48.8817,2.3822,37.173.111.120,Paris
FR,France,Paris,75001,48.8628,2.3292,134.157.27.84,Paris
FR,France,Vanves,92170,48.8235,2.2903000000000002,80.215.88.44,Hauts-de-Seine
FR,France,,,48.8582,2.3387000000000002,37.166.220.73,
FR,France,Paris,75011,48.8574,2.3795,37.165.35.12,Paris
FR,France,Paris,75008,48.8763,2.3183,37.165.219.209,Paris
FR,France,Melun,77000,48.5333,2.6667,90.46.18.152,Seine-et-Marne
FR,France,Paris,75019,48.8817,2.3822,92.169.47.90,Paris
FR,France,,,48.8582,2.3387000000000002,85.190.68.180,
FR,France,Paris,75013,48.8322,2.3561,37.165.148.5,Paris
FR,France,Boulogne-Billancourt,92100,48.8333,2.25,37.169.12.54,Hauts-de-Seine
FR,France,Paris,75017,48.8835,2.3219,80.215.79.238,Paris
FR,France,Saint-Die-des-Vosges,88100,48.2494,6.8995999999999995,93.22.132.146,Vosges
FR,France,Saint-Die-des-Vosges,88100,48.2494,6.8995999999999995,93.22.132.34,Vosges
FR,France,Paris,75015,48.8412,2.3003,37.164.108.90,Paris
FR,France,Paris,75001,48.8628,2.3292,132.227.124.195,Paris
FR,France,,,48.8582,2.3387000000000002,37.166.57.156,
FR,France,Noisy-le-Sec,93130,48.8915,2.4645,37.170.249.58,Seine-Saint-Denis
FR,France,Paris,75015,48.8412,2.3003,37.164.111.180,Paris
FR,France,Paris,75020,48.8534,2.3487999999999998,92.184.105.56,Paris
FR,France,Paris,75015,48.8412,2.3003,37.164.210.130,Paris
FR,France,Paris,75010,48.8709,2.3561,37.173.9.246,Paris
FR,France,Paris,75020,48.8534,2.3487999999999998,80.214.71.20,Paris
FR,France,,,48.8582,2.3387000000000002,37.166.25.64,
FR,France,Paris,75012,48.8412,2.3876,92.184.116.21,Paris
FR,France,Le Mans,72100,48,0.2,87.88.160.34,Sarthe
FR,France,Vitry-sur-Seine,94400,48.7872,2.4032999999999998,37.165.15.101,Val-de-Marne
FR,France,,,48.8582,2.3387000000000002,93.23.12.135,
FR,France,Saint-Die-des-Vosges,88100,48.2494,6.8995999999999995,93.22.135.70,Vosges
FR,France,Paris,75013,48.8322,2.3561,80.215.156.233,Paris
FR,France,Paris,75002,48.8655,2.3426,80.215.81.121,Paris
FR,France,Paris,75017,48.8835,2.3219,80.215.2.202,Paris
FR,France,Paris,75017,48.8835,2.3219,90.79.227.198,Paris
PL,Poland,,,52.2394,21.0362,95.178.111.26,
FR,France,Lyon,,45.7485,4.8467,37.169.54.196,Rhône
FR,France,Paris,75017,48.8835,2.3219,37.170.225.98,Paris
FR,France,Vanves,92170,48.8235,2.2903000000000002,80.215.95.154,Hauts-de-Seine
FR,France,Paris,75008,48.8763,2.3183,80.215.111.247,Paris
FR,France,Paris,75014,48.8331,2.3264,37.164.112.116,Paris
FR,France,,,43.2854,5.3761,37.165.96.209,Provence-Alpes-Côte d'Azur
FR,France,Clichy,92110,48.9002,2.3095,37.173.188.226,Hauts-de-Seine
,,,,47,8,138.199.14.145,
FR,France,Paris,75019,48.8817,2.3822,37.173.225.167,Paris
FR,France,Villemomble,93250,48.8833,2.5,37.165.126.44,Seine-Saint-Denis
FR,France,Paris,75017,48.8835,2.3219,80.214.76.8,Paris
FR,France,Le Mans,72000,48,0.2,87.88.174.192,Sarthe
FR,France,Paris,75001,48.8628,2.3292,132.227.124.174,Paris
FR,France,Paris,75019,48.8817,2.3822,80.214.29.230,Paris
FR,France,Paris,75009,48.8718,2.3399,37.165.153.62,Paris
FR,France,Alfortville,94140,48.8058,2.4204,37.165.184.202,Val-de-Marne
FR,France,,,48.8582,2.3387000000000002,93.23.12.41,
FR,France,Paris,75018,48.8925,2.3444,80.215.128.4,Paris
FR,France,Alençon,61000,48.4333,0.0833,87.88.167.228,Orne
FR,France,Montreuil,93100,48.8642,2.4432,37.165.164.56,Seine-Saint-Denis
FR,France,,,48.8582,2.3387000000000002,37.166.135.41,
FR,France,Paris,75020,48.8534,2.3487999999999998,92.184.105.248,Paris
FR,France,Paris,75012,48.8412,2.3876,37.173.0.18,Paris
FR,France,Vanves,92170,48.8235,2.2903000000000002,80.215.95.233,Hauts-de-Seine
FR,France,Boulogne-Billancourt,92100,48.8333,2.25,37.164.77.122,Hauts-de-Seine
FR,France,Nanterre,92000,48.892,2.2067,37.164.68.197,Hauts-de-Seine
FR,France,Paris,75014,48.8331,2.3264,80.215.161.204,Paris
FR,France,Bagnolet,93170,48.8667,2.4167,37.170.103.102,Seine-Saint-Denis
FR,France,Paris,75019,48.8817,2.3822,80.214.27.128,Paris
FR,France,,,48.8582,2.3387000000000002,193.56.245.108,
FR,France,Bouaye,44830,47.1426,-1.6931,93.22.151.68,Loire-Atlantique
FR,France,Paris,75018,48.8925,2.3444,80.215.130.20,Paris
FR,France,,,48.8582,2.3387000000000002,93.23.12.1,
FR,France,Bouaye,44830,47.1426,-1.6931,93.22.150.25,Loire-Atlantique
FR,France,,,48.8582,2.3387000000000002,37.165.200.71,
FR,France,Le Mans,72000,48,0.2,87.88.186.195,Sarthe
GB,United Kingdom,Kidderminster,DY11,52.375,-2.2417,185.13.106.233,Worcestershire
FR,France,Paris,75013,48.8322,2.3561,37.172.142.28,Paris
FR,France,Vanves,92170,48.8235,2.2903000000000002,80.215.91.208,Hauts-de-Seine
FR,France,Alfortville,94140,48.8058,2.4204,37.165.184.31,Val-de-Marne
FR,France,Paris,75020,48.8534,2.3487999999999998,92.184.105.157,Paris
FR,France,Paris,75001,48.8628,2.3292,132.227.78.96,Paris
FR,France,Paris,75014,48.8331,2.3264,80.215.35.130,Paris
FR,France,Aubervilliers,93300,48.9167,2.3833,37.173.41.216,Seine-Saint-Denis
FR,France,,,48.8582,2.3387000000000002,77.204.105.50,
FR,France,Paris,75001,48.8628,2.3292,134.157.25.178,Paris
FR,France,Anzin,59410,50.372,3.5039,93.22.39.35,North
FR,France,Paris,75014,48.8331,2.3264,37.164.119.78,Paris
FR,France,,,48.8582,2.3387000000000002,89.85.241.116,
FR,France,Paris,75012,48.8412,2.3876,92.184.117.5,Paris
FR,France,Paris,75015,48.8412,2.3003,37.164.134.144,Paris
FR,France,,,48.8582,2.3387000000000002,93.23.12.204,
FR,France,Paris,75017,48.8835,2.3219,37.165.211.219,Paris
ES,Spain,,,40.4172,-3.684,47.60.42.148,
FR,France,Paris,75001,48.8628,2.3292,134.157.25.38,Paris
FR,France,Saint-Die-des-Vosges,88100,48.2494,6.8995999999999995,93.22.135.9,Vosges
FR,France,Paris,75019,48.8817,2.3822,37.170.211.122,Paris
FR,France,Paris,75001,48.8628,2.3292,37.164.148.67,Paris
FR,France,,,48.8582,2.3387000000000002,89.85.254.225,
US,United States,,,37.751,-97.822,159.242.228.189,
FR,France,,,48.8582,2.3387000000000002,62.241.127.9,
IT,Italy,,,43.1479,12.1097,84.17.43.181,
US,United States,,,37.751,-97.822,143.244.57.102,
Not found,Not found,Not found,Not found,Not found,Not found,IP Not found,Not found
FR,France,Issy-les-Moulineaux,92130,48.821,2.2772,86.238.141.223,Hauts-de-Seine
RO,Romania,,,46,25,84.247.51.252,
Not found,Not found,Not found,Not found,Not found,Not found,IP Not found,Not found
FR,France,Le Mans,72000,48,0.2,87.88.185.236,Sarthe
US,United States,,,37.751,-97.822,143.244.57.111,
GB,United Kingdom,Kidderminster,DY11,52.375,-2.2417,185.13.106.232,Worcestershire
FR,France,Sarcelles,95200,49,2.3833,109.31.218.194,Val d'Oise
FR,France,Paris,75017,48.8835,2.3219,80.215.74.3,Paris
FR,France,Bouaye,44830,47.1426,-1.6931,93.22.150.172,Loire-Atlantique
FR,France,Paris,75002,48.8655,2.3426,37.165.53.162,Paris
FR,France,,,48.8582,2.3387000000000002,77.204.197.101,
FR,France,,,48.8582,2.3387000000000002,93.23.14.194,
FR,France,Roubaix,59100,50.6942,3.1746,77.204.244.97,North
FR,France,Vailhauques,34570,43.6716,3.7204,88.123.237.128,Hérault
FR,France,Anzin,59410,50.372,3.5039,93.22.38.237,North
FR,France,Saclas,91690,48.3584,2.1235,90.44.66.223,Essonne
FR,France,Bouaye,44830,47.1426,-1.6931,93.22.151.172,Loire-Atlantique
FR,France,Toulouse,31000,43.6043,1.4437,92.184.110.130,Upper Garonne
FR,France,Anzin,59410,50.372,3.5039,93.22.36.121,North
FR,France,Paris,75018,48.8925,2.3444,37.165.142.189,Paris
FR,France,Aubervilliers,93300,48.9167,2.3833,37.173.31.104,Seine-Saint-Denis
FR,France,Paris,75001,48.8628,2.3292,37.168.57.13,Paris
FR,France,Paris,75015,48.8412,2.3003,90.92.61.158,Paris
FR,France,Annecy,74000,45.9,6.1167,77.204.144.237,Haute-Savoie
FR,France,Paris,75012,48.8412,2.3876,92.184.116.7,Paris
FR,France,Paris,75010,48.8709,2.3561,37.171.86.127,Paris
US,United States,,,37.751,-97.822,159.242.228.49,
FR,France,Saint-Die-des-Vosges,88100,48.2494,6.8995999999999995,93.22.135.238,Vosges
FR,France,Saint-Die-des-Vosges,88100,48.2494,6.8995999999999995,93.22.135.255,Vosges
FR,France,Paris,75015,48.8412,2.3003,80.214.120.160,Paris
FR,France,Paris,75017,48.8835,2.3219,80.215.72.190,Paris
FR,France,Paris,75001,48.8628,2.3292,134.157.27.47,Paris
FR,France,Paris,75014,48.8331,2.3264,37.172.2.57,Paris
FR,France,Paris,75013,48.8322,2.3561,37.165.151.196,Paris
HK,Hong Kong,,,22.25,114.1667,202.66.60.187,
GB,United Kingdom,Kidderminster,DY11,52.375,-2.2417,185.13.106.114,Worcestershire
FR,France,Paris,75001,48.8628,2.3292,134.157.24.17,Paris
FR,France,Saint-Die-des-Vosges,88100,48.2494,6.8995999999999995,93.22.132.17,Vosges
FR,France,Paris,75011,48.8574,2.3795,37.171.154.53,Paris
FR,France,,,48.8582,2.3387000000000002,89.85.247.230,
FR,France,Paris,75010,48.8709,2.3561,80.215.14.155,Paris
FR,France,Suresnes,92150,48.8714,2.2293,87.88.187.240,Hauts-de-Seine
FR,France,Paris,75014,48.8331,2.3264,80.215.33.202,Paris
FR,France,Neuilly-sur-Marne,93330,48.8537,2.549,83.199.182.34,Seine-Saint-Denis
FR,France,,,48.8582,2.3387000000000002,92.184.98.245,
FR,France,Paris,75020,48.8534,2.3487999999999998,80.215.67.179,Paris
FR,France,Paris,75018,48.8925,2.3444,37.171.137.53,Paris
FR,France,Annecy,74000,45.9,6.1167,77.204.145.38,Haute-Savoie
FR,France,Paris,75020,48.8534,2.3487999999999998,92.184.105.149,Paris
FR,France,Montrouge,92120,48.8162,2.3139,37.165.194.142,Hauts-de-Seine
FR,France,,,48.8582,2.3387000000000002,77.204.198.53,
FR,France,Paris,75013,48.8322,2.3561,90.44.192.183,Paris
FR,France,,,48.8582,2.3387000000000002,92.184.97.38,
FR,France,Laval,53000,48.0667,-0.7667,87.88.180.185,Mayenne
FR,France,Gagny,93220,48.8833,2.5333,37.165.197.212,Seine-Saint-Denis
FR,France,Paris,75013,48.8322,2.3561,37.165.147.173,Paris
FR,France,Paris,75014,48.8331,2.3264,194.199.3.13,Paris
Not found,Not found,Not found,Not found,Not found,Not found,IP Not found,Not found
FR,France,Paris,75003,48.8637,2.3615,85.171.129.223,Paris
FR,France,Paris,75018,48.8925,2.3444,37.165.65.123,Paris
Not found,Not found,Not found,Not found,Not found,Not found,IP Not found,Not found
FR,France,Paris,75001,48.8628,2.3292,134.157.53.40,Paris
FR,France,Bures-sur-Yvette,91440,48.6998,2.1706,86.238.236.28,Essonne
FR,France,,,48.8582,2.3387000000000002,37.166.125.218,
PT,Portugal,Camarate,2680-008,38.8036,-9.1281,95.95.164.146,Lisbon
FR,France,Vizille,38220,45.0782,5.7707,77.201.125.226,Isère
FR,France,Cachan,94230,48.7963,2.3366,82.123.105.186,Val-de-Marne
GB,United Kingdom,Kidderminster,DY11,52.375,-2.2417,185.13.106.216,Worcestershire
FR,France,,,48.8582,2.3387000000000002,93.23.12.132,
FR,France,Paris,75019,48.8817,2.3822,80.214.30.208,Paris
FR,France,Clamart,92140,48.803,2.2669,176.151.225.224,Hauts-de-Seine
FR,France,Anzin,59410,50.372,3.5039,93.22.37.111,North
FR,France,Bouaye,44830,47.1426,-1.6931,93.22.150.230,Loire-Atlantique
FR,France,Paris,75001,48.8628,2.3292,37.169.39.22,Paris
FR,France,Paris,75010,48.8709,2.3561,37.173.10.90,Paris
FR,France,Bouaye,44830,47.1426,-1.6931,93.22.150.69,Loire-Atlantique
FR,France,Asnieres-sur-Seine,92600,48.9167,2.2833,90.90.211.191,Hauts-de-Seine
FR,France,Vanves,92170,48.8235,2.2903000000000002,80.215.89.114,Hauts-de-Seine
FR,France,Stains,93240,48.95,2.3833,37.165.230.189,Seine-Saint-Denis
FR,France,Paris,75001,48.8628,2.3292,134.157.107.126,Paris
FR,France,Paris,75003,48.8637,2.3615,37.164.174.21,Paris
FR,France,Saint-Die-des-Vosges,88100,48.2494,6.8995999999999995,93.22.135.82,Vosges
FR,France,,,48.8582,2.3387000000000002,37.166.28.81,
FR,France,Paris,75004,48.8601,2.3507,37.164.143.202,Paris
FR,France,Le Mans,72000,48,0.2,87.88.189.149,Sarthe
FR,France,Paris,75001,48.8628,2.3292,134.157.26.180,Paris
FR,France,Anzin,59410,50.372,3.5039,93.22.37.186,North
FR,France,Paris,75002,48.8655,2.3426,80.215.83.3,Paris
FR,France,Levallois-Perret,92300,48.8939,2.2886,80.215.98.215,Hauts-de-Seine
FR,France,Paris,75020,48.8534,2.3487999999999998,80.214.70.181,Paris
FR,France,Paris,75017,48.8835,2.3219,80.215.3.223,Paris
FR,France,Saint-Die-des-Vosges,88100,48.2494,6.8995999999999995,93.22.132.4,Vosges
FR,France,,,48.8582,2.3387000000000002,37.166.19.159,
FR,France,,,48.8582,2.3387000000000002,89.85.250.103,
FR,France,,,48.8582,2.3387000000000002,92.184.97.117,
FR,France,Asnieres-sur-Seine,92600,48.9167,2.2833,37.172.134.225,Hauts-de-Seine
FR,France,Anzin,59410,50.372,3.5039,93.22.36.8,North
FR,France,Paris,75001,48.8628,2.3292,134.157.25.48,Paris
FR,France,Paris,75020,48.8534,2.3487999999999998,80.214.119.81,Paris
FR,France,Paris,75001,48.8628,2.3292,134.157.25.5,Paris
FR,France,,,48.8582,2.3387000000000002,37.166.131.56,
FR,France,,,48.8582,2.3387000000000002,93.23.14.69,
FR,France,Paris,75019,48.8817,2.3822,37.164.205.238,Paris
FR,France,Paris,75020,48.8534,2.3487999999999998,37.165.6.47,Paris
FR,France,Anzin,59410,50.372,3.5039,93.22.39.83,North
FR,France,Paris,75001,48.8628,2.3292,134.157.78.246,Paris
FR,France,Paris,75015,48.8412,2.3003,37.164.132.115,Paris
FR,France,Paris,75014,48.8331,2.3264,80.215.163.24,Paris
FR,France,Saint-Die-des-Vosges,88100,48.2494,6.8995999999999995,93.22.135.248,Vosges
FR,France,Paris,75001,48.8628,2.3292,134.157.25.236,Paris
FR,France,Laval,53000,48.0667,-0.7667,87.88.164.11,Mayenne
FR,France,Saint-Die-des-Vosges,88100,48.2494,6.8995999999999995,93.22.134.227,Vosges
FR,France,Saint-Die-des-Vosges,88100,48.2494,6.8995999999999995,93.22.132.9,Vosges
Not found,Not found,Not found,Not found,Not found,Not found,IP Not found,Not found
FR,France,Paris,75013,48.8322,2.3561,37.171.246.90,Paris
FR,France,Le Mans,72000,48,0.2,87.88.190.40,Sarthe
FR,France,Paris,75015,48.8412,2.3003,80.215.227.42,Paris
FR,France,Paris,75017,48.8835,2.3219,37.173.80.207,Paris
FR,France,Bouaye,44830,47.1426,-1.6931,93.22.151.88,Loire-Atlantique
FR,France,Anzin,59410,50.372,3.5039,93.22.39.140,North
FR,France,,,48.8582,2.3387000000000002,37.169.27.220,
FR,France,Paris,75002,48.8655,2.3426,80.215.83.206,Paris
FR,France,Paris,75014,48.8331,2.3264,80.215.163.221,Paris
FR,France,Paris,75020,48.8534,2.3487999999999998,92.184.106.5,Paris
FR,France,Le Mans,72100,48,0.2,87.88.178.208,Sarthe
FR,France,Paris,75020,48.8534,2.3487999999999998,92.184.105.200,Paris
FR,France,Paris,75019,48.8817,2.3822,37.173.175.3,Paris
FR,France,Paris,75013,48.8322,2.3561,37.165.145.38,Paris
FR,France,Reims,,49.25,4.0333,217.108.155.133,Marne
FR,France,Paris,75018,48.8925,2.3444,80.215.129.238,Paris
FR,France,Draveil,91210,48.6847,2.4142,90.44.187.181,Essonne
FR,France,Levallois-Perret,92300,48.8939,2.2886,37.165.30.83,Hauts-de-Seine
FR,France,Paris,75001,48.8628,2.3292,37.171.24.20,Paris
FR,France,Paris,75015,48.8412,2.3003,80.215.224.253,Paris
FR,France,,,48.8582,2.3387000000000002,37.166.88.26,
FR,France,Paris,75019,48.8817,2.3822,80.215.245.5,Paris
FR,France,Alençon,61000,48.4333,0.0833,87.88.168.43,Orne
FR,France,Le Mans,72100,48,0.2,87.88.160.11,Sarthe
FR,France,Paris,75017,48.8835,2.3219,80.215.75.102,Paris
FR,France,,,48.8582,2.3387000000000002,37.166.8.62,
FR,France,Paris,75018,48.8925,2.3444,80.215.196.27,Paris
FR,France,Argenteuil,95100,48.95,2.25,31.172.236.227,Val d'Oise
FR,France,Paris,75018,48.8925,2.3444,37.171.142.67,Paris
FR,France,Paris,75015,48.8412,2.3003,80.215.225.148,Paris
FR,France,Saint-Die-des-Vosges,88100,48.2494,6.8995999999999995,93.22.134.209,Vosges
FR,France,Paris,75020,48.8534,2.3487999999999998,92.184.105.31,Paris
FR,France,Paris,75001,48.8628,2.3292,37.164.144.219,Paris
FR,France,Paris,75000,48.8534,2.3487999999999998,37.164.208.27,Paris
FR,France,,,48.8582,2.3387000000000002,193.56.243.37,
FR,France,Anzin,59410,50.372,3.5039,93.22.38.253,North
FR,France,Paris,75013,48.8322,2.3561,80.215.152.103,Paris
FR,France,Paris,75014,48.8331,2.3264,80.215.166.146,Paris
FR,France,,,48.8582,2.3387000000000002,93.23.12.3,
FR,France,,,48.8582,2.3387000000000002,37.166.137.129,
FR,France,Paris,75014,48.8331,2.3264,80.215.35.253,Paris
FR,France,Le Bourget,93350,48.9341,2.4358,37.171.66.230,Seine-Saint-Denis
FR,France,Paris,75018,48.8925,2.3444,80.215.128.102,Paris
FR,France,Paris,75017,48.8835,2.3219,37.164.224.164,Paris
FR,France,Ivry-sur-Seine,94200,48.8157,2.3849,80.215.170.58,Val-de-Marne
FR,France,,,48.8582,2.3387000000000002,37.166.230.65,
FR,France,Paris,75001,48.8628,2.3292,134.157.25.77,Paris
FR,France,Vanves,92170,48.8235,2.2903000000000002,80.215.88.203,Hauts-de-Seine
FR,France,Bouaye,44830,47.1426,-1.6931,93.22.151.204,Loire-Atlantique
FR,France,,,48.8582,2.3387000000000002,185.189.22.33,
FR,France,,,48.8582,2.3387000000000002,92.184.98.74,
FR,France,Vanves,92170,48.8235,2.2903000000000002,80.215.95.148,Hauts-de-Seine
FR,France,Routot,27350,49.378,0.7335,37.172.214.54,Eure
FR,France,Paris,75012,48.8412,2.3876,92.184.117.233,Paris
FR,France,Paris,75001,48.8628,2.3292,134.157.27.236,Paris
FR,France,Fresnes,94260,48.7557,2.3224,80.215.206.16,Val-de-Marne
FR,France,,,48.8582,2.3387000000000002,93.23.15.215,
FR,France,Paris,75001,48.8628,2.3292,134.157.26.146,Paris
FR,France,Clichy,92110,48.9002,2.3095,37.165.243.90,Hauts-de-Seine
FR,France,Paris,75001,48.8628,2.3292,134.157.27.223,Paris
FR,France,,,48.8582,2.3387000000000002,89.85.246.75,
FR,France,,,48.8582,2.3387000000000002,92.184.97.51,
FR,France,Paris,75013,48.8322,2.3561,80.215.156.134,Paris
FR,France,,,48.8582,2.3387000000000002,93.23.15.219,
FR,France,Levallois-Perret,92300,48.8939,2.2886,37.165.29.162,Hauts-de-Seine
FR,France,Paris,75015,48.8412,2.3003,80.214.125.101,Paris
FR,France,Levallois-Perret,92300,48.8939,2.2886,80.215.101.195,Hauts-de-Seine
FR,France,Paris,75020,48.8534,2.3487999999999998,37.170.50.210,Paris
FR,France,Paris,75020,48.8534,2.3487999999999998,80.214.116.87,Paris
FR,France,Paris,75020,48.8534,2.3487999999999998,92.184.106.168,Paris
FR,France,Saint-Die-des-Vosges,88100,48.2494,6.8995999999999995,93.22.132.186,Vosges
FR,France,Paris,75012,48.8412,2.3876,92.184.117.19,Paris
FR,France,Levallois-Perret,92300,48.8939,2.2886,80.215.96.131,Hauts-de-Seine
FR,France,,,48.8582,2.3387000000000002,37.166.195.179,
FR,France,Anzin,59410,50.372,3.5039,93.22.37.190,North
FR,France,Paris,75001,48.8628,2.3292,134.157.26.148,Paris
FR,France,Anzin,59410,50.372,3.5039,93.22.38.59,North
FR,France,,,48.8582,2.3387000000000002,92.184.98.124,
FR,France,Paris,75001,48.8628,2.3292,134.157.53.42,Paris
FR,France,Gigean,34770,43.5003,3.7117,78.196.183.188,Hérault
FR,France,Anzin,59410,50.372,3.5039,93.22.37.17,North
FR,France,,,48.8582,2.3387000000000002,93.23.12.50,
FR,France,Levallois-Perret,92300,48.8939,2.2886,80.215.100.161,Hauts-de-Seine
FR,France,Saint-Die-des-Vosges,88100,48.2494,6.8995999999999995,93.22.134.102,Vosges
FR,France,,,48.8582,2.3387000000000002,37.166.178.242,
Not found,Not found,Not found,Not found,Not found,Not found,IP Not found,Not found
FR,France,Aubervilliers,93300,48.9167,2.3833,37.173.27.175,Seine-Saint-Denis
FR,France,Paris,75002,48.8655,2.3426,37.164.90.173,Paris
FR,France,Paris,75010,48.8709,2.3561,80.215.11.190,Paris
FR,France,,,48.8667,2.3333,37.165.99.114,Île-de-France
FR,France,Paris,75008,48.8763,2.3183,37.170.189.206,Paris
FR,France,Paris,75019,48.8817,2.3822,37.170.254.0,Paris
FR,France,Paris,75020,48.8534,2.3487999999999998,80.214.114.73,Paris
FR,France,Paris,75015,48.8412,2.3003,80.215.231.242,Paris
FR,France,,,48.8582,2.3387000000000002,37.166.23.42,
FR,France,Anzin,59410,50.372,3.5039,93.22.38.43,North
FR,France,Le Mans,72000,48,0.2,87.88.190.198,Sarthe
FR,France,Bagnolet,93170,48.8667,2.4167,37.170.102.250,Seine-Saint-Denis
FR,France,Le Mans,72000,48,0.2,87.88.174.89,Sarthe
FR,France,Bouaye,44830,47.1426,-1.6931,93.22.151.163,Loire-Atlantique
FR,France,,,48.8582,2.3387000000000002,93.23.12.191,
FR,France,Paris,75011,48.8574,2.3795,37.165.32.124,Paris
FR,France,Paris,75001,48.8628,2.3292,134.157.27.56,Paris
FR,France,Paris,75001,48.8628,2.3292,134.157.27.143,Paris
FR,France,Paris,75002,48.8655,2.3426,80.215.84.176,Paris
FR,France,,,48.8582,2.3387000000000002,37.170.61.27,
Not found,Not found,Not found,Not found,Not found,Not found,IP Not found,Not found
HK,Hong Kong,,,22.25,114.1667,202.66.60.187,
Not found,Not found,Not found,Not found,Not found,Not found,IP Not found,Not found
Not found,Not found,Not found,Not found,Not found,Not found,IP Not found,Not found
Not found,Not found,Not found,Not found,Not found,Not found,IP Not found,Not found
Not found,Not found,Not found,Not found,Not found,Not found,IP Not found,Not found
Not found,Not found,Not found,Not found,Not found,Not found,IP Not found,Not found
Not found,Not found,Not found,Not found,Not found,Not found,IP Not found,Not found
Not found,Not found,Not found,Not found,Not found,Not found,IP Not found,Not found
Not found,Not found,Not found,Not found,Not found,Not found,IP Not found,Not found
Not found,Not found,Not found,Not found,Not found,Not found,IP Not found,Not found
Not found,Not found,Not found,Not found,Not found,Not found,IP Not found,Not found
Not found,Not found,Not found,Not found,Not found,Not found,IP Not found,Not found
Not found,Not found,Not found,Not found,Not found,Not found,IP Not found,Not found
Not found,Not found,Not found,Not found,Not found,Not found,IP Not found,Not found
Not found,Not found,Not found,Not found,Not found,Not found,IP Not found,Not found
Not found,Not found,Not found,Not found,Not found,Not found,IP Not found,Not found
Not found,Not found,Not found,Not found,Not found,Not found,IP Not found,Not found
Not found,Not found,Not found,Not found,Not found,Not found,IP Not found,Not found
FR,France,Paris,75015,48.8412,2.3003,37.164.110.245,Paris
FR,France,Anzin,59410,50.372,3.5039,93.22.39.66,North
FR,France,Paris,75018,48.8925,2.3444,37.164.160.179,Paris
US,United States,,,37.751,-97.822,156.146.62.47,
FR,France,Paris,75019,48.8817,2.3822,37.164.239.224,Paris
IT,Italy,,,43.1479,12.1097,84.17.53.222,
FR,France,Paris,75015,48.8412,2.3003,80.214.125.163,Paris
Not found,Not found,Not found,Not found,Not found,Not found,IP Not found,Not found
FR,France,,,48.8582,2.3387000000000002,37.164.27.203,
FR,France,,,48.8582,2.3387000000000002,89.85.254.16,
FR,France,Paris,75016,48.8637,2.2769,37.164.249.238,Paris
Not found,Not found,Not found,Not found,Not found,Not found,IP Not found,Not found
HK,Hong Kong,,,22.25,114.1667,202.66.60.187,
Not found,Not found,Not found,Not found,Not found,Not found,IP Not found,Not found
Not found,Not found,Not found,Not found,Not found,Not found,IP Not found,Not found
Not found,Not found,Not found,Not found,Not found,Not found,IP Not found,Not found
Not found,Not found,Not found,Not found,Not found,Not found,IP Not found,Not found
Not found,Not found,Not found,Not found,Not found,Not found,IP Not found,Not found
Not found,Not found,Not found,Not found,Not found,Not found,IP Not found,Not found
Not found,Not found,Not found,Not found,Not found,Not found,IP Not found,Not found
Not found,Not found,Not found,Not found,Not found,Not found,IP Not found,Not found
Not found,Not found,Not found,Not found,Not found,Not found,IP Not found,Not found
Not found,Not found,Not found,Not found,Not found,Not found,IP Not found,Not found
Not found,Not found,Not found,Not found,Not found,Not found,IP Not found,Not found
Not found,Not found,Not found,Not found,Not found,Not found,IP Not found,Not found
Not found,Not found,Not found,Not found,Not found,Not found,IP Not found,Not found
Not found,Not found,Not found,Not found,Not found,Not found,IP Not found,Not found
Not found,Not found,Not found,Not found,Not found,Not found,IP Not found,Not found
Not found,Not found,Not found,Not found,Not found,Not found,IP Not found,Not found
Not found,Not found,Not found,Not found,Not found,Not found,IP Not found,Not found
Not found,Not found,Not found,Not found,Not found,Not found,IP Not found,Not found
FR,France,,,48.8582,2.3387000000000002,92.184.97.25,
FR,France,Bouaye,44830,47.1426,-1.6931,93.22.149.27,Loire-Atlantique
FR,France,Paris,75018,48.8925,2.3444,80.215.193.239,Paris
FR,France,Paris,75015,48.8412,2.3003,80.215.227.99,Paris
FR,France,,,48.8582,2.3387000000000002,77.204.105.34,
Not found,Not found,Not found,Not found,Not found,Not found,IP Not found,Not found
FR,France,Anzin,59410,50.372,3.5039,93.22.38.6,North
FR,France,Paris,75013,48.8322,2.3561,80.215.154.189,Paris
FR,France,Paris,75013,48.8322,2.3561,80.215.45.153,Paris
FR,France,Paris,75001,48.8628,2.3292,134.157.53.36,Paris
Not found,Not found,Not found,Not found,Not found,Not found,IP Not found,Not found
Not found,Not found,Not found,Not found,Not found,Not found,IP Not found,Not found
FR,France,Vanves,92170,48.8235,2.2903000000000002,80.215.91.201,Hauts-de-Seine
FR,France,Paris,75000,48.8534,2.3487999999999998,37.164.209.166,Paris
FR,France,Paris,75019,48.8817,2.3822,80.215.240.58,Paris
FR,France,Anzin,59410,50.372,3.5039,93.22.37.243,North
Not found,Not found,Not found,Not found,Not found,Not found,IP Not found,Not found
FR,France,Luce,28110,48.4369,1.4636,87.88.177.43,Eure-et-Loir
FR,France,Paris,75014,48.8331,2.3264,80.215.38.138,Paris
RO,Romania,,,46,25,188.241.83.76,
FR,France,Saint-Die-des-Vosges,88100,48.2494,6.8995999999999995,93.22.132.122,Vosges
FR,France,Laval,53000,48.0667,-0.7667,87.88.181.219,Mayenne
FR,France,Clichy,92110,48.9002,2.3095,37.165.242.107,Hauts-de-Seine
FR,France,Bouaye,44830,47.1426,-1.6931,93.22.148.201,Loire-Atlantique
FR,France,Paris,75010,48.8709,2.3561,80.215.15.253,Paris
FR,France,Levallois-Perret,92300,48.8939,2.2886,37.165.26.255,Hauts-de-Seine
FR,France,Bouaye,44830,47.1426,-1.6931,93.22.148.31,Loire-Atlantique
FR,France,Bouaye,44830,47.1426,-1.6931,93.22.150.185,Loire-Atlantique
ES,Spain,,,40.4172,-3.684,91.116.98.227,
FR,France,Paris,75019,48.8817,2.3822,80.214.24.28,Paris
FR,France,Paris,75011,48.8574,2.3795,185.61.186.147,Paris
FR,France,Roubaix,59100,50.6942,3.1746,77.204.247.180,North
FR,France,Paris,75002,48.8655,2.3426,80.215.80.138,Paris
FR,France,Levallois-Perret,92300,48.8939,2.2886,80.215.98.86,Hauts-de-Seine
FR,France,Paris,75015,48.8412,2.3003,80.214.127.32,Paris
FR,France,Paris,75014,48.8331,2.3264,80.215.164.133,Paris
FR,France,Saint-Die-des-Vosges,88100,48.2494,6.8995999999999995,93.22.133.11,Vosges
FR,France,Paris,75004,48.8601,2.3507,37.170.248.39,Paris
FR,France,Paris,75017,48.8835,2.3219,80.214.75.153,Paris
FR,France,,,48.8582,2.3387000000000002,92.184.97.170,
FR,France,,,48.8582,2.3387000000000002,37.166.172.246,
FR,France,Bouaye,44830,47.1426,-1.6931,93.22.151.179,Loire-Atlantique
FR,France,,,48.8582,2.3387000000000002,93.23.13.139,
FR,France,,,48.8582,2.3387000000000002,37.171.148.70,
FR,France,Pantin,93500,48.8944,2.4093,37.170.87.60,Seine-Saint-Denis
FR,France,Le Mans,72000,48,0.2,87.88.175.138,Sarthe
FR,France,Anzin,59410,50.372,3.5039,93.22.36.3,North
FR,France,Paris,75008,48.8763,2.3183,80.215.108.95,Paris
FR,France,Paris,75017,48.8835,2.3219,80.215.74.134,Paris
FR,France,Paris,75002,48.8655,2.3426,37.164.93.63,Paris
FR,France,Paris,75002,48.8655,2.3426,90.63.225.239,Paris
FR,France,Paris,75008,48.8763,2.3183,37.165.233.147,Paris
GB,United Kingdom,Islington,N1,51.5367,-0.0944,82.47.230.187,Islington
FR,France,Saint-Die-des-Vosges,88100,48.2494,6.8995999999999995,93.22.135.164,Vosges
FR,France,,,48.8582,2.3387000000000002,37.164.42.211,
GB,United Kingdom,Kidderminster,DY11,52.375,-2.2417,185.13.106.105,Worcestershire
FR,France,Bouaye,44830,47.1426,-1.6931,93.22.148.23,Loire-Atlantique
FR,France,Villeurbanne,69100,45.7667,4.8833,80.214.220.2,Rhône
FR,France,Sainte-Barbe,88700,48.3967,6.7227,90.26.71.217,Vosges
FR,France,Le Mans,72000,48,0.2,87.88.169.154,Sarthe
FR,France,Lyon,69007,45.7452,4.842,80.215.217.250,Rhône
FR,France,Massy,91300,48.7269,2.283,37.165.133.171,Essonne
US,United States,,,37.751,-97.822,143.244.57.82,
RO,Romania,,,46,25,84.247.51.244,
FR,France,Le Mans,72000,48,0.2,87.88.169.226,Sarthe
US,United States,,,37.751,-97.822,143.244.57.69,
US,United States,,,37.751,-97.822,143.244.57.67,
US,United States,,,37.751,-97.822,143.244.56.231,
FR,France,Paris,75018,48.8925,2.3444,37.164.163.56,Paris
FR,France,Paris,75020,48.8534,2.3487999999999998,80.215.65.10,Paris
FR,France,,,48.8582,2.3387000000000002,93.23.15.194,
FR,France,,,48.8582,2.3387000000000002,93.23.14.100,
FR,France,,,48.8582,2.3387000000000002,93.23.13.172,
FR,France,Paris,75020,48.8534,2.3487999999999998,37.164.154.5,Paris
US,United States,,,37.751,-97.822,23.90.200.178,
FR,France,Saint-Denis,93200,48.9333,2.3667,37.164.213.67,Seine-Saint-Denis
FR,France,Vallon-en-Sully,03190,46.5368,2.6083,78.198.231.76,Allier
FR,France,Bouaye,44830,47.1426,-1.6931,93.22.149.171,Loire-Atlantique
FR,France,Pessac,33600,44.8101,-0.6413,82.125.66.243,Gironde
FR,France,Douy-la-Ramee,77139,49.0667,2.8833,86.218.47.207,Seine-et-Marne
FR,France,Paris,75020,48.8534,2.3487999999999998,80.214.64.71,Paris
FR,France,Paris,75013,48.8322,2.3561,109.7.227.99,Paris
FR,France,Boulogne-Billancourt,92100,48.8333,2.25,37.169.15.62,Hauts-de-Seine
FR,France,Bouaye,44830,47.1426,-1.6931,93.22.148.255,Loire-Atlantique
FR,France,Paris,75001,48.8628,2.3292,132.227.79.250,Paris
FR,France,Montreuil,93100,48.8642,2.4432,37.172.230.96,Seine-Saint-Denis
FR,France,Paris,75005,48.8448,2.3471,46.193.66.76,Paris
FR,France,Paris,75002,48.8655,2.3426,37.168.173.141,Paris
FR,France,Paris,75010,48.8709,2.3561,37.173.125.2,Paris
FR,France,,,48.8582,2.3387000000000002,185.189.22.111,
FR,France,,,48.8582,2.3387000000000002,93.23.12.54,
FR,France,Paris,75019,48.8817,2.3822,80.215.240.68,Paris
FR,France,Paris,75020,48.8534,2.3487999999999998,92.184.106.189,Paris
FR,France,Ivry-sur-Seine,94200,48.8157,2.3849,86.247.178.72,Val-de-Marne
FR,France,Paris,75020,48.8534,2.3487999999999998,92.184.106.140,Paris
FR,France,Aubervilliers,93300,48.9167,2.3833,90.3.18.116,Seine-Saint-Denis
FR,France,Paris,75003,48.8637,2.3615,90.44.184.239,Paris
ES,Spain,,,40.4172,-3.684,47.60.47.189,
FR,France,Paris,75001,48.8628,2.3292,134.157.24.111,Paris
FR,France,Paris,75009,48.8718,2.3399,90.79.140.78,Paris
FR,France,,,48.8582,2.3387000000000002,37.166.2.165,
FR,France,Roubaix,59100,50.6942,3.1746,77.204.247.122,North
FR,France,Drancy,93700,48.9258,2.4453,37.168.86.3,Seine-Saint-Denis
FR,France,Aubervilliers,93300,48.9167,2.3833,86.252.164.14,Seine-Saint-Denis
FR,France,Paris,75020,48.8534,2.3487999999999998,37.164.159.224,Paris
FR,France,Brétigny-sur-Orge,,48.6189,2.3092,86.238.163.33,Essonne
FR,France,Ivry-sur-Seine,94200,48.8157,2.3849,86.247.178.11,Val-de-Marne
FR,France,Marseille,13000,43.2854,5.3761,92.184.102.197,Bouches-du-Rhône
FR,France,Paris,75001,48.8628,2.3292,134.157.79.241,Paris
FR,France,Paris,75017,48.8835,2.3219,80.215.1.246,Paris
FR,France,,,48.8582,2.3387000000000002,193.56.244.0,
FR,France,Saint-Denis,93200,48.9333,2.3667,37.164.213.27,Seine-Saint-Denis
FR,France,Paris,75017,48.8835,2.3219,80.214.23.126,Paris
FR,France,Bondy,93140,48.9018,2.4893,37.172.114.79,Seine-Saint-Denis
FR,France,Annecy,74000,45.9,6.1167,77.204.144.133,Haute-Savoie
FR,France,Paris,75012,48.8412,2.3876,92.184.117.239,Paris
FR,France,,,48.8582,2.3387000000000002,77.204.105.120,
FR,France,,,48.8582,2.3387000000000002,77.204.197.150,
FR,France,Roubaix,59100,50.6942,3.1746,77.204.247.223,North
FR,France,Annecy,74000,45.9,6.1167,77.204.145.147,Haute-Savoie
FR,France,Paris,75017,48.8835,2.3219,37.164.243.131,Paris
FR,France,Lille,59000,50.633,3.0586,46.193.1.216,North
FR,France,Paris,75011,48.8574,2.3795,37.165.58.237,Paris
FR,France,Les Pavillons-sous-Bois,93320,48.9068,2.5065,37.173.120.97,Seine-Saint-Denis
FR,France,Paris,75012,48.8412,2.3876,92.184.117.46,Paris
FR,France,Roubaix,59100,50.6942,3.1746,77.204.244.88,North
FR,France,,,48.8582,2.3387000000000002,77.204.196.58,
GB,United Kingdom,Kidderminster,DY11,52.375,-2.2417,185.13.106.215,Worcestershire
US,United States,,,37.751,-97.822,159.242.228.132,
FR,France,,,48.8582,2.3387000000000002,37.175.250.121,
FR,France,Roubaix,59100,50.6942,3.1746,77.204.246.60,North
FR,France,Fontenay-sous-Bois,94120,48.8544,2.4827,37.172.22.243,Val-de-Marne
FR,France,,,48.8582,2.3387000000000002,37.166.74.160,
FR,France,,,48.8582,2.3387000000000002,93.23.248.224,
FR,France,Paris,75015,48.8412,2.3003,80.214.120.242,Paris
FR,France,,,48.8582,2.3387000000000002,37.166.246.83,
FR,France,Levallois-Perret,92300,48.8939,2.2886,37.165.24.114,Hauts-de-Seine
FR,France,Annecy,74000,45.9,6.1167,77.204.145.241,Haute-Savoie
FR,France,Boulogne-Billancourt,92100,48.8333,2.25,37.164.79.169,Hauts-de-Seine
FR,France,Paris,75020,48.8534,2.3487999999999998,37.165.7.216,Paris
FR,France,Paris,75013,48.8322,2.3561,80.215.40.12,Paris
FR,France,Asnieres-sur-Seine,92600,48.9167,2.2833,37.172.128.18,Hauts-de-Seine
FR,France,,,48.8582,2.3387000000000002,77.204.197.60,
FR,France,Paris,75018,48.8925,2.3444,80.215.130.226,Paris
FR,France,Paris,75017,48.8835,2.3219,80.215.76.238,Paris
FR,France,Paris,75019,48.8817,2.3822,37.173.50.106,Paris
FR,France,Clermont-Ferrand,63000,45.7797,3.0863,37.173.117.159,Puy-de-Dôme
FR,France,Paris,75001,48.8628,2.3292,134.157.25.157,Paris
FR,France,Roubaix,59100,50.6942,3.1746,77.204.247.85,North
FR,France,Drancy,93700,48.9258,2.4453,86.252.179.214,Seine-Saint-Denis
FR,France,Roubaix,59100,50.6942,3.1746,77.204.245.233,North
FR,France,,,48.8582,2.3387000000000002,37.166.99.77,
FR,France,Paris,75017,48.8835,2.3219,80.214.22.32,Paris
FR,France,Paris,75019,48.8817,2.3822,37.164.181.124,Paris
FR,France,Paris,75020,48.8534,2.3487999999999998,92.184.106.42,Paris
FR,France,Paris,75015,48.8412,2.3003,37.164.108.171,Paris
FR,France,,,48.8582,2.3387000000000002,77.204.107.213,
FR,France,Paris,75019,48.8817,2.3822,37.164.182.63,Paris
ES,Spain,,,40.4172,-3.684,47.60.46.50,
FR,France,Cergy,95800,49.0364,2.0761,90.91.0.17,Val d'Oise
FR,France,Paris,75014,48.8331,2.3264,80.215.39.106,Paris
FR,France,,,48.8582,2.3387000000000002,93.23.251.42,
FR,France,,,48.8582,2.3387000000000002,81.185.161.152,
FR,France,Lyon,69003,45.7612,4.8518,77.131.35.107,Rhône
FR,France,Quimper,29000,48,-4.1,176.191.255.245,Finistère
IT,Italy,,,43.1479,12.1097,84.17.43.140,
IT,Italy,,,43.1479,12.1097,84.17.43.75,
FR,France,Saint-Die-des-Vosges,88100,48.2494,6.8995999999999995,93.22.134.79,Vosges
FR,France,Bouaye,44830,47.1426,-1.6931,93.22.150.63,Loire-Atlantique
FR,France,Saint-Die-des-Vosges,88100,48.2494,6.8995999999999995,93.22.132.118,Vosges
FR,France,Anzin,59410,50.372,3.5039,93.22.36.2,North
FR,France,Saint-Die-des-Vosges,88100,48.2494,6.8995999999999995,93.22.133.189,Vosges
FR,France,Paris,75020,48.8534,2.3487999999999998,37.171.7.60,Paris
FR,France,,,48.8582,2.3387000000000002,37.166.25.241,
FR,France,Anzin,59410,50.372,3.5039,93.22.38.139,North
Not found,Not found,Not found,Not found,Not found,Not found,IP Not found,Not found
FR,France,Palaiseau,91120,48.7167,2.25,37.165.253.128,Essonne
FR,France,Noyal-sur-Vilaine,35530,48.1122,-1.5232999999999999,78.202.106.123,Ille-et-Vilaine
FR,France,Sainte-Marie-aux-Mines,68160,48.2468,7.1853,92.184.121.193,Haut-Rhin
FR,France,,,48.8582,2.3387000000000002,93.23.15.147,
FR,France,Paris,75001,48.8628,2.3292,134.157.53.32,Paris
FR,France,Gentilly,94250,48.8129,2.3417,90.44.43.217,Val-de-Marne
FR,France,,,48.8582,2.3387000000000002,37.166.206.27,
FR,France,Raismes,59590,50.3833,3.4833,78.195.112.172,North
FR,France,Paris,75013,48.8322,2.3561,37.165.149.100,Paris
FR,France,Paris,75013,48.8322,2.3561,80.215.152.210,Paris
FR,France,Paris,75012,48.8412,2.3876,37.164.84.170,Paris
FR,France,,,48.8582,2.3387000000000002,91.175.206.42,
FR,France,,,48.8582,2.3387000000000002,37.166.20.202,
FR,France,Paris,75018,48.8925,2.3444,80.215.195.82,Paris
FR,France,,,48.8582,2.3387000000000002,37.166.26.12,
FR,France,Paris,75002,48.8655,2.3426,37.170.2.52,Paris
FR,France,Paris,75010,48.8709,2.3561,37.170.242.122,Paris
FR,France,Paris,75017,48.8835,2.3219,37.164.17.130,Paris
FR,France,,,48.8582,2.3387000000000002,176.179.129.82,
FR,France,Saint-Die-des-Vosges,88100,48.2494,6.8995999999999995,93.22.134.237,Vosges
FR,France,Rueil-Malmaison,92500,48.8765,2.1897,90.79.27.71,Hauts-de-Seine
FR,France,Paris,75009,48.8718,2.3399,37.165.80.180,Paris
FR,France,Paris,75019,48.8817,2.3822,80.214.25.26,Paris
FR,France,Vanves,92170,48.8235,2.2903000000000002,80.215.93.91,Hauts-de-Seine
FR,France,Metz,57050,49.1191,6.1727,37.170.173.18,Moselle
FR,France,Metz,57070,49.1191,6.1727,88.164.208.188,Moselle
FR,France,Saint-Die-des-Vosges,88100,48.2494,6.8995999999999995,93.22.132.150,Vosges
FR,France,Clerac,17270,45.1833,-0.2167,91.167.108.3,Charente-Maritime
TN,Tunisia,,,34,9,197.0.158.186,
GB,United Kingdom,Kidderminster,DY11,52.375,-2.2417,185.13.106.226,Worcestershire
FR,France,Maisons-Alfort,94700,48.8117,2.4394,37.172.125.48,Val-de-Marne
FR,France,Paris,75019,48.8817,2.3822,80.215.245.141,Paris
FR,France,,,48.8582,2.3387000000000002,193.57.121.234,
FR,France,,,48.8582,2.3387000000000002,37.166.97.174,
FR,France,Montreuil,93100,48.8642,2.4432,37.172.231.101,Seine-Saint-Denis
FR,France,,,48.8582,2.3387000000000002,89.85.241.128,
FR,France,Paris,75001,48.8628,2.3292,37.173.119.229,Paris
FR,France,Bouaye,44830,47.1426,-1.6931,93.22.150.137,Loire-Atlantique
FR,France,Paris,75001,48.8628,2.3292,37.173.33.142,Paris
TN,Tunisia,,,34,9,102.157.235.245,
FR,France,Paris,75019,48.8817,2.3822,37.173.53.197,Paris
FR,France,Paris,75008,48.8763,2.3183,37.165.221.171,Paris
FR,France,Paris,75015,48.8412,2.3003,90.92.63.195,Paris
FR,France,Anzin,59410,50.372,3.5039,93.22.36.168,North
FR,France,Lardy,91510,48.5185,2.2736,90.44.62.162,Essonne
FR,France,,,48.8582,2.3387000000000002,85.190.77.78,
FR,France,Sotteville-lès-Rouen,76300,49.4097,1.0901,176.179.154.70,Seine-Maritime
FR,France,,,48.8582,2.3387000000000002,77.204.107.26,
FR,France,Paris,75010,48.8709,2.3561,81.67.129.208,Paris
FR,France,Paris,75013,48.8322,2.3561,37.170.23.25,Paris
FR,France,,,48.8582,2.3387000000000002,193.57.125.78,
FR,France,Bouaye,44830,47.1426,-1.6931,93.22.148.29,Loire-Atlantique
FR,France,,,48.8582,2.3387000000000002,37.166.214.58,
FR,France,Albigny-sur-Saone,69250,45.8667,4.8333,37.165.168.124,Rhône
FR,France,Paris,75007,48.8565,2.321,37.164.125.101,Paris
RO,Romania,,,46,25,84.247.51.254,
Not found,Not found,Not found,Not found,Not found,Not found,IP Not found,Not found
US,United States,,,37.751,-97.822,143.244.57.86,
Not found,Not found,Not found,Not found,Not found,Not found,IP Not found,Not found
CA,Canada,Montreal,H2R,45.5401,-73.6225,192.222.224.46,Quebec
FR,France,Paris,75012,48.8412,2.3876,92.184.118.168,Paris
FR,France,,,48.8582,2.3387000000000002,93.23.14.40,
FR,France,,,48.8582,2.3387000000000002,85.190.68.201,
FR,France,Paris,75001,48.8628,2.3292,37.172.146.77,Paris
FR,France,Saint-Die-des-Vosges,88100,48.2494,6.8995999999999995,93.22.134.109,Vosges
Not found,Not found,Not found,Not found,Not found,Not found,IP Not found,Not found
FR,France,Paris,75013,48.8322,2.3561,80.215.45.26,Paris
FR,France,Paris,75017,48.8835,2.3219,37.170.231.148,Paris
FR,France,Anzin,59410,50.372,3.5039,93.22.38.38,North
FR,France,Anzin,59410,50.372,3.5039,93.22.39.4,North
FR,France,Saint-Nazaire,44600,47.2833,-2.2,88.164.232.89,Loire-Atlantique
FR,France,,,48.8582,2.3387000000000002,37.166.27.0,
US,United States,,,37.751,-97.822,143.244.57.72,
FR,France,,,48.8582,2.3387000000000002,93.23.13.36,
FR,France,Paris,75020,48.8534,2.3487999999999998,92.184.106.242,Paris
FR,France,Paris,75004,48.8601,2.3507,37.170.132.80,Paris
TN,Tunisia,Tunis,,36.8061,10.1711,102.158.200.184,Gouvernorat de Tunis
FR,France,Paris,75014,48.8331,2.3264,193.49.236.121,Paris
FR,France,Paris,75001,48.8628,2.3292,37.171.26.133,Paris
FR,France,Paris,75014,48.8331,2.3264,176.182.233.57,Paris
FR,France,,,48.8582,2.3387000000000002,37.166.198.155,
FR,France,Neuilly-sur-Seine,92200,48.8846,2.2697,93.13.83.202,Hauts-de-Seine
FR,France,Anzin,59410,50.372,3.5039,93.22.37.52,North
FR,France,Bouaye,44830,47.1426,-1.6931,93.22.148.101,Loire-Atlantique
FR,France,Paris,75011,48.8574,2.3795,37.165.36.80,Paris
FR,France,Saint-Denis,93200,48.9333,2.3667,37.165.179.197,Seine-Saint-Denis
FR,France,Suresnes,92150,48.8714,2.2293,87.88.187.198,Hauts-de-Seine
FR,France,Paris,75020,48.8534,2.3487999999999998,80.215.67.169,Paris
FR,France,Paris,75020,48.8534,2.3487999999999998,80.214.65.34,Paris
FR,France,Paris,75019,48.8817,2.3822,80.214.30.158,Paris
FR,France,Paris,75004,48.8601,2.3507,37.170.133.27,Paris
FR,France,Paris,75020,48.8534,2.3487999999999998,80.214.113.100,Paris
FR,France,Ivry-sur-Seine,94200,48.8157,2.3849,80.215.175.200,Val-de-Marne
FR,France,Bouaye,44830,47.1426,-1.6931,93.22.148.149,Loire-Atlantique
FR,France,Saint-Die-des-Vosges,88100,48.2494,6.8995999999999995,93.22.132.159,Vosges
FR,France,Bouaye,44830,47.1426,-1.6931,93.22.148.64,Loire-Atlantique
FR,France,Paris,75013,48.8322,2.3561,80.215.41.128,Paris
FR,France,Paris,75019,48.8817,2.3822,37.164.205.173,Paris
FR,France,Paris,75017,48.8835,2.3219,80.214.18.189,Paris
FR,France,,,48.8582,2.3387000000000002,185.189.22.90,
FR,France,Paris,75019,48.8817,2.3822,37.164.176.224,Paris
GB,United Kingdom,Kidderminster,DY11,52.375,-2.2417,185.13.106.115,Worcestershire
FR,France,,,48.8582,2.3387000000000002,80.215.178.131,
FR,France,Paris,75019,48.8817,2.3822,37.173.105.23,Paris
FR,France,Paris,75001,48.8628,2.3292,134.157.78.247,Paris
FR,France,,,48.8582,2.3387000000000002,80.215.138.107,
FR,France,Paris,75019,48.8817,2.3822,37.173.107.155,Paris
FR,France,Paris,75019,48.8817,2.3822,37.164.234.14,Paris
FR,France,Levallois-Perret,92300,48.8939,2.2886,80.215.102.219,Hauts-de-Seine
FR,France,Paris,75012,48.8412,2.3876,37.164.87.228,Paris
FR,France,Paris,75001,48.8628,2.3292,134.157.53.33,Paris
FR,France,Paris,75008,48.8763,2.3183,37.169.51.192,Paris
FR,France,Paris,75014,48.8331,2.3264,37.164.117.232,Paris
FR,France,Ivry-sur-Seine,94200,48.8157,2.3849,80.215.169.177,Val-de-Marne
FR,France,Paris,75010,48.8709,2.3561,37.164.185.182,Paris
FR,France,Paris,75017,48.8835,2.3219,37.164.226.218,Paris
FR,France,,,48.8582,2.3387000000000002,37.172.66.27,
FR,France,Vitry-sur-Seine,94400,48.7872,2.4032999999999998,37.165.14.133,Val-de-Marne
FR,France,,,48.8582,2.3387000000000002,37.166.19.64,
FR,France,Paris,75014,48.8331,2.3264,83.202.254.29,Paris
FR,France,Paris,75020,48.8534,2.3487999999999998,37.170.142.144,Paris
FR,France,Paris,75016,48.8637,2.2769,37.164.248.151,Paris
FR,France,,,48.8582,2.3387000000000002,193.56.243.85,
FR,France,Cachan,94230,48.7963,2.3366,82.123.120.230,Val-de-Marne
FR,France,Paris,75013,48.8322,2.3561,80.215.45.216,Paris
FR,France,Laval,53000,48.0667,-0.7667,87.88.164.24,Mayenne
FR,France,Aubervilliers,93300,48.9167,2.3833,37.170.181.107,Seine-Saint-Denis
FR,France,Paris,75020,48.8534,2.3487999999999998,37.170.55.14,Paris
GB,United Kingdom,Kidderminster,DY11,52.375,-2.2417,185.13.106.238,Worcestershire
FR,France,Roubaix,59100,50.6942,3.1746,77.204.247.164,North
FR,France,Paris,75001,48.8628,2.3292,134.157.53.38,Paris
FR,France,Le Mans,72000,48,0.2,87.88.174.121,Sarthe
FR,France,,,48.8582,2.3387000000000002,37.166.144.152,
FR,France,Paris,75019,48.8817,2.3822,37.171.96.243,Paris
FR,France,Toulouse,31000,43.6043,1.4437,92.184.108.180,Upper Garonne
FR,France,Rousson,30340,44.1914,4.1479,78.196.23.176,Gard
FR,France,Paris,75003,48.8637,2.3615,37.171.73.200,Paris
FR,France,,,48.8582,2.3387000000000002,77.204.104.108,
FR,France,Sermizelles,89200,47.5373,3.7932,37.172.250.92,Yonne
FR,France,Ivry-sur-Seine,94200,48.8157,2.3849,37.165.94.34,Val-de-Marne
FR,France,Trilport,77470,48.9569,2.9508,37.173.34.5,Seine-et-Marne
FR,France,,,48.8582,2.3387000000000002,77.204.106.24,
FR,France,,,48.8582,2.3387000000000002,77.204.197.196,
FR,France,,,48.8582,2.3387000000000002,193.57.120.24,
FR,France,,,48.8582,2.3387000000000002,37.165.135.144,
FR,France,Roubaix,59100,50.6942,3.1746,77.204.245.35,North
FR,France,Paris,75013,48.8322,2.3561,80.215.41.23,Paris
FR,France,Paris,75013,48.8322,2.3561,80.215.155.187,Paris
FR,France,Paris,75019,48.8817,2.3822,37.170.179.254,Paris
FR,France,La Courneuve,93120,48.928,2.3963,37.171.231.118,Seine-Saint-Denis
FR,France,Paris,75008,48.8763,2.3183,37.165.222.16,Paris
FR,France,Paris,75015,48.8412,2.3003,80.215.224.166,Paris
FR,France,Paris,75019,48.8817,2.3822,80.214.30.169,Paris
FR,France,Annecy,74000,45.9,6.1167,77.204.146.56,Haute-Savoie
FR,France,,,48.8582,2.3387000000000002,37.166.207.143,
FR,France,,,48.8582,2.3387000000000002,77.204.196.162,
FR,France,Paris,75013,48.8322,2.3561,37.171.247.177,Paris
FR,France,Annecy,74000,45.9,6.1167,77.204.147.30,Haute-Savoie
FR,France,Amiens,80000,49.9,2.3,109.219.27.160,Somme
FR,France,,,48.8582,2.3387000000000002,37.166.25.129,
FR,France,Annecy,74000,45.9,6.1167,77.204.146.93,Haute-Savoie
FR,France,Paris,75009,48.8718,2.3399,37.165.80.160,Paris
FR,France,Paris,75014,48.8331,2.3264,82.123.102.158,Paris
FR,France,Paris,75017,48.8835,2.3219,37.170.224.113,Paris
FR,France,Paris,75002,48.8655,2.3426,80.215.86.112,Paris
FR,France,Paris,75014,48.8331,2.3264,80.215.36.19,Paris
FR,France,Gentilly,94250,48.8129,2.3417,90.44.42.29,Val-de-Marne
FR,France,Paris,75019,48.8817,2.3822,80.214.25.42,Paris
FR,France,Roubaix,59100,50.6942,3.1746,77.204.245.94,North
FR,France,,,48.8582,2.3387000000000002,92.184.98.122,
FR,France,,,48.8582,2.3387000000000002,77.204.107.112,
FR,France,Saint-Denis,93200,48.9333,2.3667,37.165.182.255,Seine-Saint-Denis
FR,France,Le Kremlin-Bicetre,94270,48.8147,2.3607,86.247.121.6,Val-de-Marne
FR,France,Saint-Ouen,93400,48.9065,2.3334,37.173.215.5,Seine-Saint-Denis
FR,France,Paris,75014,48.8331,2.3264,80.215.38.187,Paris
FR,France,Vitry-sur-Seine,94400,48.7872,2.4032999999999998,37.168.22.102,Val-de-Marne
FR,France,,,48.8582,2.3387000000000002,89.85.246.35,
FR,France,Paris,75009,48.8718,2.3399,37.165.84.24,Paris
FR,France,Annecy,74000,45.9,6.1167,77.204.147.151,Haute-Savoie
FR,France,Laval,53000,48.0667,-0.7667,87.88.164.241,Mayenne
ES,Spain,,,40.4172,-3.684,31.4.209.247,
FR,France,,,48.8582,2.3387000000000002,77.204.196.137,
FR,France,Annecy,74000,45.9,6.1167,77.204.144.87,Haute-Savoie
FR,France,Paris,75014,48.8331,2.3264,37.173.141.207,Paris
FR,France,Paris,75014,48.8331,2.3264,80.215.33.47,Paris
FR,France,Roubaix,59100,50.6942,3.1746,77.204.244.220,North
FR,France,,,48.8582,2.3387000000000002,37.172.218.190,
FR,France,,,48.8582,2.3387000000000002,89.85.244.27,
FR,France,Le Mans,72000,48,0.2,87.88.184.117,Sarthe
FR,France,Paris,75014,48.8331,2.3264,37.164.118.81,Paris
FR,France,,,48.8582,2.3387000000000002,37.166.150.222,
FR,France,Paris,75013,48.8322,2.3561,37.172.54.122,Paris
FR,France,Paris,75001,48.8628,2.3292,37.173.36.98,Paris
FR,France,,,48.8582,2.3387000000000002,77.204.104.196,
FR,France,Paris,75001,48.8628,2.3292,134.157.79.242,Paris
FR,France,,,48.8582,2.3387000000000002,77.204.105.160,
FR,France,Paris,75017,48.8835,2.3219,80.215.6.71,Paris
FR,France,Franconville,95130,48.9833,2.2333,37.175.8.22,Val d'Oise
FR,France,Paris,75014,48.8331,2.3264,37.173.143.233,Paris
FR,France,,,48.8582,2.3387000000000002,89.85.252.149,
FR,France,Paris,75020,48.8534,2.3487999999999998,92.184.106.46,Paris
FR,France,Le Mans,72100,48,0.2,87.88.160.244,Sarthe
FR,France,Les Pavillons-sous-Bois,93320,48.9068,2.5065,37.173.123.85,Seine-Saint-Denis
FR,France,,,48.8582,2.3387000000000002,37.164.44.178,
FR,France,,,48.8582,2.3387000000000002,89.85.252.116,
FR,France,Roubaix,59100,50.6942,3.1746,77.204.244.247,North
FR,France,Paris,75014,48.8331,2.3264,37.173.138.48,Paris
FR,France,Le Mans,72000,48,0.2,87.88.185.148,Sarthe
FR,France,Paris,75008,48.8763,2.3183,37.165.219.4,Paris
FR,France,Paris,75020,48.8534,2.3487999999999998,92.184.105.37,Paris
FR,France,,,48.8582,2.3387000000000002,77.204.196.42,
FR,France,,,48.8582,2.3387000000000002,37.166.9.26,
FR,France,Paris,75012,48.8412,2.3876,37.170.193.48,Paris
BG,Bulgaria,Sofia,1000,42.6833,23.3167,212.5.158.11,Sofia-Capital
FR,France,Paris,75018,48.8925,2.3444,80.215.197.128,Paris
GB,United Kingdom,Kidderminster,DY11,52.375,-2.2417,185.13.106.221,Worcestershire
FR,France,Paris,75015,48.8412,2.3003,80.214.120.88,Paris
FR,France,Roubaix,59100,50.6942,3.1746,77.204.244.36,North
FR,France,,,48.8582,2.3387000000000002,77.204.199.168,
FR,France,Paris,75013,48.8322,2.3561,37.170.21.98,Paris
FR,France,,,48.8582,2.3387000000000002,77.204.107.184,
FR,France,Paris,75020,48.8534,2.3487999999999998,37.171.69.40,Paris
FR,France,Lyon,69007,45.7452,4.842,80.215.219.15,Rhône
FR,France,Meze,34140,43.425,3.6059,90.0.171.187,Hérault
FR,France,Alaincourt,02240,49.7655,3.3764,78.202.116.218,Aisne
FR,France,,,48.8582,2.3387000000000002,89.85.240.192,
FR,France,Paris,75020,48.8534,2.3487999999999998,37.165.5.127,Paris
FR,France,Paris,75013,48.8322,2.3561,80.215.44.195,Paris
FR,France,,,48.8582,2.3387000000000002,77.204.196.14,
FR,France,,,48.8582,2.3387000000000002,37.166.253.39,
FR,France,Paris,75014,48.8331,2.3264,80.215.32.148,Paris
FR,France,Paris,75020,48.8534,2.3487999999999998,80.214.113.42,Paris
FR,France,Paris,75020,48.8534,2.3487999999999998,92.184.105.23,Paris
FR,France,Paris,75002,48.8655,2.3426,37.165.52.100,Paris
FR,France,,,48.8582,2.3387000000000002,37.166.34.111,
FR,France,,,48.8582,2.3387000000000002,37.166.82.93,
FR,France,Paris,75002,48.8655,2.3426,37.164.88.38,Paris
FR,France,Ivry-sur-Seine,94200,48.8157,2.3849,80.215.169.199,Val-de-Marne
FR,France,Saint-Ouen,93400,48.9065,2.3334,37.173.213.2,Seine-Saint-Denis
FR,France,Paris,75001,48.8628,2.3292,134.157.26.136,Paris
FR,France,Paris,75013,48.8322,2.3561,80.215.40.130,Paris
FR,France,,,48.8582,2.3387000000000002,37.166.135.95,
FR,France,Luray,28500,48.7204,1.3989,87.88.172.137,Eure-et-Loir
FR,France,,,48.8582,2.3387000000000002,37.166.162.85,
FR,France,,,48.8582,2.3387000000000002,37.170.61.250,
FR,France,Saint-Maurice,94410,48.8218,2.4272,37.171.58.96,Val-de-Marne
FR,France,Paris,75014,48.8331,2.3264,80.215.35.238,Paris
FR,France,Ivry-sur-Seine,94200,48.8157,2.3849,37.173.96.0,Val-de-Marne
FR,France,Paris,75017,48.8835,2.3219,37.164.218.115,Paris
FR,France,,,48.8582,2.3387000000000002,37.172.219.222,
FR,France,Ivry-sur-Seine,94200,48.8157,2.3849,37.164.6.0,Val-de-Marne
FR,France,Sainte-Marie-aux-Mines,68160,48.2468,7.1853,92.184.123.172,Haut-Rhin
FR,France,,,48.8582,2.3387000000000002,185.228.228.56,
FR,France,Paris,75017,48.8835,2.3219,80.215.3.159,Paris
FR,France,Paris,75017,48.8835,2.3219,80.215.7.146,Paris
FR,France,Vitry-sur-Seine,94400,48.7872,2.4032999999999998,37.165.8.191,Val-de-Marne
FR,France,Paris,75020,48.8534,2.3487999999999998,80.214.66.252,Paris
FR,France,Roubaix,59100,50.6942,3.1746,77.204.247.133,North
FR,France,Neuilly-sur-Seine,92200,48.8846,2.2697,176.182.219.61,Hauts-de-Seine
FR,France,Paris,75018,48.8925,2.3444,37.165.64.12,Paris
FR,France,Alfortville,94140,48.8058,2.4204,37.165.187.37,Val-de-Marne
FR,France,,,48.8582,2.3387000000000002,77.204.197.38,
FR,France,Vitry-sur-Seine,94400,48.7872,2.4032999999999998,37.165.13.139,Val-de-Marne
FR,France,Paris,75014,48.8331,2.3264,80.215.165.154,Paris
FR,France,,,48.8582,2.3387000000000002,37.166.12.37,
FR,France,Paris,75001,48.8628,2.3292,134.157.26.177,Paris
FR,France,Paris,75015,48.8412,2.3003,37.171.16.180,Paris
BG,Bulgaria,Sofia,1000,42.6833,23.3167,212.5.158.35,Sofia-Capital
FR,France,Les Lilas,93260,48.8799,2.4206,37.170.26.114,Seine-Saint-Denis
FR,France,,,48.8582,2.3387000000000002,37.165.22.88,
FR,France,Paris,75010,48.8709,2.3561,80.215.8.148,Paris
FR,France,Paris,75015,48.8412,2.3003,80.214.123.65,Paris
FR,France,Roubaix,59100,50.6942,3.1746,77.204.246.32,North
FR,France,Paris,75019,48.8817,2.3822,37.171.100.245,Paris
FR,France,Roubaix,59100,50.6942,3.1746,77.204.246.159,North
FR,France,Alençon,61000,48.4333,0.0833,87.88.166.151,Orne
FR,France,Boulogne-Billancourt,92100,48.8333,2.25,37.164.103.131,Hauts-de-Seine
FR,France,,,48.8582,2.3387000000000002,77.204.199.249,
FR,France,,,48.8582,2.3387000000000002,77.204.105.104,
FR,France,Ivry-sur-Seine,94200,48.8157,2.3849,37.172.249.184,Val-de-Marne
FR,France,,,48.8582,2.3387000000000002,77.204.197.32,
FR,France,,,48.8582,2.3387000000000002,89.85.247.124,
FR,France,,,48.8582,2.3387000000000002,37.166.146.93,
FR,France,Ivry-sur-Seine,94200,48.8157,2.3849,80.215.169.61,Val-de-Marne
FR,France,Vitry-sur-Seine,94400,48.7872,2.4032999999999998,37.165.15.180,Val-de-Marne
FR,France,Fresnes,94260,48.7557,2.3224,37.164.26.70,Val-de-Marne
FR,France,Annecy,74000,45.9,6.1167,77.204.147.86,Haute-Savoie
FR,France,Paris,75017,48.8835,2.3219,80.215.4.2,Paris
FR,France,Paris,75017,48.8835,2.3219,37.173.86.50,Paris
FR,France,Paris,75018,48.8925,2.3444,37.173.196.224,Paris
FR,France,,,48.8582,2.3387000000000002,77.204.104.65,
FR,France,Paris,75017,48.8835,2.3219,37.173.235.96,Paris
FR,France,Annecy,74000,45.9,6.1167,77.204.146.40,Haute-Savoie
PL,Poland,Poznan,61-778,52.4079,16.936,37.47.143.237,Greater Poland
FR,France,Annecy,74000,45.9,6.1167,77.204.145.223,Haute-Savoie
FR,France,Paris,75018,48.8925,2.3444,80.215.193.139,Paris
FR,France,Paris,75017,48.8835,2.3219,80.214.72.248,Paris
FR,France,Roubaix,59100,50.6942,3.1746,77.204.246.46,North
FR,France,Paris,75020,48.8534,2.3487999999999998,92.184.105.193,Paris
FR,France,,,48.8582,2.3387000000000002,37.171.135.145,
FR,France,Levallois-Perret,92300,48.8939,2.2886,37.165.27.32,Hauts-de-Seine
FR,France,Bagneux,92220,48.7956,2.308,37.175.87.46,Hauts-de-Seine
FR,France,Lyon,,45.7485,4.8467,80.215.115.27,Rhône
FR,France,Aubervilliers,93300,48.9167,2.3833,37.173.43.124,Seine-Saint-Denis
FR,France,Annecy,74000,45.9,6.1167,77.204.147.232,Haute-Savoie
FR,France,Paris,75017,48.8835,2.3219,37.165.251.145,Paris
FR,France,,,48.8582,2.3387000000000002,77.204.196.122,
FR,France,,,48.8582,2.3387000000000002,77.204.107.222,
FR,France,Annecy,74000,45.9,6.1167,77.204.145.245,Haute-Savoie
FR,France,,,48.8582,2.3387000000000002,89.85.250.13,
FR,France,Paris,75004,48.8601,2.3507,37.164.138.138,Paris
FR,France,Paris,75011,48.8574,2.3795,86.252.203.39,Paris
FR,France,Paris,75015,48.8412,2.3003,90.92.48.125,Paris
IT,Italy,,,43.1479,12.1097,84.17.43.179,
FR,France,Le Blanc-Mesnil,93150,48.9387,2.4614,37.172.245.171,Seine-Saint-Denis
Not found,Not found,Not found,Not found,Not found,Not found,IP Not found,Not found
FR,France,Paris,75018,48.8925,2.3444,37.165.71.84,Paris
FR,France,,,48.8582,2.3387000000000002,77.204.107.100,
FR,France,Annecy,74000,45.9,6.1167,77.204.146.48,Haute-Savoie
FR,France,,,48.8582,2.3387000000000002,37.166.208.6,
FR,France,Annecy,74000,45.9,6.1167,77.204.146.116,Haute-Savoie
FR,France,Courbevoie,92400,48.8967,2.2567,37.170.154.163,Hauts-de-Seine
FR,France,Paris,75014,48.8331,2.3264,80.215.39.12,Paris
FR,France,,,48.8582,2.3387000000000002,77.204.196.76,
FR,France,,,48.8582,2.3387000000000002,77.204.104.45,
FR,France,,,48.8582,2.3387000000000002,77.204.197.131,
FR,France,Annecy,74000,45.9,6.1167,77.204.144.9,Haute-Savoie
FR,France,Vitry-sur-Seine,94400,48.7872,2.4032999999999998,90.44.143.27,Val-de-Marne
FR,France,Roubaix,59100,50.6942,3.1746,77.204.246.177,North
FR,France,,,48.8582,2.3387000000000002,77.204.199.15,
FR,France,Montrouge,92120,48.8162,2.3139,85.190.74.178,Hauts-de-Seine
FR,France,Paris,75015,48.8412,2.3003,92.169.190.12,Paris
FR,France,Paris,75014,48.8331,2.3264,193.52.24.50,Paris
BG,Bulgaria,Sofia,1000,42.6833,23.3167,212.5.158.190,Sofia-Capital
FR,France,Voinemont,54134,48.5225,6.1616,109.221.170.148,Meurthe et Moselle
FR,France,Paris,75014,48.8331,2.3264,86.246.32.223,Paris
UA,Ukraine,,,50.45,30.5233,37.19.217.28,
FR,France,Levallois-Perret,92300,48.8939,2.2886,80.215.97.27,Hauts-de-Seine
FR,France,Paris,75018,48.8925,2.3444,80.215.129.86,Paris
FR,France,Agde,34300,43.3108,3.4758,5.48.25.49,Hérault
FR,France,Roubaix,59100,50.6942,3.1746,77.204.247.204,North
FR,France,Villemomble,93250,48.8833,2.5,86.252.94.253,Seine-Saint-Denis
FR,France,Paris,75001,48.8628,2.3292,194.254.61.40,Paris
FR,France,Paris,75001,48.8628,2.3292,194.254.61.45,Paris
FR,France,Paris,75001,48.8628,2.3292,194.254.61.46,Paris
FR,France,Montrouge,92120,48.8162,2.3139,37.165.42.46,Hauts-de-Seine
FR,France,Annecy,74000,45.9,6.1167,77.204.144.182,Haute-Savoie
FR,France,Paris,75020,48.8534,2.3487999999999998,37.171.233.67,Paris
FR,France,,,48.8582,2.3387000000000002,82.142.27.124,
FR,France,Paris,75017,48.8835,2.3219,80.215.2.179,Paris
BE,Belgium,Beerse,2340,51.3167,4.8667,212.221.45.79,Antwerp Province
FR,France,Paris,75018,48.8925,2.3444,80.215.135.59,Paris
FR,France,,,48.8582,2.3387000000000002,37.170.252.107,
